{"type":"Topology","arcs":[],"objects":{"contexto_estacoes_s":{"type":"GeometryCollection","geometries":[{"type":"Point","coordinates":[349839.37992637,7395675.04694196],"properties":{"modo":"metro","nome":"CORINTHIANS-ITAQUERA","linha":"VERMELHA","situacao":"OPERANDO"}},{"type":"Point","coordinates":[348457.59219193,7395884.16470692],"properties":{"modo":"metro","nome":"ARTUR ALVIM","linha":"VERMELHA","situacao":"OPERANDO"}},{"type":"Point","coordinates":[346732.71182345,7396874.61716485],"properties":{"modo":"metro","nome":"PATRIARCA","linha":"VERMELHA","situacao":"OPERANDO"}},{"type":"Point","coordinates":[345181.96485262,7397070.92107799],"properties":{"modo":"metro","nome":"GUILHERMINA-ESPERANÇA","linha":"VERMELHA","situacao":"OPERANDO"}},{"type":"Point","coordinates":[343708.93539349,7396765.73642141],"properties":{"modo":"metro","nome":"VILA MATILDE","linha":"VERMELHA","situacao":"OPERANDO"}},{"type":"Point","coordinates":[342552.65432383,7396575.721088],"properties":{"modo":"metro","nome":"PENHA","linha":"VERMELHA","situacao":"OPERANDO"}},{"type":"Point","coordinates":[340331.50735149,7396067.7314215],"properties":{"modo":"metro","nome":"CARRÃO","linha":"VERMELHA","situacao":"OPERANDO"}},{"type":"Point","coordinates":[339096.3078134,7395767.49459799],"properties":{"modo":"metro","nome":"TATUAPÉ","linha":"VERMELHA","situacao":"OPERANDO"}},{"type":"Point","coordinates":[337688.18119754,7395465.91546801],"properties":{"modo":"metro","nome":"BELÉM","linha":"VERMELHA","situacao":"OPERANDO"}},{"type":"Point","coordinates":[335912.73324377,7395063.61324462],"properties":{"modo":"metro","nome":"BRESSER-MOOCA","linha":"VERMELHA","situacao":"OPERANDO"}},{"type":"Point","coordinates":[335060.09055163,7394898.08570871],"properties":{"modo":"metro","nome":"BRÁS","linha":"VERMELHA","situacao":"OPERANDO"}},{"type":"Point","coordinates":[334041.43271383,7394683.76967368],"properties":{"modo":"metro","nome":"PEDRO II","linha":"VERMELHA","situacao":"OPERANDO"}},{"type":"Point","coordinates":[333305.33230447,7394541.84889184],"properties":{"modo":"metro","nome":"SÉ","linha":"VERMELHA","situacao":"OPERANDO"}},{"type":"Point","coordinates":[332714.45143448,7394864.46156379],"properties":{"modo":"metro","nome":"ANHANGABAÚ","linha":"VERMELHA","situacao":"OPERANDO"}},{"type":"Point","coordinates":[332274.04034481,7395308.3824277],"properties":{"modo":"metro","nome":"REPÚBLICA","linha":"VERMELHA","situacao":"OPERANDO"}},{"type":"Point","coordinates":[331683.56703271,7395772.95169542],"properties":{"modo":"metro","nome":"SANTA CECÍLIA","linha":"VERMELHA","situacao":"OPERANDO"}},{"type":"Point","coordinates":[330946.03503679,7396442.24306779],"properties":{"modo":"metro","nome":"MARECHAL DEODORO","linha":"VERMELHA","situacao":"OPERANDO"}},{"type":"Point","coordinates":[329777.81044712,7397267.1853323],"properties":{"modo":"metro","nome":"PALMEIRAS-BARRA FUNDA","linha":"VERMELHA","situacao":"OPERANDO"}},{"type":"Point","coordinates":[327406.73578307,7394975.26085309],"properties":{"modo":"metro","nome":"VILA MADALENA","linha":"VERDE","situacao":"OPERANDO"}},{"type":"Point","coordinates":[328772.26245774,7394478.99680497],"properties":{"modo":"metro","nome":"SANTUÁRIO NOSSA SENHORA DE FÁTIMA-SUMARÉ","linha":"VERDE","situacao":"OPERANDO"}},{"type":"Point","coordinates":[329468.05221825,7394144.35493801],"properties":{"modo":"metro","nome":"CLÍNICAS","linha":"VERDE","situacao":"OPERANDO"}},{"type":"Point","coordinates":[330449.02274056,7393810.54979637],"properties":{"modo":"metro","nome":"CONSOLAÇÃO","linha":"VERDE","situacao":"OPERANDO"}},{"type":"Point","coordinates":[331148.36714204,7393161.4917091],"properties":{"modo":"metro","nome":"TRIANON-MASP","linha":"VERDE","situacao":"OPERANDO"}},{"type":"Point","coordinates":[331876.55337839,7392536.51999082],"properties":{"modo":"metro","nome":"BRIGADEIRO","linha":"VERDE","situacao":"OPERANDO"}},{"type":"Point","coordinates":[332528.18664307,7391781.12019866],"properties":{"modo":"metro","nome":"PARAÍSO","linha":"VERDE","situacao":"OPERANDO"}},{"type":"Point","coordinates":[332783.11360797,7391165.2655509],"properties":{"modo":"metro","nome":"ANA ROSA","linha":"VERDE","situacao":"OPERANDO"}},{"type":"Point","coordinates":[333628.25923992,7389925.97577714],"properties":{"modo":"metro","nome":"CHÁCARA KLABIN","linha":"VERDE","situacao":"OPERANDO"}},{"type":"Point","coordinates":[334631.15726928,7389571.23960305],"properties":{"modo":"metro","nome":"SANTOS-IMIGRANTES","linha":"VERDE","situacao":"OPERANDO"}},{"type":"Point","coordinates":[335489.07840189,7388887.96380392],"properties":{"modo":"metro","nome":"ALTO DO IPIRANGA","linha":"VERDE","situacao":"OPERANDO"}},{"type":"Point","coordinates":[336426.75539975,7388984.85313319],"properties":{"modo":"metro","nome":"SACOMÃ","linha":"VERDE","situacao":"OPERANDO"}},{"type":"Point","coordinates":[337803.94534221,7389938.98888372],"properties":{"modo":"metro","nome":"TAMANDUATEÍ","linha":"VERDE","situacao":"OPERANDO"}},{"type":"Point","coordinates":[338576.0013701,7390901.38600502],"properties":{"modo":"metro","nome":"VILA PRUDENTE","linha":"VERDE","situacao":"OPERANDO"}},{"type":"Point","coordinates":[333198.78746191,7390311.40478147],"properties":{"modo":"metro","nome":"VILA MARIANA","linha":"AZUL","situacao":"OPERANDO"}},{"type":"Point","coordinates":[336278.64209541,7402432.16567483],"properties":{"modo":"metro","nome":"TUCURUVI","linha":"AZUL","situacao":"OPERANDO"}},{"type":"Point","coordinates":[335708.19390874,7401644.7582562],"properties":{"modo":"metro","nome":"PARADA INGLESA","linha":"AZUL","situacao":"OPERANDO"}},{"type":"Point","coordinates":[334868.31778528,7401039.06382955],"properties":{"modo":"metro","nome":"AYRTON SENNA-JARDIM SÃO PAULO","linha":"AZUL","situacao":"OPERANDO"}},{"type":"Point","coordinates":[334098.34623333,7399905.98778971],"properties":{"modo":"metro","nome":"SANTANA","linha":"AZUL","situacao":"OPERANDO"}},{"type":"Point","coordinates":[334087.37400838,7399163.08702139],"properties":{"modo":"metro","nome":"CARANDIRU","linha":"AZUL","situacao":"OPERANDO"}},{"type":"Point","coordinates":[334075.67379692,7398403.67198903],"properties":{"modo":"metro","nome":"PORTUGUESA-TIETÊ","linha":"AZUL","situacao":"OPERANDO"}},{"type":"Point","coordinates":[333660.75738356,7397361.35926249],"properties":{"modo":"metro","nome":"ARMÊNIA","linha":"AZUL","situacao":"OPERANDO"}},{"type":"Point","coordinates":[333378.1067754,7396786.88435675],"properties":{"modo":"metro","nome":"TIRADENTES","linha":"AZUL","situacao":"OPERANDO"}},{"type":"Point","coordinates":[333232.95855869,7396093.67384304],"properties":{"modo":"metro","nome":"LUZ","linha":"AZUL","situacao":"OPERANDO"}},{"type":"Point","coordinates":[333191.3340874,7395297.79262571],"properties":{"modo":"metro","nome":"SÃO BENTO","linha":"AZUL","situacao":"OPERANDO"}},{"type":"Point","coordinates":[333310.17304053,7394533.15033282],"properties":{"modo":"metro","nome":"SÉ","linha":"AZUL","situacao":"OPERANDO"}},{"type":"Point","coordinates":[333045.10571962,7394089.78105586],"properties":{"modo":"metro","nome":"JAPÃO-LIBERDADE","linha":"AZUL","situacao":"OPERANDO"}},{"type":"Point","coordinates":[332751.42522323,7393318.3892605],"properties":{"modo":"metro","nome":"SÃO JOAQUIM","linha":"AZUL","situacao":"OPERANDO"}},{"type":"Point","coordinates":[332633.70168738,7392541.3700694],"properties":{"modo":"metro","nome":"VERGUEIRO","linha":"AZUL","situacao":"OPERANDO"}},{"type":"Point","coordinates":[332556.90256449,7391786.30947636],"properties":{"modo":"metro","nome":"PARAÍSO","linha":"AZUL","situacao":"OPERANDO"}},{"type":"Point","coordinates":[332800.88363824,7391176.32179601],"properties":{"modo":"metro","nome":"ANA ROSA","linha":"AZUL","situacao":"OPERANDO"}},{"type":"Point","coordinates":[333198.78746191,7390311.40478147],"properties":{"modo":"metro","nome":"VILA MARIANA","linha":"AZUL","situacao":"OPERANDO"}},{"type":"Point","coordinates":[333003.17951458,7389232.4432782],"properties":{"modo":"metro","nome":"SANTA CRUZ","linha":"AZUL","situacao":"OPERANDO"}},{"type":"Point","coordinates":[332896.14739159,7387922.94479808],"properties":{"modo":"metro","nome":"PRAÇA DA ÁRVORE","linha":"AZUL","situacao":"OPERANDO"}},{"type":"Point","coordinates":[332768.13590207,7387039.08799932],"properties":{"modo":"metro","nome":"SAÚDE","linha":"AZUL","situacao":"OPERANDO"}},{"type":"Point","coordinates":[332616.57983828,7386246.28025875],"properties":{"modo":"metro","nome":"SÃO JUDAS","linha":"AZUL","situacao":"OPERANDO"}},{"type":"Point","coordinates":[332575.7102715,7385179.66042175],"properties":{"modo":"metro","nome":"CONCEIÇÃO","linha":"AZUL","situacao":"OPERANDO"}},{"type":"Point","coordinates":[332624.65743015,7383950.24740399],"properties":{"modo":"metro","nome":"JABAQUARA","linha":"AZUL","situacao":"OPERANDO"}},{"type":"Point","coordinates":[340615.27483533,7391161.70525186],"properties":{"modo":"metro","nome":"ORATÓRIO","linha":"PRATA","situacao":"OPERANDO"}},{"type":"Point","coordinates":[338384.46868313,7390852.35127883],"properties":{"modo":"metro","nome":"VILA PRUDENTE","linha":"PRATA","situacao":"OPERANDO"}},{"type":"Point","coordinates":[342412.98816687,7390393.00791145],"properties":{"modo":"metro","nome":"SÃO LUCAS","linha":"PRATA","situacao":"OPERANDO"}},{"type":"Point","coordinates":[344189.67171318,7389124.52321633],"properties":{"modo":"metro","nome":"VILA TOLSTÓI","linha":"PRATA","situacao":"OPERANDO"}},{"type":"Point","coordinates":[345312.65431399,7388920.58713036],"properties":{"modo":"metro","nome":"VILA UNIÃO","linha":"PRATA","situacao":"OPERANDO"}},{"type":"Point","coordinates":[343101.6170255,7389722.82637201],"properties":{"modo":"metro","nome":"CAMILO HADDAD","linha":"PRATA","situacao":"OPERANDO"}},{"type":"Point","coordinates":[319683.79488842,7382376.2694821],"properties":{"modo":"metro","nome":"CAPÃO REDONDO","linha":"LILAS","situacao":"OPERANDO"}},{"type":"Point","coordinates":[320593.60775595,7383485.6958516],"properties":{"modo":"metro","nome":"CAMPO LIMPO","linha":"LILAS","situacao":"OPERANDO"}},{"type":"Point","coordinates":[321930.55525713,7384496.5329763],"properties":{"modo":"metro","nome":"VILA DAS BELEZAS","linha":"LILAS","situacao":"OPERANDO"}},{"type":"Point","coordinates":[323122.92166707,7384116.91411431],"properties":{"modo":"metro","nome":"GIOVANNI GRONCHI","linha":"LILAS","situacao":"OPERANDO"}},{"type":"Point","coordinates":[324481.44323294,7382827.99762288],"properties":{"modo":"metro","nome":"SANTO AMARO","linha":"LILAS","situacao":"OPERANDO"}},{"type":"Point","coordinates":[325642.56398742,7382984.49753746],"properties":{"modo":"metro","nome":"LARGO TREZE","linha":"LILAS","situacao":"OPERANDO"}},{"type":"Point","coordinates":[326212.73974905,7383524.11957858],"properties":{"modo":"metro","nome":"ADOLFO PINHEIRO","linha":"LILAS","situacao":"OPERANDO"}},{"type":"Point","coordinates":[326694.52523939,7384432.72790545],"properties":{"modo":"metro","nome":"ALTO DA BOA VISTA","linha":"LILAS","situacao":"OPERANDO"}},{"type":"Point","coordinates":[327300.09671123,7385341.4502851],"properties":{"modo":"metro","nome":"BORBA GATO","linha":"LILAS","situacao":"OPERANDO"}},{"type":"Point","coordinates":[327800.88905772,7386023.87831823],"properties":{"modo":"metro","nome":"BROOKLIN","linha":"LILAS","situacao":"OPERANDO"}},{"type":"Point","coordinates":[329721.16769407,7387941.2581562],"properties":{"modo":"metro","nome":"EUCALIPTOS","linha":"LILAS","situacao":"OPERANDO"}},{"type":"Point","coordinates":[330427.17057804,7388704.40663098],"properties":{"modo":"metro","nome":"MOEMA","linha":"LILAS","situacao":"OPERANDO"}},{"type":"Point","coordinates":[332117.36014563,7389296.43576939],"properties":{"modo":"metro","nome":"HOSPITAL SÃO PAULO","linha":"LILAS","situacao":"OPERANDO"}},{"type":"Point","coordinates":[332952.80288857,7389271.07107836],"properties":{"modo":"metro","nome":"SANTA CRUZ","linha":"LILAS","situacao":"OPERANDO"}},{"type":"Point","coordinates":[333628.25923992,7389925.97577714],"properties":{"modo":"metro","nome":"CHÁCARA KLABIN","linha":"LILAS","situacao":"OPERANDO"}},{"type":"Point","coordinates":[331459.46308747,7389346.87709132],"properties":{"modo":"metro","nome":"AACD-SERVIDOR","linha":"LILAS","situacao":"OPERANDO"}},{"type":"Point","coordinates":[333148.13787931,7396175.50208235],"properties":{"modo":"metro","nome":"LUZ","linha":"AMARELA","situacao":"OPERANDO"}},{"type":"Point","coordinates":[332287.55712826,7395232.30824909],"properties":{"modo":"metro","nome":"REPÚBLICA","linha":"AMARELA","situacao":"OPERANDO"}},{"type":"Point","coordinates":[330344.75322948,7394047.69536134],"properties":{"modo":"metro","nome":"PAULISTA","linha":"AMARELA","situacao":"OPERANDO"}},{"type":"Point","coordinates":[327114.04710041,7392671.67592491],"properties":{"modo":"metro","nome":"FARIA LIMA","linha":"AMARELA","situacao":"OPERANDO"}},{"type":"Point","coordinates":[326327.29572169,7392659.55594115],"properties":{"modo":"metro","nome":"PINHEIROS","linha":"AMARELA","situacao":"OPERANDO"}},{"type":"Point","coordinates":[325665.63203959,7392119.00195971],"properties":{"modo":"metro","nome":"BUTANTÃ","linha":"AMARELA","situacao":"OPERANDO"}},{"type":"Point","coordinates":[328115.47426026,7392793.08620124],"properties":{"modo":"metro","nome":"FRADIQUE COUTINHO","linha":"AMARELA","situacao":"OPERANDO"}},{"type":"Point","coordinates":[331350.16964505,7394737.61496847],"properties":{"modo":"metro","nome":"HIGIENÓPOLIS-MACKENZIE","linha":"AMARELA","situacao":"OPERANDO"}},{"type":"Point","coordinates":[329341.41445343,7393433.26314404],"properties":{"modo":"metro","nome":"OSCAR FREIRE","linha":"AMARELA","situacao":"OPERANDO"}},{"type":"Point","coordinates":[324093.40748486,7390505.68656506],"properties":{"modo":"metro","nome":"SÃO PAULO-MORUMBI","linha":"AMARELA","situacao":"OPERANDO"}},{"type":"Point","coordinates":[328372.66040024,7386947.60524775],"properties":{"modo":"metro","nome":"CAMPO BELO","linha":"LILAS","situacao":"OPERANDO"}},{"type":"Point","coordinates":[349346.88711941,7387941.9597121],"properties":{"modo":"metro","nome":"SÃO MATEUS","linha":"PRATA","situacao":"OPERANDO"}},{"type":"Point","coordinates":[348245.48256522,7387974.7652675],"properties":{"modo":"metro","nome":"FAZENDA DA JUTA","linha":"PRATA","situacao":"OPERANDO"}},{"type":"Point","coordinates":[346825.07652178,7387620.51450971],"properties":{"modo":"metro","nome":"SAPOPEMBA","linha":"PRATA","situacao":"OPERANDO"}},{"type":"Point","coordinates":[346242.50993783,7388429.73227496],"properties":{"modo":"metro","nome":"JARDIM PLANALTO","linha":"PRATA","situacao":"OPERANDO"}},{"type":"Point","coordinates":[322987.53245599,7389713.83629434],"properties":{"modo":"metro","nome":"VILA SÔNIA","linha":"AMARELA","situacao":"OPERANDO"}},{"type":"Point","coordinates":[350955.5844,7381736.9799],"properties":{"modo":"trem","nome":"MAUÁ","linha":"TURQUESA","situacao":"OPERANDO"}},{"type":"Point","coordinates":[377700.1304,7398207.9289],"properties":{"modo":"trem","nome":"MOGI DAS CRUZES","linha":"CORAL","situacao":"OPERANDO"}},{"type":"Point","coordinates":[320793.7962,7410581.0577],"properties":{"modo":"trem","nome":"PERUS","linha":"RUBI","situacao":"OPERANDO"}},{"type":"Point","coordinates":[324897.7133,7399763.1616],"properties":{"modo":"trem","nome":"PIQUERI","linha":"RUBI","situacao":"OPERANDO"}},{"type":"Point","coordinates":[323738.5476,7401341.1457],"properties":{"modo":"trem","nome":"PIRITUBA","linha":"RUBI","situacao":"OPERANDO"}},{"type":"Point","coordinates":[362832.8061,7397672.9783],"properties":{"modo":"trem","nome":"POÁ","linha":"CORAL","situacao":"OPERANDO"}},{"type":"Point","coordinates":[343229.0636,7385028.545],"properties":{"modo":"trem","nome":"PREFEITO SALADINO","linha":"TURQUESA","situacao":"OPERANDO"}},{"type":"Point","coordinates":[355799.1303,7376740.2118],"properties":{"modo":"trem","nome":"RIBEIRÃO PIRES","linha":"TURQUESA","situacao":"OPERANDO"}},{"type":"Point","coordinates":[358170.5496,7373477.0499],"properties":{"modo":"trem","nome":"RIO GRANDE DA SERRA","linha":"TURQUESA","situacao":"OPERANDO"}},{"type":"Point","coordinates":[339816.2446,7388088.8287],"properties":{"modo":"trem","nome":"SÃO CAETANO","linha":"TURQUESA","situacao":"OPERANDO"}},{"type":"Point","coordinates":[352574.3596,7401436.5566],"properties":{"modo":"trem","nome":"SÃO MIGUEL PAULISTA","linha":"SAFIRA","situacao":"OPERANDO"}},{"type":"Point","coordinates":[366475.8013,7396758.6912],"properties":{"modo":"trem","nome":"SUZANO","linha":"CORAL","situacao":"OPERANDO"}},{"type":"Point","coordinates":[337819.8638,7389959.6313],"properties":{"modo":"trem","nome":"TAMANDUATEÍ","linha":"TURQUESA","situacao":"OPERANDO"}},{"type":"Point","coordinates":[342477.2837,7386300.4067],"properties":{"modo":"trem","nome":"UTINGA","linha":"TURQUESA","situacao":"OPERANDO"}},{"type":"Point","coordinates":[312819.7532,7432167.3786],"properties":{"modo":"trem","nome":"VÁRZEA PAULISTA","linha":"RUBI","situacao":"OPERANDO"}},{"type":"Point","coordinates":[321861.2118,7403380.4774],"properties":{"modo":"trem","nome":"VILA CLARICE","linha":"RUBI","situacao":"OPERANDO"}},{"type":"Point","coordinates":[321489.9678,7406970.063],"properties":{"modo":"trem","nome":"VILA AURORA","linha":"RUBI","situacao":"OPERANDO"}},{"type":"Point","coordinates":[347421.3428,7406155.6997],"properties":{"modo":"trem","nome":"GUARULHOS CECAP","linha":"JADE","situacao":"OPERANDO"}},{"type":"Point","coordinates":[303118.6207,7395904.5854],"properties":{"modo":"trem","nome":"ENGENHEIRO CARDOSO","linha":"DIAMANTE","situacao":"OPERANDO"}},{"type":"Point","coordinates":[324163.9877,7384545.0488],"properties":{"modo":"trem","nome":"JOÃO DIAS","linha":"ESMERALDA","situacao":"OPERANDO"}},{"type":"Point","coordinates":[337068.8778,7391087.4852],"properties":{"modo":"trem","nome":"IPIRANGA","linha":"TURQUESA","situacao":"OPERANDO"}},{"type":"Point","coordinates":[356839.4013,7401110.7131],"properties":{"modo":"trem","nome":"ITAIM PAULISTA","linha":"SAFIRA","situacao":"OPERANDO"}},{"type":"Point","coordinates":[362357.7802,7402018.145],"properties":{"modo":"trem","nome":"ITAQUAQUECETUBA","linha":"SAFIRA","situacao":"OPERANDO"}},{"type":"Point","coordinates":[347392.5767,7407748.3872],"properties":{"modo":"trem","nome":"AEROPORTO GUARULHOS","linha":"JADE","situacao":"OPERANDO"}},{"type":"Point","coordinates":[363980.8375,7397654.0148],"properties":{"modo":"trem","nome":"CALMON VIANA","linha":"CORAL","situacao":"OPERANDO"}},{"type":"Point","coordinates":[363980.8375,7397654.0148],"properties":{"modo":"trem","nome":"CALMON VIANA","linha":"SAFIRA","situacao":"OPERANDO"}},{"type":"Point","coordinates":[308378.796,7433640.7561],"properties":{"modo":"trem","nome":"JUNDIAÍ","linha":"RUBI","situacao":"OPERANDO"}},{"type":"Point","coordinates":[344127.8519,7383458.0493],"properties":{"modo":"trem","nome":"PREFEITO CELSO DANIEL - SANTO ANDRÉ","linha":"TURQUESA","situacao":"OPERANDO"}},{"type":"Point","coordinates":[349832.3619,7395702.1053],"properties":{"modo":"trem","nome":"CORINTHIANS - ITAQUERA","linha":"CORAL","situacao":"OPERANDO"}},{"type":"Point","coordinates":[352181.6361,7395755.0342],"properties":{"modo":"trem","nome":"DOM BOSCO","linha":"CORAL","situacao":"OPERANDO"}},{"type":"Point","coordinates":[353875.593,7396075.2142],"properties":{"modo":"trem","nome":"JOSÉ BONIFÁCIO","linha":"CORAL","situacao":"OPERANDO"}},{"type":"Point","coordinates":[354904.3515,7401219.0133],"properties":{"modo":"trem","nome":"JARDIM HELENA - VILA MARA","linha":"SAFIRA","situacao":"OPERANDO"}},{"type":"Point","coordinates":[358525.6304,7402127.1779],"properties":{"modo":"trem","nome":"JARDIM ROMANO","linha":"SAFIRA","situacao":"OPERANDO"}},{"type":"Point","coordinates":[327558.9794,7397740.9999],"properties":{"modo":"trem","nome":"ÁGUA BRANCA","linha":"RUBI","situacao":"OPERANDO"}},{"type":"Point","coordinates":[358775.6415,7394430.2149],"properties":{"modo":"trem","nome":"ANTONIO GIANETTI NETO","linha":"CORAL","situacao":"OPERANDO"}},{"type":"Point","coordinates":[363270.3809,7400520.2865],"properties":{"modo":"trem","nome":"ARACARÉ","linha":"SAFIRA","situacao":"OPERANDO"}},{"type":"Point","coordinates":[323748.2617,7421125.3928],"properties":{"modo":"trem","nome":"BALTAZAR FIDELIS","linha":"RUBI","situacao":"OPERANDO"}},{"type":"Point","coordinates":[319136.1792,7429272.9578],"properties":{"modo":"trem","nome":"BOTUJURU","linha":"RUBI","situacao":"OPERANDO"}},{"type":"Point","coordinates":[374900.8864,7396575.5692],"properties":{"modo":"trem","nome":"BRÁS CUBAS","linha":"CORAL","situacao":"OPERANDO"}},{"type":"Point","coordinates":[320958.4594,7414846.948],"properties":{"modo":"trem","nome":"CAIEIRAS","linha":"RUBI","situacao":"OPERANDO"}},{"type":"Point","coordinates":[318700.0073,7396934.9348],"properties":{"modo":"trem","nome":"OSASCO","linha":"DIAMANTE","situacao":"OPERANDO"}},{"type":"Point","coordinates":[318700.0073,7396934.9348],"properties":{"modo":"trem","nome":"OSASCO","linha":"ESMERALDA","situacao":"OPERANDO"}},{"type":"Point","coordinates":[317299.84,7432477.6801],"properties":{"modo":"trem","nome":"CAMPO LIMPO PAULISTA","linha":"RUBI","situacao":"OPERANDO"}},{"type":"Point","coordinates":[348030.266,7382804.9801],"properties":{"modo":"trem","nome":"CAPUAVA","linha":"TURQUESA","situacao":"OPERANDO"}},{"type":"Point","coordinates":[360257.2382,7402748.0407],"properties":{"modo":"trem","nome":"ENGENHEIRO MANOEL FEIO","linha":"SAFIRA","situacao":"OPERANDO"}},{"type":"Point","coordinates":[379033.636,7398896.4756],"properties":{"modo":"trem","nome":"ESTUDANTES","linha":"CORAL","situacao":"OPERANDO"}},{"type":"Point","coordinates":[360333.3394,7395951.0978],"properties":{"modo":"trem","nome":"FERRAZ DE VASCONCELOS","linha":"CORAL","situacao":"OPERANDO"}},{"type":"Point","coordinates":[321775.0745,7424225.8185],"properties":{"modo":"trem","nome":"FRANCISCO MORATO","linha":"RUBI","situacao":"OPERANDO"}},{"type":"Point","coordinates":[323500.8109,7418935.5337],"properties":{"modo":"trem","nome":"FRANCO DA ROCHA","linha":"RUBI","situacao":"OPERANDO"}},{"type":"Point","coordinates":[352276.7488,7379118.6181],"properties":{"modo":"trem","nome":"GUAPITUBA","linha":"TURQUESA","situacao":"OPERANDO"}},{"type":"Point","coordinates":[322604.6592,7397425.0455],"properties":{"modo":"trem","nome":"IMPERATRIZ LEOPOLDINA","linha":"DIAMANTE","situacao":"OPERANDO"}},{"type":"Point","coordinates":[305782.8659,7396773.8966],"properties":{"modo":"trem","nome":"JANDIRA","linha":"DIAMANTE","situacao":"OPERANDO"}},{"type":"Point","coordinates":[307100.4649,7398310.3618],"properties":{"modo":"trem","nome":"JARDIM BELVAL","linha":"DIAMANTE","situacao":"OPERANDO"}},{"type":"Point","coordinates":[306674.0982,7397212.948],"properties":{"modo":"trem","nome":"JARDIM SILVEIRA","linha":"DIAMANTE","situacao":"OPERANDO"}},{"type":"Point","coordinates":[332480.7695,7396561.9111],"properties":{"modo":"trem","nome":"JÚLIO PRESTES","linha":"DIAMANTE","situacao":"OPERANDO"}},{"type":"Point","coordinates":[326540.2634,7397869.8132],"properties":{"modo":"trem","nome":"LAPA (LINHA 8)","linha":"DIAMANTE","situacao":"OPERANDO"}},{"type":"Point","coordinates":[324660.6185,7382779.4147],"properties":{"modo":"trem","nome":"SANTO AMARO (LINHA 9)","linha":"ESMERALDA","situacao":"OPERANDO"}},{"type":"Point","coordinates":[315539.7224,7397440.952],"properties":{"modo":"trem","nome":"QUITAÚNA","linha":"DIAMANTE","situacao":"OPERANDO"}},{"type":"Point","coordinates":[304278.597,7396594.7079],"properties":{"modo":"trem","nome":"SAGRADO CORAÇÃO","linha":"DIAMANTE","situacao":"OPERANDO"}},{"type":"Point","coordinates":[311325.1776,7398078.9213],"properties":{"modo":"trem","nome":"SANTA TEREZINHA","linha":"DIAMANTE","situacao":"OPERANDO"}},{"type":"Point","coordinates":[323122.1006,7394965.162],"properties":{"modo":"trem","nome":"VILLA-LOBOS - JAGUARÉ","linha":"ESMERALDA","situacao":"OPERANDO"}},{"type":"Point","coordinates":[302408.8761,7394687.3354],"properties":{"modo":"trem","nome":"ITAPEVI","linha":"DIAMANTE","situacao":"OPERANDO"}},{"type":"Point","coordinates":[326428.5449,7380449.431],"properties":{"modo":"trem","nome":"JURUBATUBA","linha":"ESMERALDA","situacao":"OPERANDO"}},{"type":"Point","coordinates":[326859.0708,7388446.6891],"properties":{"modo":"trem","nome":"BERRINI","linha":"ESMERALDA","situacao":"OPERANDO"}},{"type":"Point","coordinates":[327862.105,7377241.1205],"properties":{"modo":"trem","nome":"AUTÓDROMO","linha":"ESMERALDA","situacao":"OPERANDO"}},{"type":"Point","coordinates":[326188.6615,7392737.198],"properties":{"modo":"trem","nome":"PINHEIROS","linha":"ESMERALDA","situacao":"OPERANDO"}},{"type":"Point","coordinates":[314628.6661,7397362.9476],"properties":{"modo":"trem","nome":"GENERAL MIGUEL COSTA","linha":"DIAMANTE","situacao":"OPERANDO"}},{"type":"Point","coordinates":[327545.6487,7375448.0346],"properties":{"modo":"trem","nome":"PRIMAVERA - INTERLAGOS","linha":"ESMERALDA","situacao":"OPERANDO"}},{"type":"Point","coordinates":[327027.8613,7373920.436],"properties":{"modo":"trem","nome":"GRAJAÚ","linha":"ESMERALDA","situacao":"OPERANDO"}},{"type":"Point","coordinates":[326632.0813,7391951.1942],"properties":{"modo":"trem","nome":"HEBRAICA - REBOUÇAS","linha":"ESMERALDA","situacao":"OPERANDO"}},{"type":"Point","coordinates":[327426.458,7390641.286],"properties":{"modo":"trem","nome":"CIDADE JARDIM","linha":"ESMERALDA","situacao":"OPERANDO"}},{"type":"Point","coordinates":[327264.1603,7389761.0352],"properties":{"modo":"trem","nome":"VILA OLÍMPIA","linha":"ESMERALDA","situacao":"OPERANDO"}},{"type":"Point","coordinates":[326386.3631,7386606.0921],"properties":{"modo":"trem","nome":"MORUMBI","linha":"ESMERALDA","situacao":"OPERANDO"}},{"type":"Point","coordinates":[325326.4791,7385921.0236],"properties":{"modo":"trem","nome":"GRANJA JULIETA","linha":"ESMERALDA","situacao":"OPERANDO"}},{"type":"Point","coordinates":[325514.4182,7381985.0869],"properties":{"modo":"trem","nome":"SOCORRO","linha":"ESMERALDA","situacao":"OPERANDO"}},{"type":"Point","coordinates":[310207.0381,7398036.4942],"properties":{"modo":"trem","nome":"ANTÔNIO JOÃO","linha":"DIAMANTE","situacao":"OPERANDO"}},{"type":"Point","coordinates":[308539.3228,7398488.1342],"properties":{"modo":"trem","nome":"BARUERI","linha":"DIAMANTE","situacao":"OPERANDO"}},{"type":"Point","coordinates":[312607.7818,7397878.5082],"properties":{"modo":"trem","nome":"CARAPICUÍBA","linha":"DIAMANTE","situacao":"OPERANDO"}},{"type":"Point","coordinates":[322110.6,7395905.5253],"properties":{"modo":"trem","nome":"CEASA","linha":"ESMERALDA","situacao":"OPERANDO"}},{"type":"Point","coordinates":[325285.5394,7393703.8617],"properties":{"modo":"trem","nome":"CIDADE UNIVERSITÁRIA","linha":"ESMERALDA","situacao":"OPERANDO"}},{"type":"Point","coordinates":[316656.4187,7397135.6733],"properties":{"modo":"trem","nome":"COMANDANTE SAMPAIO","linha":"DIAMANTE","situacao":"OPERANDO"}},{"type":"Point","coordinates":[324243.0806,7397979.1406],"properties":{"modo":"trem","nome":"DOMINGOS DE MORAIS","linha":"DIAMANTE","situacao":"OPERANDO"}},{"type":"Point","coordinates":[371579.0995,7395827.2392],"properties":{"modo":"trem","nome":"JUNDIAPEBA","linha":"CORAL","situacao":"OPERANDO"}},{"type":"Point","coordinates":[326061.8366,7398133.2362],"properties":{"modo":"trem","nome":"LAPA (LINHA 7)","linha":"RUBI","situacao":"OPERANDO"}},{"type":"Point","coordinates":[301199.4953,7394799.5877],"properties":{"modo":"trem","nome":"SANTA RITA","linha":"DIAMANTE","situacao":"OPERANDO"}},{"type":"Point","coordinates":[322428.9916,7404988.1611],"properties":{"modo":"trem","nome":"JARAGUÁ","linha":"RUBI","situacao":"OPERANDO"}},{"type":"Point","coordinates":[333082.9791,7396306.9895],"properties":{"modo":"trem","nome":"LUZ","linha":"TURQUESA","situacao":"OPERANDO"}},{"type":"Point","coordinates":[333082.9791,7396306.9895],"properties":{"modo":"trem","nome":"LUZ","linha":"CORAL","situacao":"OPERANDO"}},{"type":"Point","coordinates":[335844.2064,7393779.2328],"properties":{"modo":"trem","nome":"MOOCA","linha":"TURQUESA","situacao":"OPERANDO"}},{"type":"Point","coordinates":[320145.6192,7396567.6498],"properties":{"modo":"trem","nome":"PRESIDENTE ALTINO","linha":"DIAMANTE","situacao":"OPERANDO"}},{"type":"Point","coordinates":[320145.6192,7396567.6498],"properties":{"modo":"trem","nome":"PRESIDENTE ALTINO","linha":"ESMERALDA","situacao":"OPERANDO"}},{"type":"Point","coordinates":[334956.4306,7395324.7465],"properties":{"modo":"trem","nome":"BRÁS","linha":"TURQUESA","situacao":"OPERANDO"}},{"type":"Point","coordinates":[334956.4306,7395324.7465],"properties":{"modo":"trem","nome":"BRÁS","linha":"CORAL","situacao":"OPERANDO"}},{"type":"Point","coordinates":[334956.4306,7395324.7465],"properties":{"modo":"trem","nome":"BRÁS","linha":"SAFIRA","situacao":"OPERANDO"}},{"type":"Point","coordinates":[339078.4371,7395790.7982],"properties":{"modo":"trem","nome":"TATUAPÉ","linha":"CORAL","situacao":"OPERANDO"}},{"type":"Point","coordinates":[339078.4371,7395790.7982],"properties":{"modo":"trem","nome":"TATUAPÉ","linha":"SAFIRA","situacao":"OPERANDO"}},{"type":"Point","coordinates":[297477.1009,7396351.0536],"properties":{"modo":"trem","nome":"AMADOR BUENO","linha":"DIAMANTE","situacao":"OPERANDO"}},{"type":"Point","coordinates":[355501.9023,7395730.5793],"properties":{"modo":"trem","nome":"GUAIANASES","linha":"CORAL","situacao":"OPERANDO"}},{"type":"Point","coordinates":[346748.3484,7401936.173],"properties":{"modo":"trem","nome":"USP LESTE","linha":"SAFIRA","situacao":"OPERANDO"}},{"type":"Point","coordinates":[329762.7158,7397307.2791],"properties":{"modo":"trem","nome":"PALMEIRAS - BARRA FUNDA","linha":"RUBI","situacao":"OPERANDO"}},{"type":"Point","coordinates":[329762.7158,7397307.2791],"properties":{"modo":"trem","nome":"PALMEIRAS - BARRA FUNDA","linha":"DIAMANTE","situacao":"OPERANDO"}},{"type":"Point","coordinates":[329762.7158,7397307.2791],"properties":{"modo":"trem","nome":"PALMEIRAS - BARRA FUNDA","linha":"TURQUESA","situacao":"OPERANDO"}},{"type":"Point","coordinates":[329762.7158,7397307.2791],"properties":{"modo":"trem","nome":"PALMEIRAS - BARRA FUNDA","linha":"CORAL","situacao":"OPERANDO"}},{"type":"Point","coordinates":[348617.1855,7401992.9522],"properties":{"modo":"trem","nome":"COMENDADOR ERMELINO","linha":"SAFIRA","situacao":"OPERANDO"}},{"type":"Point","coordinates":[344782.5724,7400517.7421],"properties":{"modo":"trem","nome":"ENGENHEIRO GOULART","linha":"SAFIRA","situacao":"OPERANDO"}},{"type":"Point","coordinates":[344782.5724,7400517.7421],"properties":{"modo":"trem","nome":"ENGENHEIRO GOULART","linha":"JADE","situacao":"OPERANDO"}},{"type":"Point","coordinates":[325801.3085,7371929.5877],"properties":{"modo":"trem","nome":"MENDES / BRUNO COVAS","linha":"ESMERALDA","situacao":"OPERANDO"}},{"type":"Point","coordinates":[325555.0607,7370186.5061],"properties":{"modo":"trem","nome":"VARGINHA","linha":"ESMERALDA","situacao":"OPERANDO"}},{"type":"Point","coordinates":[298605.07810256,7396404.29213321],"properties":{"modo":"trem","nome":"AMBUITÁ","linha":"DIAMANTE","situacao":"OPERANDO"}}]}}}