{"type":"Topology","arcs":[],"objects":{"contexto_estacoes_s":{"type":"GeometryCollection","geometries":[{"type":"Point","coordinates":[-46.4710777200249,-23.542305252163978],"properties":{"modo":"metro","nome":"CORINTHIANS-ITAQUERA","linha":"VERMELHA","situacao":"OPERANDO"}},{"type":"Point","coordinates":[-46.48458996002499,-23.540288389485397],"properties":{"modo":"metro","nome":"ARTUR ALVIM","linha":"VERMELHA","situacao":"OPERANDO"}},{"type":"Point","coordinates":[-46.501381800024966,-23.53118274906402],"properties":{"modo":"metro","nome":"PATRIARCA","linha":"VERMELHA","situacao":"OPERANDO"}},{"type":"Point","coordinates":[-46.51654824002501,-23.529262920988664],"properties":{"modo":"metro","nome":"GUILHERMINA-ESPERANÇA","linha":"VERMELHA","situacao":"OPERANDO"}},{"type":"Point","coordinates":[-46.53100548002498,-23.531877365765634],"properties":{"modo":"metro","nome":"VILA MATILDE","linha":"VERMELHA","situacao":"OPERANDO"}},{"type":"Point","coordinates":[-46.542349080024984,-23.533481290867243],"properties":{"modo":"metro","nome":"PENHA","linha":"VERMELHA","situacao":"OPERANDO"}},{"type":"Point","coordinates":[-46.56415536002502,-23.53785101702512],"properties":{"modo":"metro","nome":"CARRÃO","linha":"VERMELHA","situacao":"OPERANDO"}},{"type":"Point","coordinates":[-46.576284480025,-23.540439878036345],"properties":{"modo":"metro","nome":"TATUAPÉ","linha":"VERMELHA","situacao":"OPERANDO"}},{"type":"Point","coordinates":[-46.590107760025,-23.543022582463788],"properties":{"modo":"metro","nome":"BELÉM","linha":"VERMELHA","situacao":"OPERANDO"}},{"type":"Point","coordinates":[-46.607540040025064,-23.546476340240442],"properties":{"modo":"metro","nome":"BRESSER-MOOCA","linha":"VERMELHA","situacao":"OPERANDO"}},{"type":"Point","coordinates":[-46.61590896002504,-23.547884384686235],"properties":{"modo":"metro","nome":"BRÁS","linha":"VERMELHA","situacao":"OPERANDO"}},{"type":"Point","coordinates":[-46.62590940002503,-23.54971549645582],"properties":{"modo":"metro","nome":"PEDRO II","linha":"VERMELHA","situacao":"OPERANDO"}},{"type":"Point","coordinates":[-46.633134600025016,-23.55092137284061],"properties":{"modo":"metro","nome":"SÉ","linha":"VERMELHA","situacao":"OPERANDO"}},{"type":"Point","coordinates":[-46.63888560002503,-23.547947583796198],"properties":{"modo":"metro","nome":"ANHANGABAÚ","linha":"VERMELHA","situacao":"OPERANDO"}},{"type":"Point","coordinates":[-46.643149080025054,-23.54389386866231],"properties":{"modo":"metro","nome":"REPÚBLICA","linha":"VERMELHA","situacao":"OPERANDO"}},{"type":"Point","coordinates":[-46.64887956002502,-23.53963804286317],"properties":{"modo":"metro","nome":"SANTA CECÍLIA","linha":"VERMELHA","situacao":"OPERANDO"}},{"type":"Point","coordinates":[-46.65602664002503,-23.53351825732285],"properties":{"modo":"metro","nome":"MARECHAL DEODORO","linha":"VERMELHA","situacao":"OPERANDO"}},{"type":"Point","coordinates":[-46.66737276002503,-23.52594767354481],"properties":{"modo":"metro","nome":"PALMEIRAS-BARRA FUNDA","linha":"VERMELHA","situacao":"OPERANDO"}},{"type":"Point","coordinates":[-46.690854840025054,-23.54639069870539],"properties":{"modo":"metro","nome":"VILA MADALENA","linha":"VERDE","situacao":"OPERANDO"}},{"type":"Point","coordinates":[-46.67753844002509,-23.55101625180753],"properties":{"modo":"metro","nome":"SANTUÁRIO NOSSA SENHORA DE FÁTIMA-SUMARÉ","linha":"VERDE","situacao":"OPERANDO"}},{"type":"Point","coordinates":[-46.67076216002502,-23.554111083656235],"properties":{"modo":"metro","nome":"CLÍNICAS","linha":"VERDE","situacao":"OPERANDO"}},{"type":"Point","coordinates":[-46.66119228002505,-23.557227952505844],"properties":{"modo":"metro","nome":"CONSOLAÇÃO","linha":"VERDE","situacao":"OPERANDO"}},{"type":"Point","coordinates":[-46.65441600002509,-23.563161349062316],"properties":{"modo":"metro","nome":"TRIANON-MASP","linha":"VERDE","situacao":"OPERANDO"}},{"type":"Point","coordinates":[-46.64735388002502,-23.56887999810133],"properties":{"modo":"metro","nome":"BRIGADEIRO","linha":"VERDE","situacao":"OPERANDO"}},{"type":"Point","coordinates":[-46.64105568002499,-23.575768081460275],"properties":{"modo":"metro","nome":"PARAÍSO","linha":"VERDE","situacao":"OPERANDO"}},{"type":"Point","coordinates":[-46.638627480024994,-23.581355031460014],"properties":{"modo":"metro","nome":"ANA ROSA","linha":"VERDE","situacao":"OPERANDO"}},{"type":"Point","coordinates":[-46.63048644002502,-23.592631809547836],"properties":{"modo":"metro","nome":"CHÁCARA KLABIN","linha":"VERDE","situacao":"OPERANDO"}},{"type":"Point","coordinates":[-46.62070020002497,-23.59593762217506],"properties":{"modo":"metro","nome":"SANTOS-IMIGRANTES","linha":"VERDE","situacao":"OPERANDO"}},{"type":"Point","coordinates":[-46.612370160025044,-23.60219453646283],"properties":{"modo":"metro","nome":"ALTO DO IPIRANGA","linha":"VERDE","situacao":"OPERANDO"}},{"type":"Point","coordinates":[-46.60317216002503,-23.601414850800666],"properties":{"modo":"metro","nome":"SACOMÃ","linha":"VERDE","situacao":"OPERANDO"}},{"type":"Point","coordinates":[-46.589574600024996,-23.592938459711302],"properties":{"modo":"metro","nome":"TAMANDUATEÍ","linha":"VERDE","situacao":"OPERANDO"}},{"type":"Point","coordinates":[-46.58190624002504,-23.584325919750075],"properties":{"modo":"metro","nome":"VILA PRUDENTE","linha":"VERDE","situacao":"OPERANDO"}},{"type":"Point","coordinates":[-46.634650920025024,-23.58910750809845],"properties":{"modo":"metro","nome":"VILA MARIANA","linha":"AZUL","situacao":"OPERANDO"}},{"type":"Point","coordinates":[-46.60315056002504,-23.479980449483815],"properties":{"modo":"metro","nome":"TUCURUVI","linha":"AZUL","situacao":"OPERANDO"}},{"type":"Point","coordinates":[-46.608820920024975,-23.487032661716693],"properties":{"modo":"metro","nome":"PARADA INGLESA","linha":"AZUL","situacao":"OPERANDO"}},{"type":"Point","coordinates":[-46.61710956002504,-23.49241653586151],"properties":{"modo":"metro","nome":"AYRTON SENNA-JARDIM SÃO PAULO","linha":"AZUL","situacao":"OPERANDO"}},{"type":"Point","coordinates":[-46.62477288002504,-23.50256891416931],"properties":{"modo":"metro","nome":"SANTANA","linha":"AZUL","situacao":"OPERANDO"}},{"type":"Point","coordinates":[-46.624962600024986,-23.50927560491176],"properties":{"modo":"metro","nome":"CARANDIRU","linha":"AZUL","situacao":"OPERANDO"}},{"type":"Point","coordinates":[-46.62516132002504,-23.516131325050438],"properties":{"modo":"metro","nome":"PORTUGUESA-TIETÊ","linha":"AZUL","situacao":"OPERANDO"}},{"type":"Point","coordinates":[-46.629339840025,-23.52550008893685],"properties":{"modo":"metro","nome":"ARMÊNIA","linha":"AZUL","situacao":"OPERANDO"}},{"type":"Point","coordinates":[-46.63217160002505,-23.530658112160797],"properties":{"modo":"metro","nome":"TIRADENTES","linha":"AZUL","situacao":"OPERANDO"}},{"type":"Point","coordinates":[-46.63367028002503,-23.536902294300507],"properties":{"modo":"metro","nome":"LUZ","linha":"AZUL","situacao":"OPERANDO"}},{"type":"Point","coordinates":[-46.63416672002501,-23.544084131717685],"properties":{"modo":"metro","nome":"SÃO BENTO","linha":"AZUL","situacao":"OPERANDO"}},{"type":"Point","coordinates":[-46.63308816002507,-23.551000411149975],"properties":{"modo":"metro","nome":"SÉ","linha":"AZUL","situacao":"OPERANDO"}},{"type":"Point","coordinates":[-46.635733800025015,-23.55497635630109],"properties":{"modo":"metro","nome":"JAPÃO-LIBERDADE","linha":"AZUL","situacao":"OPERANDO"}},{"type":"Point","coordinates":[-46.638696600025,-23.56191103684041],"properties":{"modo":"metro","nome":"SÃO JOAQUIM","linha":"AZUL","situacao":"OPERANDO"}},{"type":"Point","coordinates":[-46.63993680002505,-23.568914644822346],"properties":{"modo":"metro","nome":"VERGUEIRO","linha":"AZUL","situacao":"OPERANDO"}},{"type":"Point","coordinates":[-46.64077380002504,-23.57572419790245],"properties":{"modo":"metro","nome":"PARAÍSO","linha":"AZUL","situacao":"OPERANDO"}},{"type":"Point","coordinates":[-46.63845216002502,-23.581257039996082],"properties":{"modo":"metro","nome":"ANA ROSA","linha":"AZUL","situacao":"OPERANDO"}},{"type":"Point","coordinates":[-46.634650920025024,-23.58910750809845],"properties":{"modo":"metro","nome":"VILA MARIANA","linha":"AZUL","situacao":"OPERANDO"}},{"type":"Point","coordinates":[-46.63668816002506,-23.59882933576643],"properties":{"modo":"metro","nome":"SANTA CRUZ","linha":"AZUL","situacao":"OPERANDO"}},{"type":"Point","coordinates":[-46.63788372002504,-23.610641796069586],"properties":{"modo":"metro","nome":"PRAÇA DA ÁRVORE","linha":"AZUL","situacao":"OPERANDO"}},{"type":"Point","coordinates":[-46.639237320024996,-23.618608919391562],"properties":{"modo":"metro","nome":"SAÚDE","linha":"AZUL","situacao":"OPERANDO"}},{"type":"Point","coordinates":[-46.64081160002508,-23.625751491207378],"properties":{"modo":"metro","nome":"SÃO JUDAS","linha":"AZUL","situacao":"OPERANDO"}},{"type":"Point","coordinates":[-46.64133216002502,-23.63537776223523],"properties":{"modo":"metro","nome":"CONCEIÇÃO","linha":"AZUL","situacao":"OPERANDO"}},{"type":"Point","coordinates":[-46.64099088002507,-23.646483192700476],"properties":{"modo":"metro","nome":"JABAQUARA","linha":"AZUL","situacao":"OPERANDO"}},{"type":"Point","coordinates":[-46.561899960025,-23.582177562985542],"properties":{"modo":"metro","nome":"ORATÓRIO","linha":"PRATA","situacao":"OPERANDO"}},{"type":"Point","coordinates":[-46.583787960025,-23.58474954918369],"properties":{"modo":"metro","nome":"VILA PRUDENTE","linha":"PRATA","situacao":"OPERANDO"}},{"type":"Point","coordinates":[-46.544369400024955,-23.589294571457657],"properties":{"modo":"metro","nome":"SÃO LUCAS","linha":"PRATA","situacao":"OPERANDO"}},{"type":"Point","coordinates":[-46.52709516002496,-23.600920514164102],"properties":{"modo":"metro","nome":"VILA TOLSTÓI","linha":"PRATA","situacao":"OPERANDO"}},{"type":"Point","coordinates":[-46.516113000025015,-23.60286980944636],"properties":{"modo":"metro","nome":"VILA UNIÃO","linha":"PRATA","situacao":"OPERANDO"}},{"type":"Point","coordinates":[-46.53769320002497,-23.595412913902287],"properties":{"modo":"metro","nome":"CAMILO HADDAD","linha":"PRATA","situacao":"OPERANDO"}},{"type":"Point","coordinates":[-46.768012200025055,-23.65929921386017],"properties":{"modo":"metro","nome":"CAPÃO REDONDO","linha":"LILAS","situacao":"OPERANDO"}},{"type":"Point","coordinates":[-46.75896072002513,-23.64938434331975],"properties":{"modo":"metro","nome":"CAMPO LIMPO","linha":"LILAS","situacao":"OPERANDO"}},{"type":"Point","coordinates":[-46.745736480025066,-23.640406149564264],"properties":{"modo":"metro","nome":"VILA DAS BELEZAS","linha":"LILAS","situacao":"OPERANDO"}},{"type":"Point","coordinates":[-46.73409624002512,-23.643964687885784],"properties":{"modo":"metro","nome":"GIOVANNI GRONCHI","linha":"LILAS","situacao":"OPERANDO"}},{"type":"Point","coordinates":[-46.72093428002509,-23.655750160730978],"properties":{"modo":"metro","nome":"SANTO AMARO","linha":"LILAS","situacao":"OPERANDO"}},{"type":"Point","coordinates":[-46.70953524002509,-23.654463139412183],"properties":{"modo":"metro","nome":"LARGO TREZE","linha":"LILAS","situacao":"OPERANDO"}},{"type":"Point","coordinates":[-46.70388360002509,-23.649652607877222],"properties":{"modo":"metro","nome":"ADOLFO PINHEIRO","linha":"LILAS","situacao":"OPERANDO"}},{"type":"Point","coordinates":[-46.69905564002506,-23.641500879107994],"properties":{"modo":"metro","nome":"ALTO DA BOA VISTA","linha":"LILAS","situacao":"OPERANDO"}},{"type":"Point","coordinates":[-46.69301520002506,-23.63336117526132],"properties":{"modo":"metro","nome":"BORBA GATO","linha":"LILAS","situacao":"OPERANDO"}},{"type":"Point","coordinates":[-46.68802848002507,-23.627253179340272],"properties":{"modo":"metro","nome":"BROOKLIN","linha":"LILAS","situacao":"OPERANDO"}},{"type":"Point","coordinates":[-46.668991320025064,-23.61014502023359],"properties":{"modo":"metro","nome":"EUCALIPTOS","linha":"LILAS","situacao":"OPERANDO"}},{"type":"Point","coordinates":[-46.661986800025055,-23.60332884134291],"properties":{"modo":"metro","nome":"MOEMA","linha":"LILAS","situacao":"OPERANDO"}},{"type":"Point","coordinates":[-46.64535984002507,-23.598159815143813],"properties":{"modo":"metro","nome":"HOSPITAL SÃO PAULO","linha":"LILAS","situacao":"OPERANDO"}},{"type":"Point","coordinates":[-46.637177400025024,-23.59847535953395],"properties":{"modo":"metro","nome":"SANTA CRUZ","linha":"LILAS","situacao":"OPERANDO"}},{"type":"Point","coordinates":[-46.63048644002502,-23.592631809547836],"properties":{"modo":"metro","nome":"CHÁCARA KLABIN","linha":"LILAS","situacao":"OPERANDO"}},{"type":"Point","coordinates":[-46.65179988002504,-23.59763594050181],"properties":{"modo":"metro","nome":"AACD-SERVIDOR","linha":"LILAS","situacao":"OPERANDO"}},{"type":"Point","coordinates":[-46.63449180002506,-23.536154730958497],"properties":{"modo":"metro","nome":"LUZ","linha":"AMARELA","situacao":"OPERANDO"}},{"type":"Point","coordinates":[-46.64302524002506,-23.54458214767441],"properties":{"modo":"metro","nome":"REPÚBLICA","linha":"AMARELA","situacao":"OPERANDO"}},{"type":"Point","coordinates":[-46.66218660002503,-23.55507585238993],"properties":{"modo":"metro","nome":"PAULISTA","linha":"AMARELA","situacao":"OPERANDO"}},{"type":"Point","coordinates":[-46.69398792002508,-23.56715820953746],"properties":{"modo":"metro","nome":"FARIA LIMA","linha":"AMARELA","situacao":"OPERANDO"}},{"type":"Point","coordinates":[-46.70169552002512,-23.567183452480318],"properties":{"modo":"metro","nome":"PINHEIROS","linha":"AMARELA","situacao":"OPERANDO"}},{"type":"Point","coordinates":[-46.708239600025045,-23.57199288701355],"properties":{"modo":"metro","nome":"BUTANTÃ","linha":"AMARELA","situacao":"OPERANDO"}},{"type":"Point","coordinates":[-46.68416496002503,-23.566168616360105],"properties":{"modo":"metro","nome":"FRADIQUE COUTINHO","linha":"AMARELA","situacao":"OPERANDO"}},{"type":"Point","coordinates":[-46.6522614000251,-23.548951505009114],"properties":{"modo":"metro","nome":"HIGIENÓPOLIS-MACKENZIE","linha":"AMARELA","situacao":"OPERANDO"}},{"type":"Point","coordinates":[-46.67208372002508,-23.56051815719501],"properties":{"modo":"metro","nome":"OSCAR FREIRE","linha":"AMARELA","situacao":"OPERANDO"}},{"type":"Point","coordinates":[-46.72383011727259,-23.586388925038353],"properties":{"modo":"metro","nome":"SÃO PAULO-MORUMBI","linha":"AMARELA","situacao":"OPERANDO"}},{"type":"Point","coordinates":[-46.682318880025015,-23.618973890998213],"properties":{"modo":"metro","nome":"CAMPO BELO","linha":"LILAS","situacao":"OPERANDO"}},{"type":"Point","coordinates":[-46.4766822335538,-23.61208756248273],"properties":{"modo":"metro","nome":"SÃO MATEUS","linha":"PRATA","situacao":"OPERANDO"}},{"type":"Point","coordinates":[-46.48747189843139,-23.611688272787624],"properties":{"modo":"metro","nome":"FAZENDA DA JUTA","linha":"PRATA","situacao":"OPERANDO"}},{"type":"Point","coordinates":[-46.50142722637025,-23.614753001984162],"properties":{"modo":"metro","nome":"SAPOPEMBA","linha":"PRATA","situacao":"OPERANDO"}},{"type":"Point","coordinates":[-46.507052476679405,-23.607390748880693],"properties":{"modo":"metro","nome":"JARDIM PLANALTO","linha":"PRATA","situacao":"OPERANDO"}},{"type":"Point","coordinates":[-46.734757523393604,-23.593417617284764],"properties":{"modo":"metro","nome":"VILA SÔNIA","linha":"AMARELA","situacao":"OPERANDO"}},{"type":"Point","coordinates":[-46.4615400959268,-23.668266218930533],"properties":{"modo":"trem","nome":"MAUÁ","linha":"TURQUESA","situacao":"OPERANDO"}},{"type":"Point","coordinates":[-46.19797890014118,-23.52177256565608],"properties":{"modo":"trem","nome":"MOGI DAS CRUZES","linha":"CORAL","situacao":"OPERANDO"}},{"type":"Point","coordinates":[-46.75375300961175,-23.404773903832012],"properties":{"modo":"trem","nome":"PERUS","linha":"RUBI","situacao":"OPERANDO"}},{"type":"Point","coordinates":[-46.714866315967065,-23.502892716190217],"properties":{"modo":"trem","nome":"PIQUERI","linha":"RUBI","situacao":"OPERANDO"}},{"type":"Point","coordinates":[-46.72602903811939,-23.48852010656377],"properties":{"modo":"trem","nome":"PIRITUBA","linha":"RUBI","situacao":"OPERANDO"}},{"type":"Point","coordinates":[-46.343630276757175,-23.525414747996013],"properties":{"modo":"trem","nome":"POÁ","linha":"CORAL","situacao":"OPERANDO"}},{"type":"Point","coordinates":[-46.536938885645654,-23.637812161148062],"properties":{"modo":"trem","nome":"PREFEITO SALADINO","linha":"TURQUESA","situacao":"OPERANDO"}},{"type":"Point","coordinates":[-46.41454142959394,-23.713827153926797],"properties":{"modo":"trem","nome":"RIBEIRÃO PIRES","linha":"TURQUESA","situacao":"OPERANDO"}},{"type":"Point","coordinates":[-46.3915971676661,-23.743504188480816],"properties":{"modo":"trem","nome":"RIO GRANDE DA SERRA","linha":"TURQUESA","situacao":"OPERANDO"}},{"type":"Point","coordinates":[-46.57005811828218,-23.609844754489203],"properties":{"modo":"trem","nome":"SÃO CAETANO","linha":"TURQUESA","situacao":"OPERANDO"}},{"type":"Point","coordinates":[-46.4437231450117,-23.490530008389054],"properties":{"modo":"trem","nome":"SÃO MIGUEL PAULISTA","linha":"SAFIRA","situacao":"OPERANDO"}},{"type":"Point","coordinates":[-46.30803401614732,-23.533975101204184],"properties":{"modo":"trem","nome":"SUZANO","linha":"CORAL","situacao":"OPERANDO"}},{"type":"Point","coordinates":[-46.589416394509705,-23.59275367002298],"properties":{"modo":"trem","nome":"TAMANDUATEÍ","linha":"TURQUESA","situacao":"OPERANDO"}},{"type":"Point","coordinates":[-46.54417234836944,-23.626254781579366],"properties":{"modo":"trem","nome":"UTINGA","linha":"TURQUESA","situacao":"OPERANDO"}},{"type":"Point","coordinates":[-46.82909056388465,-23.208987477932254],"properties":{"modo":"trem","nome":"VÁRZEA PAULISTA","linha":"RUBI","situacao":"OPERANDO"}},{"type":"Point","coordinates":[-46.744163964008386,-23.469902950969402],"properties":{"modo":"trem","nome":"VILA CLARICE","linha":"RUBI","situacao":"OPERANDO"}},{"type":"Point","coordinates":[-46.74737093288324,-23.43745295056129],"properties":{"modo":"trem","nome":"VILA AURORA","linha":"RUBI","situacao":"OPERANDO"}},{"type":"Point","coordinates":[-46.493693199675256,-23.447441363781024],"properties":{"modo":"trem","nome":"GUARULHOS CECAP","linha":"JADE","situacao":"OPERANDO"}},{"type":"Point","coordinates":[-46.928579109251714,-23.535233262777457],"properties":{"modo":"trem","nome":"ENGENHEIRO CARDOSO","linha":"DIAMANTE","situacao":"OPERANDO"}},{"type":"Point","coordinates":[-46.72384262665361,-23.640213021087717],"properties":{"modo":"trem","nome":"JOÃO DIAS","linha":"ESMERALDA","situacao":"OPERANDO"}},{"type":"Point","coordinates":[-46.5966508293862,-23.582494519307986],"properties":{"modo":"trem","nome":"IPIRANGA","linha":"TURQUESA","situacao":"OPERANDO"}},{"type":"Point","coordinates":[-46.40199702773758,-23.493853738912293],"properties":{"modo":"trem","nome":"ITAIM PAULISTA","linha":"SAFIRA","situacao":"OPERANDO"}},{"type":"Point","coordinates":[-46.34788307651813,-23.486136125487945],"properties":{"modo":"trem","nome":"ITAQUAQUECETUBA","linha":"SAFIRA","situacao":"OPERANDO"}},{"type":"Point","coordinates":[-46.49381303441806,-23.43305692841214],"properties":{"modo":"trem","nome":"AEROPORTO GUARULHOS","linha":"JADE","situacao":"OPERANDO"}},{"type":"Point","coordinates":[-46.33238875353826,-23.52568264956946],"properties":{"modo":"trem","nome":"CALMON VIANA","linha":"CORAL","situacao":"OPERANDO"}},{"type":"Point","coordinates":[-46.33238875353826,-23.52568264956946],"properties":{"modo":"trem","nome":"CALMON VIANA","linha":"SAFIRA","situacao":"OPERANDO"}},{"type":"Point","coordinates":[-46.872283713036026,-23.195174701501077],"properties":{"modo":"trem","nome":"JUNDIAÍ","linha":"RUBI","situacao":"OPERANDO"}},{"type":"Point","coordinates":[-46.528294564420875,-23.652079971975994],"properties":{"modo":"trem","nome":"PREFEITO CELSO DANIEL - SANTO ANDRÉ","linha":"TURQUESA","situacao":"OPERANDO"}},{"type":"Point","coordinates":[-46.471143737368095,-23.542060269681613],"properties":{"modo":"trem","nome":"CORINTHIANS - ITAQUERA","linha":"CORAL","situacao":"OPERANDO"}},{"type":"Point","coordinates":[-46.448129175390605,-23.541798233234264],"properties":{"modo":"trem","nome":"DOM BOSCO","linha":"CORAL","situacao":"OPERANDO"}},{"type":"Point","coordinates":[-46.43150676652301,-23.539060577673066],"properties":{"modo":"trem","nome":"JOSÉ BONIFÁCIO","linha":"CORAL","situacao":"OPERANDO"}},{"type":"Point","coordinates":[-46.42093233620326,-23.49270413976752],"properties":{"modo":"trem","nome":"JARDIM HELENA - VILA MARA","linha":"SAFIRA","situacao":"OPERANDO"}},{"type":"Point","coordinates":[-46.38539132295587,-23.484822517510228],"properties":{"modo":"trem","nome":"JARDIM ROMANO","linha":"SAFIRA","situacao":"OPERANDO"}},{"type":"Point","coordinates":[-46.6890449275942,-23.521435350947772],"properties":{"modo":"trem","nome":"ÁGUA BRANCA","linha":"RUBI","situacao":"OPERANDO"}},{"type":"Point","coordinates":[-46.38366999789608,-23.55434940816952],"properties":{"modo":"trem","nome":"ANTONIO GIANETTI NETO","linha":"CORAL","situacao":"OPERANDO"}},{"type":"Point","coordinates":[-46.33908484414453,-23.49973941213255],"properties":{"modo":"trem","nome":"ARACARÉ","linha":"SAFIRA","situacao":"OPERANDO"}},{"type":"Point","coordinates":[-46.723619496829045,-23.309891627243292],"properties":{"modo":"trem","nome":"BALTAZAR FIDELIS","linha":"RUBI","situacao":"OPERANDO"}},{"type":"Point","coordinates":[-46.767734805609024,-23.235826448762044],"properties":{"modo":"trem","nome":"BOTUJURU","linha":"RUBI","situacao":"OPERANDO"}},{"type":"Point","coordinates":[-46.22553039722521,-23.536300627226716],"properties":{"modo":"trem","nome":"BRÁS CUBAS","linha":"CORAL","situacao":"OPERANDO"}},{"type":"Point","coordinates":[-46.751635608781804,-23.36627626706581],"properties":{"modo":"trem","nome":"CAIEIRAS","linha":"RUBI","situacao":"OPERANDO"}},{"type":"Point","coordinates":[-46.77588391143969,-23.52774743181305],"properties":{"modo":"trem","nome":"OSASCO","linha":"DIAMANTE","situacao":"OPERANDO"}},{"type":"Point","coordinates":[-46.77588391143969,-23.52774743181305],"properties":{"modo":"trem","nome":"OSASCO","linha":"ESMERALDA","situacao":"OPERANDO"}},{"type":"Point","coordinates":[-46.78529139692254,-23.206688793090695],"properties":{"modo":"trem","nome":"CAMPO LIMPO PAULISTA","linha":"RUBI","situacao":"OPERANDO"}},{"type":"Point","coordinates":[-46.49010919174098,-23.65834938442126],"properties":{"modo":"trem","nome":"CAPUAVA","linha":"TURQUESA","situacao":"OPERANDO"}},{"type":"Point","coordinates":[-46.368380428450585,-23.479365717924335],"properties":{"modo":"trem","nome":"ENGENHEIRO MANOEL FEIO","linha":"SAFIRA","situacao":"OPERANDO"}},{"type":"Point","coordinates":[-46.18486317190876,-23.515654321248075],"properties":{"modo":"trem","nome":"ESTUDANTES","linha":"CORAL","situacao":"OPERANDO"}},{"type":"Point","coordinates":[-46.3682694195719,-23.54075051413214],"properties":{"modo":"trem","nome":"FERRAZ DE VASCONCELOS","linha":"CORAL","situacao":"OPERANDO"}},{"type":"Point","coordinates":[-46.742544360661036,-23.28168483272862],"properties":{"modo":"trem","nome":"FRANCISCO MORATO","linha":"RUBI","situacao":"OPERANDO"}},{"type":"Point","coordinates":[-46.72629395569769,-23.32963715889052],"properties":{"modo":"trem","nome":"FRANCO DA ROCHA","linha":"RUBI","situacao":"OPERANDO"}},{"type":"Point","coordinates":[-46.44884865628608,-23.692031052006847],"properties":{"modo":"trem","nome":"GUAPITUBA","linha":"TURQUESA","situacao":"OPERANDO"}},{"type":"Point","coordinates":[-46.73759244712561,-23.523754020901272],"properties":{"modo":"trem","nome":"IMPERATRIZ LEOPOLDINA","linha":"DIAMANTE","situacao":"OPERANDO"}},{"type":"Point","coordinates":[-46.90237948710155,-23.527706485952336],"properties":{"modo":"trem","nome":"JANDIRA","linha":"DIAMANTE","situacao":"OPERANDO"}},{"type":"Point","coordinates":[-46.88928087836462,-23.513992595805792],"properties":{"modo":"trem","nome":"JARDIM BELVAL","linha":"DIAMANTE","situacao":"OPERANDO"}},{"type":"Point","coordinates":[-46.893596741080216,-23.523849218118833],"properties":{"modo":"trem","nome":"JARDIM SILVEIRA","linha":"DIAMANTE","situacao":"OPERANDO"}},{"type":"Point","coordinates":[-46.64098402012778,-23.532597001428808],"properties":{"modo":"trem","nome":"JÚLIO PRESTES","linha":"DIAMANTE","situacao":"OPERANDO"}},{"type":"Point","coordinates":[-46.69900483793145,-23.520163749682194],"properties":{"modo":"trem","nome":"LAPA (LINHA 8)","linha":"DIAMANTE","situacao":"OPERANDO"}},{"type":"Point","coordinates":[-46.719183841893724,-23.656208288777027],"properties":{"modo":"trem","nome":"SANTO AMARO (LINHA 9)","linha":"ESMERALDA","situacao":"OPERANDO"}},{"type":"Point","coordinates":[-46.80676555446944,-23.52282271956486],"properties":{"modo":"trem","nome":"QUITAÚNA","linha":"DIAMANTE","situacao":"OPERANDO"}},{"type":"Point","coordinates":[-46.91713104300665,-23.5291433978488],"properties":{"modo":"trem","nome":"SAGRADO CORAÇÃO","linha":"DIAMANTE","situacao":"OPERANDO"}},{"type":"Point","coordinates":[-46.847949597683815,-23.51657853613029],"properties":{"modo":"trem","nome":"SANTA TEREZINHA","linha":"DIAMANTE","situacao":"OPERANDO"}},{"type":"Point","coordinates":[-46.73281685828202,-23.546020011587075],"properties":{"modo":"trem","nome":"VILLA-LOBOS - JAGUARÉ","linha":"ESMERALDA","situacao":"OPERANDO"}},{"type":"Point","coordinates":[-46.93568932043618,-23.546135857227558],"properties":{"modo":"trem","nome":"ITAPEVI","linha":"DIAMANTE","situacao":"OPERANDO"}},{"type":"Point","coordinates":[-46.70212791016785,-23.67743621928211],"properties":{"modo":"trem","nome":"JURUBATUBA","linha":"ESMERALDA","situacao":"OPERANDO"}},{"type":"Point","coordinates":[-46.69697598297547,-23.605277499839136],"properties":{"modo":"trem","nome":"BERRINI","linha":"ESMERALDA","situacao":"OPERANDO"}},{"type":"Point","coordinates":[-46.68844700794049,-23.706556946982488],"properties":{"modo":"trem","nome":"AUTÓDROMO","linha":"ESMERALDA","situacao":"OPERANDO"}},{"type":"Point","coordinates":[-46.70304439207874,-23.566467564841737],"properties":{"modo":"trem","nome":"PINHEIROS","linha":"ESMERALDA","situacao":"OPERANDO"}},{"type":"Point","coordinates":[-46.81569543238467,-23.523423154462122],"properties":{"modo":"trem","nome":"GENERAL MIGUEL COSTA","linha":"DIAMANTE","situacao":"OPERANDO"}},{"type":"Point","coordinates":[-46.691758826310924,-23.72271223019569],"properties":{"modo":"trem","nome":"PRIMAVERA - INTERLAGOS","linha":"ESMERALDA","situacao":"OPERANDO"}},{"type":"Point","coordinates":[-46.69701514190142,-23.736448712930816],"properties":{"modo":"trem","nome":"GRAJAÚ","linha":"ESMERALDA","situacao":"OPERANDO"}},{"type":"Point","coordinates":[-46.69879244915135,-23.573611769247492],"properties":{"modo":"trem","nome":"HEBRAICA - REBOUÇAS","linha":"ESMERALDA","situacao":"OPERANDO"}},{"type":"Point","coordinates":[-46.69116271763208,-23.585523580901587],"properties":{"modo":"trem","nome":"CIDADE JARDIM","linha":"ESMERALDA","situacao":"OPERANDO"}},{"type":"Point","coordinates":[-46.692854630382406,-23.59345387703038],"properties":{"modo":"trem","nome":"VILA OLÍMPIA","linha":"ESMERALDA","situacao":"OPERANDO"}},{"type":"Point","coordinates":[-46.70182209047846,-23.621845065884308],"properties":{"modo":"trem","nome":"MORUMBI","linha":"ESMERALDA","situacao":"OPERANDO"}},{"type":"Point","coordinates":[-46.71228827475535,-23.62791605337431],"properties":{"modo":"trem","nome":"GRANJA JULIETA","linha":"ESMERALDA","situacao":"OPERANDO"}},{"type":"Point","coordinates":[-46.710908661132976,-23.663472600589657],"properties":{"modo":"trem","nome":"SOCORRO","linha":"ESMERALDA","situacao":"OPERANDO"}},{"type":"Point","coordinates":[-46.85890198094114,-23.516831228864003],"properties":{"modo":"trem","nome":"ANTÔNIO JOÃO","linha":"DIAMANTE","situacao":"OPERANDO"}},{"type":"Point","coordinates":[-46.87517167933124,-23.51255798607271],"properties":{"modo":"trem","nome":"BARUERI","linha":"DIAMANTE","situacao":"OPERANDO"}},{"type":"Point","coordinates":[-46.8354174159832,-23.5185364720984],"properties":{"modo":"trem","nome":"CARAPICUÍBA","linha":"DIAMANTE","situacao":"OPERANDO"}},{"type":"Point","coordinates":[-46.7426107549329,-23.537419136400086],"properties":{"modo":"trem","nome":"CEASA","linha":"ESMERALDA","situacao":"OPERANDO"}},{"type":"Point","coordinates":[-46.71177722469794,-23.55764261677741],"properties":{"modo":"trem","nome":"CIDADE UNIVERSITÁRIA","linha":"ESMERALDA","situacao":"OPERANDO"}},{"type":"Point","coordinates":[-46.79586924159937,-23.52570544030719],"properties":{"modo":"trem","nome":"COMANDANTE SAMPAIO","linha":"DIAMANTE","situacao":"OPERANDO"}},{"type":"Point","coordinates":[-46.72148463403037,-23.51892951961485],"properties":{"modo":"trem","nome":"DOMINGOS DE MORAIS","linha":"DIAMANTE","situacao":"OPERANDO"}},{"type":"Point","coordinates":[-46.25813048061866,-23.54279885611325],"properties":{"modo":"trem","nome":"JUNDIAPEBA","linha":"CORAL","situacao":"OPERANDO"}},{"type":"Point","coordinates":[-46.703658717240806,-23.51773414261298],"properties":{"modo":"trem","nome":"LAPA (LINHA 7)","linha":"RUBI","situacao":"OPERANDO"}},{"type":"Point","coordinates":[-46.947516717616175,-23.544974632621994],"properties":{"modo":"trem","nome":"SANTA RITA","linha":"DIAMANTE","situacao":"OPERANDO"}},{"type":"Point","coordinates":[-46.73841665027213,-23.455449667280273],"properties":{"modo":"trem","nome":"JARAGUÁ","linha":"RUBI","situacao":"OPERANDO"}},{"type":"Point","coordinates":[-46.6351152201366,-23.534960808013157],"properties":{"modo":"trem","nome":"LUZ","linha":"TURQUESA","situacao":"OPERANDO"}},{"type":"Point","coordinates":[-46.6351152201366,-23.534960808013157],"properties":{"modo":"trem","nome":"LUZ","linha":"CORAL","situacao":"OPERANDO"}},{"type":"Point","coordinates":[-46.608352316714964,-23.558066376596738],"properties":{"modo":"trem","nome":"MOOCA","linha":"TURQUESA","situacao":"OPERANDO"}},{"type":"Point","coordinates":[-46.761773117601734,-23.531224379918232],"properties":{"modo":"trem","nome":"PRESIDENTE ALTINO","linha":"DIAMANTE","situacao":"OPERANDO"}},{"type":"Point","coordinates":[-46.761773117601734,-23.531224379918232],"properties":{"modo":"trem","nome":"PRESIDENTE ALTINO","linha":"ESMERALDA","situacao":"OPERANDO"}},{"type":"Point","coordinates":[-46.61687707756356,-23.544021424571262],"properties":{"modo":"trem","nome":"BRÁS","linha":"TURQUESA","situacao":"OPERANDO"}},{"type":"Point","coordinates":[-46.61687707756356,-23.544021424571262],"properties":{"modo":"trem","nome":"BRÁS","linha":"CORAL","situacao":"OPERANDO"}},{"type":"Point","coordinates":[-46.61687707756356,-23.544021424571262],"properties":{"modo":"trem","nome":"BRÁS","linha":"SAFIRA","situacao":"OPERANDO"}},{"type":"Point","coordinates":[-46.57645698945552,-23.54022768713096],"properties":{"modo":"trem","nome":"TATUAPÉ","linha":"CORAL","situacao":"OPERANDO"}},{"type":"Point","coordinates":[-46.57645698945552,-23.54022768713096],"properties":{"modo":"trem","nome":"TATUAPÉ","linha":"SAFIRA","situacao":"OPERANDO"}},{"type":"Point","coordinates":[-46.98375560015824,-23.53050821861362],"properties":{"modo":"trem","nome":"AMADOR BUENO","linha":"DIAMANTE","situacao":"OPERANDO"}},{"type":"Point","coordinates":[-46.41561174962331,-23.542318400971126],"properties":{"modo":"trem","nome":"GUAIANASES","linha":"CORAL","situacao":"OPERANDO"}},{"type":"Point","coordinates":[-46.50071066704311,-23.48547964943747],"properties":{"modo":"trem","nome":"USP LESTE","linha":"SAFIRA","situacao":"OPERANDO"}},{"type":"Point","coordinates":[-46.66751600544976,-23.5255840832705],"properties":{"modo":"trem","nome":"PALMEIRAS - BARRA FUNDA","linha":"RUBI","situacao":"OPERANDO"}},{"type":"Point","coordinates":[-46.66751600544976,-23.5255840832705],"properties":{"modo":"trem","nome":"PALMEIRAS - BARRA FUNDA","linha":"DIAMANTE","situacao":"OPERANDO"}},{"type":"Point","coordinates":[-46.66751600544976,-23.5255840832705],"properties":{"modo":"trem","nome":"PALMEIRAS - BARRA FUNDA","linha":"TURQUESA","situacao":"OPERANDO"}},{"type":"Point","coordinates":[-46.66751600544976,-23.5255840832705],"properties":{"modo":"trem","nome":"PALMEIRAS - BARRA FUNDA","linha":"CORAL","situacao":"OPERANDO"}},{"type":"Point","coordinates":[-46.482409202732924,-23.48514205399421],"properties":{"modo":"trem","nome":"COMENDADOR ERMELINO","linha":"SAFIRA","situacao":"OPERANDO"}},{"type":"Point","coordinates":[-46.52010211742126,-23.498101126725146],"properties":{"modo":"trem","nome":"ENGENHEIRO GOULART","linha":"SAFIRA","situacao":"OPERANDO"}},{"type":"Point","coordinates":[-46.52010211742126,-23.498101126725146],"properties":{"modo":"trem","nome":"ENGENHEIRO GOULART","linha":"JADE","situacao":"OPERANDO"}},{"type":"Point","coordinates":[-46.709279220899674,-23.754290649499236],"properties":{"modo":"trem","nome":"MENDES / BRUNO COVAS","linha":"ESMERALDA","situacao":"OPERANDO"}},{"type":"Point","coordinates":[-46.71190052792539,-23.770001348084595],"properties":{"modo":"trem","nome":"VARGINHA","linha":"ESMERALDA","situacao":"OPERANDO"}},{"type":"Point","coordinates":[-46.97270474863231,-23.530168029268832],"properties":{"modo":"trem","nome":"AMBUITÁ","linha":"DIAMANTE","situacao":"OPERANDO"}}]}}}