{"type":"Topology","arcs":[[[3977,5486],[-16,-45]],[[3961,5441],[3,-54],[28,-57]],[[3992,5330],[-6,-11]],[[3986,5319],[-71,8]],[[3915,5327],[-50,15]],[[3865,5342],[-14,26]],[[3851,5368],[31,64]],[[3882,5432],[26,38],[69,16]],[[3977,5486],[8,20]],[[3985,5506],[58,-24],[29,-32]],[[4072,5450],[-86,-19],[-25,10]],[[4072,5450],[3,-4]],[[4075,5446],[19,-31]],[[4094,5415],[29,-46]],[[4123,5369],[-46,-30],[-72,7],[-4,-27]],[[4001,5319],[-9,11]],[[4123,5369],[41,-48],[44,-106]],[[4208,5215],[23,-51]],[[4231,5164],[-61,4]],[[4170,5168],[-58,92],[-87,34]],[[4025,5294],[-24,25]],[[4025,5294],[-11,-71],[-31,-32],[-48,-10]],[[3935,5181],[-3,57]],[[3932,5238],[25,46]],[[3957,5284],[29,35]],[[3957,5284],[-39,-3]],[[3918,5281],[-3,46]],[[3918,5281],[-62,7]],[[3856,5288],[-9,1]],[[3847,5289],[18,53]],[[3847,5289],[-51,-68]],[[3796,5221],[-16,-17]],[[3780,5204],[-21,-26],[-45,42],[27,19],[-18,51]],[[3723,5290],[-10,30]],[[3713,5320],[44,-1],[63,30]],[[3820,5349],[31,19]],[[3820,5349],[-12,79],[31,29]],[[3839,5457],[43,-25]],[[3839,5457],[-67,29]],[[3772,5486],[70,47]],[[3842,5533],[31,1]],[[3873,5534],[112,-28]],[[3985,5506],[13,38]],[[3998,5544],[99,-13]],[[4097,5531],[19,-62]],[[4116,5469],[-41,-23]],[[4097,5531],[68,58]],[[4165,5589],[54,-43],[-11,-51]],[[4208,5495],[-62,-7],[-30,-19]],[[4208,5495],[9,-35],[41,-35]],[[4258,5425],[-38,-10]],[[4220,5415],[-87,-20],[-39,20]],[[4220,5415],[86,-117],[19,-6]],[[4325,5292],[-11,-37],[-106,-40]],[[4325,5292],[141,-63],[-5,-80]],[[4461,5149],[-61,5],[-60,-78],[31,-80]],[[4371,4996],[-65,3]],[[4306,4999],[-75,165]],[[4170,5168],[-84,10],[-15,-48],[-54,-4]],[[4017,5126],[-33,16]],[[3984,5142],[-49,39]],[[3984,5142],[-20,-40],[-66,-38],[-28,-40]],[[3870,5024],[-18,58]],[[3852,5082],[8,77],[27,36]],[[3887,5195],[45,43]],[[3887,5195],[-45,14]],[[3842,5209],[14,79]],[[3842,5209],[-46,12]],[[3852,5082],[-23,5]],[[3829,5087],[13,122]],[[3829,5087],[-32,24]],[[3797,5111],[-17,93]],[[3797,5111],[-48,36],[-21,-14]],[[3728,5133],[-77,67]],[[3651,5200],[72,90]],[[3651,5200],[-83,72]],[[3568,5272],[13,8]],[[3581,5280],[112,78]],[[3693,5358],[20,-38]],[[3693,5358],[18,53]],[[3711,5411],[10,43],[51,32]],[[3711,5411],[-47,21]],[[3664,5432],[27,99]],[[3691,5531],[81,-45]],[[3691,5531],[9,25],[68,47],[23,0]],[[3791,5603],[51,-70]],[[3791,5603],[76,60],[60,-35]],[[3927,5628],[-17,-6],[-37,-88]],[[3927,5628],[16,98]],[[3943,5726],[53,-3]],[[3996,5723],[-3,-75]],[[3993,5648],[5,-104]],[[3993,5648],[48,1],[42,-40],[35,4],[47,-24]],[[3996,5723],[80,4],[65,-42],[64,1],[46,-14]],[[4251,5672],[-48,-35],[-38,-48]],[[4251,5672],[50,-44]],[[4301,5628],[62,-27]],[[4363,5601],[31,6]],[[4394,5607],[50,-25],[10,-38]],[[4454,5544],[-246,-49]],[[4454,5544],[24,-69]],[[4478,5475],[-220,-50]],[[4478,5475],[1,-26]],[[4479,5449],[-88,-74],[-66,-83]],[[4479,5449],[40,-135],[100,-45]],[[4619,5269],[24,-37]],[[4643,5232],[-43,-46],[5,-85]],[[4605,5101],[-44,7],[-47,-26],[-44,24],[-9,43]],[[4605,5101],[58,-7]],[[4663,5094],[-37,-107]],[[4626,4987],[-85,-8]],[[4541,4979],[-99,-4],[-14,28],[-57,-7]],[[4306,4999],[42,-73]],[[4348,4926],[-214,-22],[-54,50]],[[4080,4954],[10,16]],[[4090,4970],[32,22]],[[4122,4992],[52,40],[18,58],[-22,78]],[[4122,4992],[-74,72],[-41,8]],[[4007,5072],[10,54]],[[4090,4970],[-84,7],[-13,30]],[[3993,5007],[23,26],[-9,39]],[[3993,5007],[-57,23],[-66,-6]],[[4080,4954],[-25,-88]],[[4055,4866],[-40,-34],[-38,10],[-73,55]],[[3904,4897],[-19,68],[-58,98],[3,21]],[[3830,5084],[-1,3]],[[3830,5084],[-112,-98]],[[3718,4986],[-27,42],[42,27],[3,38],[-30,19]],[[3706,5112],[22,21]],[[3706,5112],[-58,-62],[-61,-47],[7,-28],[-17,-124],[5,-20]],[[3582,4831],[-91,-3]],[[3491,4828],[1,45],[27,95],[-20,70],[-33,57]],[[3466,5095],[61,69]],[[3527,5164],[47,-42],[77,78]],[[3527,5164],[-65,42]],[[3462,5206],[106,66]],[[3581,5280],[-125,53]],[[3456,5333],[53,11],[11,45],[40,31],[15,41]],[[3575,5461],[33,4],[56,-33]],[[3575,5461],[33,99]],[[3608,5560],[27,4],[56,-33]],[[3608,5560],[-12,41],[19,34]],[[3615,5635],[84,-24],[86,3]],[[3785,5614],[6,-11]],[[3785,5614],[6,27],[-52,100]],[[3739,5741],[10,1]],[[3749,5742],[194,-16]],[[3749,5742],[6,110],[58,28],[22,-14]],[[3835,5866],[45,33],[129,-6]],[[4009,5893],[0,-26]],[[4009,5867],[-11,-20],[-2,-124]],[[4009,5867],[53,45],[38,14]],[[4100,5926],[218,-103]],[[4318,5823],[1,-94],[-18,-101]],[[4318,5823],[-16,47]],[[4302,5870],[40,-14],[115,-77],[18,-30]],[[4475,5749],[-112,-148]],[[4475,5749],[139,153]],[[4614,5902],[58,43]],[[4672,5945],[32,-76],[38,-25]],[[4742,5844],[-12,-36],[8,-86]],[[4738,5722],[-42,-40]],[[4696,5682],[-66,-11],[-50,-26]],[[4580,5645],[-65,3],[-121,-41]],[[4580,5645],[15,-96],[19,-44]],[[4614,5505],[-29,-8]],[[4585,5497],[-107,-22]],[[4585,5497],[31,-154],[3,-74]],[[4643,5232],[36,-17]],[[4679,5215],[56,-29],[113,-92],[-15,-41]],[[4833,5053],[-170,41]],[[4833,5053],[96,-25]],[[4929,5028],[57,-55]],[[4986,4973],[22,-51]],[[5008,4922],[-3,-26],[-52,-108]],[[4953,4788],[-81,90],[-22,11]],[[4850,4889],[-119,65],[-14,41],[-51,8],[-40,-16]],[[4850,4889],[-40,-50],[-5,-37],[32,-86]],[[4837,4716],[-24,5],[-62,-71],[-21,0],[-189,129]],[[4541,4779],[7,49],[51,5],[26,30],[-84,116]],[[4541,4779],[-46,-17]],[[4495,4762],[-110,118]],[[4385,4880],[-37,46]],[[4385,4880],[-53,-40],[-18,-41],[-44,-29],[-49,-60],[-18,-73]],[[4203,4637],[-33,39],[-43,15],[-9,75]],[[4118,4766],[-9,51],[-54,49]],[[4118,4766],[-29,2],[-15,-55],[-74,33]],[[4000,4746],[-197,3],[-66,-5]],[[3737,4744],[-9,12]],[[3728,4756],[6,104]],[[3734,4860],[83,-13],[70,20],[17,30]],[[3734,4860],[-35,95],[19,31]],[[3734,4860],[-25,16],[-127,-45]],[[3491,4828],[-3,-65],[-35,-90]],[[3453,4673],[-49,69],[-103,66],[-37,39]],[[3264,4847],[20,82]],[[3284,4929],[23,-3],[90,103]],[[3397,5029],[69,66]],[[3397,5029],[-4,31],[-40,15],[-29,50]],[[3324,5125],[92,54]],[[3416,5179],[46,27]],[[3416,5179],[-48,69]],[[3368,5248],[-25,129]],[[3343,5377],[113,-44]],[[3343,5377],[40,79],[46,70]],[[3429,5526],[111,-75],[35,10]],[[3429,5526],[-73,49],[-28,55]],[[3328,5630],[52,-8],[23,36]],[[3403,5658],[31,-10],[181,-13]],[[3403,5658],[10,24],[0,101]],[[3413,5783],[92,-13]],[[3505,5770],[234,-29]],[[3505,5770],[2,83],[78,101]],[[3585,5954],[52,-41],[79,-1],[15,25],[57,7]],[[3788,5944],[47,-78]],[[3788,5944],[-9,32]],[[3779,5976],[68,-10],[66,56],[34,-38],[65,-29]],[[4012,5955],[-3,-62]],[[4012,5955],[5,28],[-36,44]],[[3981,6027],[63,63],[33,6]],[[4077,6096],[49,4]],[[4126,6100],[10,-72]],[[4136,6028],[-36,-102]],[[4136,6028],[152,1]],[[4288,6029],[-6,-38],[66,-48]],[[4348,5943],[-46,-73]],[[4348,5943],[98,66]],[[4446,6009],[61,-11],[107,-96]],[[4696,5682],[24,-54],[46,-23],[59,-55]],[[4825,5550],[-107,-23]],[[4718,5527],[-104,-22]],[[4718,5527],[35,-129],[86,-12],[-16,-37],[7,-41]],[[4830,5308],[-28,-42]],[[4802,5266],[-31,40],[-59,8],[15,-45],[-10,-34],[-38,-20]],[[4802,5266],[101,-117]],[[4903,5149],[-19,-86],[45,-35]],[[4986,4973],[21,13],[65,-22]],[[5072,4964],[46,7],[62,-30],[149,-55],[69,15]],[[5398,4901],[13,-71],[-69,-59],[-9,-130]],[[5333,4641],[-124,171],[-100,19],[-101,91]],[[5333,4641],[-2,-136]],[[5331,4505],[-53,-6],[-44,33],[-18,34],[-108,63]],[[5108,4629],[-24,32],[31,56],[-34,24],[-128,47]],[[5108,4629],[-127,-8],[-144,95]],[[5108,4629],[-22,-104],[-48,-166]],[[5038,4359],[-66,-16]],[[4972,4343],[-8,-3]],[[4964,4340],[-104,187],[-56,67]],[[4804,4594],[63,9],[-30,113]],[[4804,4594],[-74,-30],[-17,22],[-77,2]],[[4636,4588],[-155,3]],[[4481,4591],[7,56]],[[4488,4647],[7,115]],[[4488,4647],[-74,18],[-39,22],[-39,-41],[-31,-60],[-43,0],[-1,-42]],[[4261,4544],[-51,46],[-7,47]],[[4261,4544],[7,-15]],[[4268,4529],[-40,-25],[-168,-25]],[[4060,4479],[-61,16],[5,26]],[[4004,4521],[-25,166],[21,59]],[[4004,4521],[-40,-3],[-70,16],[-80,37]],[[3814,4571],[-19,73],[-58,100]],[[3814,4571],[9,-78],[-99,-34]],[[3724,4459],[-41,67],[-72,25]],[[3611,4551],[6,23]],[[3617,4574],[110,139],[1,43]],[[3617,4574],[-48,15],[-86,51],[-30,33]],[[3284,4929],[-33,77],[-37,49]],[[3214,5055],[110,70]],[[3214,5055],[-46,55],[-26,76]],[[3142,5186],[75,82]],[[3217,5268],[53,-46],[38,-14],[60,40]],[[3217,5268],[50,99],[-4,55]],[[3263,5422],[80,-45]],[[3263,5422],[-41,42]],[[3222,5464],[-2,25],[83,110]],[[3303,5599],[25,31]],[[3303,5599],[-144,4],[-61,16],[-44,-63]],[[3054,5556],[-11,90],[18,47]],[[3061,5693],[73,40]],[[3134,5733],[108,-48],[105,-1],[56,-26]],[[3134,5733],[-74,50],[-23,58]],[[3037,5841],[92,-9],[67,12],[134,-16]],[[3330,5828],[83,-45]],[[3330,5828],[14,59],[-10,45],[23,37]],[[3357,5969],[180,72]],[[3537,6041],[11,-59],[37,-28]],[[3585,5954],[99,109],[36,-1]],[[3720,6062],[59,-86]],[[3720,6062],[-15,26]],[[3705,6088],[85,99],[112,59],[33,2]],[[3935,6248],[-23,-45],[9,-65],[55,-48],[5,-63]],[[3935,6248],[-5,73]],[[3930,6321],[60,-46],[81,-6],[-45,-117],[51,-56]],[[3930,6321],[-21,30],[-41,-11],[-42,48],[-46,20]],[[3780,6408],[86,4],[63,-12],[74,10],[10,21],[58,9],[164,-17],[-1,18],[118,15],[74,-22]],[[4426,6434],[-44,-71],[-26,8],[-27,-53]],[[4329,6318],[-31,-10],[-34,-81],[-34,-40],[-53,-9],[-25,-58],[-26,-20]],[[4329,6318],[19,-15],[66,16],[7,-31],[49,-44],[33,-2]],[[4503,6242],[-144,-107],[-71,-106]],[[4503,6242],[18,-39]],[[4521,6203],[38,-88],[-113,-106]],[[4521,6203],[133,63],[30,-40]],[[4684,6226],[-9,-76],[6,-65],[16,-25],[-22,-58],[-3,-57]],[[4684,6226],[67,-13],[82,-46],[16,-34],[99,42],[1,24],[57,100]],[[5006,6299],[96,8],[65,15]],[[5167,6322],[48,34],[116,37],[42,39],[55,14]],[[5428,6446],[1,-34],[34,-56],[16,-103],[34,-50]],[[5513,6203],[-43,-30]],[[5470,6173],[-4,10],[-138,47],[-72,-29],[-1,72],[-17,12],[-57,-22],[-48,-55],[-58,-5]],[[5075,6203],[-20,-43],[-41,-41]],[[5014,6119],[-122,-98],[7,-30],[-54,-29],[1,-64],[-31,-20],[-31,17],[-42,-51]],[[5014,6119],[-79,-160],[63,-165]],[[4998,5794],[-33,-10],[-79,9]],[[4886,5793],[-44,-56],[-104,-15]],[[4886,5793],[31,-219]],[[4917,5574],[-92,-24]],[[4825,5550],[20,-38],[47,-24],[67,-14],[53,-30]],[[5012,5444],[-39,-50],[-16,-78]],[[4957,5316],[-58,26],[-69,-34]],[[4957,5316],[-31,-54],[44,-6],[69,-35],[40,75],[44,-26],[-22,-95],[68,23]],[[5169,5198],[-18,-38],[-19,-92]],[[5132,5068],[-65,3],[-164,78]],[[5072,4964],[60,104]],[[5169,5198],[34,65]],[[5203,5263],[45,-39],[51,-72],[1,-43],[46,-57],[82,-30]],[[5428,5022],[-6,-85]],[[5422,4937],[-24,-36]],[[5331,4505],[-19,-27],[-78,4],[-3,-81],[-87,-64]],[[5144,4337],[-106,22]],[[4964,4340],[-21,-15],[26,-54],[-73,-44]],[[4896,4227],[-22,37],[-37,-27],[-35,84]],[[4802,4321],[21,150]],[[4823,4471],[12,62],[-31,61]],[[4802,4321],[-35,-45],[-59,5],[-45,-32],[-26,-42]],[[4637,4207],[26,177],[-24,88]],[[4639,4472],[100,10],[19,-38],[65,27]],[[4639,4472],[-3,116]],[[4637,4207],[-77,-6],[-98,103]],[[4462,4304],[-16,80],[26,28],[9,45],[-20,23],[20,111]],[[4462,4304],[-118,66],[-6,104],[-13,24],[-57,31]],[[4462,4304],[-23,-49],[-58,-45],[-128,-75],[-31,0],[-39,-33],[-50,-19],[-21,21]],[[4112,4104],[26,41],[-8,40],[21,89],[-10,63],[-79,43]],[[4062,4380],[-2,99]],[[4112,4104],[-26,-1],[-52,-41],[-29,28],[-13,-82]],[[3992,4008],[-11,-48],[-26,-24],[4,-82],[-27,-22],[-9,-72]],[[3923,3760],[-34,51],[-46,132],[-46,57],[-189,89]],[[3608,4089],[96,25],[21,-26],[42,44],[15,70],[57,15],[8,22]],[[3847,4239],[10,-51],[63,-27],[27,85],[8,85],[38,33],[69,16]],[[3847,4239],[-7,134]],[[3840,4373],[-91,59],[-25,27]],[[3840,4373],[-182,-65],[-38,48],[-117,-95]],[[3503,4261],[-12,46],[47,60],[4,54],[80,43],[-11,87]],[[3503,4261],[-49,59]],[[3454,4320],[-16,34],[-48,31],[-69,-19],[-33,22]],[[3288,4388],[154,240],[11,45]],[[3288,4388],[-77,69],[39,40],[13,43],[-69,19]],[[3194,4559],[14,103],[42,126]],[[3250,4788],[14,59]],[[3194,4559],[-29,-46]],[[3165,4513],[-22,33],[-33,-7],[-35,25],[-23,43],[-29,2],[-36,-33]],[[2987,4576],[4,74],[-22,64],[36,33],[-16,42]],[[2989,4789],[28,39],[30,-11],[31,-46],[172,17]],[[2989,4789],[-34,109],[-39,11],[-24,32],[-5,49]],[[2887,4990],[0,66],[45,35]],[[2932,5091],[133,69],[-4,89]],[[3061,5249],[43,-20],[38,-43]],[[2932,5091],[-33,43],[-113,-51],[-29,39],[38,24],[-108,97]],[[2687,5243],[47,8],[103,59],[12,52]],[[2849,5362],[136,-75]],[[2985,5287],[76,-38]],[[2985,5287],[106,174],[43,11]],[[3134,5472],[-25,-105],[51,-36],[57,-63]],[[3134,5472],[52,-17],[36,9]],[[3134,5472],[-43,40],[-50,10]],[[3041,5522],[13,34]],[[3054,5556],[-100,24],[-57,34],[-17,54],[-45,24]],[[2835,5692],[20,11],[147,9],[59,-19]],[[2849,5362],[-27,31]],[[2822,5393],[89,95],[130,34]],[[2822,5393],[-167,153]],[[2655,5546],[118,77],[62,69]],[[2655,5546],[-9,51],[-59,36]],[[2587,5633],[68,-1],[32,59]],[[2687,5691],[29,28],[123,9],[86,47]],[[2925,5775],[42,56]],[[2967,5831],[70,10]],[[3037,5841],[12,19]],[[3049,5860],[19,19],[9,64],[40,-2],[-31,71]],[[3086,6012],[80,63],[91,-5],[22,40],[65,-18],[8,-41]],[[3352,6051],[5,-82]],[[3352,6051],[86,110],[37,5]],[[3475,6166],[116,-27]],[[3591,6139],[-52,-46],[-2,-52]],[[3591,6139],[21,-30],[59,37]],[[3671,6146],[34,-58]],[[3671,6146],[-69,22],[-20,46],[140,43],[-50,86],[-62,35],[-42,-17],[-43,-55]],[[3525,6306],[-15,21]],[[3510,6327],[-56,102],[7,58],[-14,29],[32,71],[-41,14],[36,49],[23,1],[158,93]],[[3655,6744],[49,-52],[-2,-147],[-7,-75],[42,-48],[43,-14]],[[3655,6744],[181,42],[53,-15],[91,69],[38,16],[-3,33],[102,26],[-19,42],[31,28],[-7,39],[26,59],[54,68],[56,13],[2,42],[-21,35],[80,41],[59,54],[73,44],[20,38],[108,-22],[48,55],[37,19],[79,83],[40,64],[82,-21],[70,-61],[-16,-70],[-81,-78],[5,-83],[-12,-32]],[[4831,7272],[-83,-82],[-38,-58],[-26,-14],[37,-47],[-3,-67],[-103,-63],[-17,-46],[23,-98],[-21,-69],[30,-41],[-13,-112]],[[4617,6575],[-38,-84],[-1,-66]],[[4578,6425],[-80,-27],[-13,36],[-59,0]],[[4578,6425],[46,-109],[39,-32],[21,-58]],[[4617,6575],[72,-19],[54,30],[65,-47],[77,-7],[43,45],[27,-22],[23,-74],[57,-68],[8,-35]],[[5043,6378],[-32,-25],[-46,-1],[6,-51],[35,-2]],[[5043,6378],[69,66],[41,-72],[14,-50]],[[5470,6173],[-24,-44],[76,-3],[27,-171],[-59,-80]],[[5490,5875],[-9,-1]],[[5481,5874],[-82,10],[-54,-10],[-22,36]],[[5323,5910],[-2,43],[-48,11],[-198,239]],[[5323,5910],[-220,-19],[7,-98]],[[5110,5793],[-31,10],[-81,-9]],[[5481,5874],[-5,-92],[-49,5],[-48,-72]],[[5379,5715],[-178,18]],[[5201,5733],[-91,60]],[[5379,5715],[100,-172]],[[5479,5543],[-91,10],[-119,81],[-78,-6],[-32,-15]],[[5159,5613],[-52,72],[38,9],[56,39]],[[5159,5613],[-53,-24]],[[5106,5589],[-99,-1],[-90,-14]],[[5479,5543],[52,-65]],[[5531,5478],[49,-75],[-10,-50],[-43,-23]],[[5527,5330],[-44,-13],[-47,17],[-17,30],[-103,46]],[[5316,5410],[-71,33],[-103,85],[-36,61]],[[5316,5410],[-90,-41],[-29,-49],[-35,-3]],[[5162,5317],[-78,59],[-72,68]],[[5162,5317],[41,-54]],[[5527,5330],[59,-27],[-2,-34],[36,-32],[0,-49],[-22,-26],[-55,-2],[-39,-97],[-50,-46],[-26,5]],[[5531,5478],[-5,26],[56,13],[40,30]],[[5622,5547],[51,20],[28,80],[26,43],[90,58]],[[5817,5748],[-53,-99],[55,-82],[-80,-171],[37,-33],[93,-55],[56,-2]],[[5925,5306],[-8,-163],[53,-119]],[[5970,5024],[-2,-103],[-26,-55],[-28,-1]],[[5914,4865],[-91,-23],[-41,-20],[-140,0],[-60,44],[-67,5],[-41,49],[-52,17]],[[5914,4865],[34,-21],[-6,-33],[27,-103],[30,-65],[-19,-27],[-2,-65],[-38,-39],[42,-25],[5,-69],[-41,-46],[-50,-6],[-44,-51]],[[5852,4315],[-57,1],[-66,38],[-80,-4],[-30,59],[-18,80],[-62,32]],[[5539,4521],[-122,-17],[-86,1]],[[5539,4521],[-8,-75],[-30,-111],[47,-105],[-111,-31],[-30,-56],[-41,-21],[20,-30]],[[5386,4092],[-23,-7],[-127,28]],[[5236,4113],[8,70],[-6,83],[-47,-22],[-83,36],[36,57]],[[5236,4113],[-173,82],[-91,148]],[[5236,4113],[-6,-50],[-97,-45],[-12,7]],[[5121,4025],[-27,-13],[-87,65],[-58,8]],[[4949,4085],[-54,48],[1,94]],[[4949,4085],[-64,-106],[-49,-28],[-48,34]],[[4788,3985],[-20,49],[-96,150],[-35,23]],[[4788,3985],[-155,-26],[-19,-51]],[[4614,3908],[-16,42]],[[4598,3950],[-72,211],[-64,143]],[[4598,3950],[-69,-3]],[[4529,3947],[-92,-16],[-57,-40],[-92,72],[34,81],[-50,10],[-86,-80],[-41,36],[-33,94]],[[4529,3947],[-36,-65],[15,-153],[-94,-80],[-28,-80]],[[4386,3569],[0,-32],[-91,-64],[-10,-41],[-47,-34],[-11,-81],[13,-67]],[[4240,3250],[-26,72],[38,174],[15,123],[-17,94],[-54,90],[-34,78],[-29,9],[-141,118]],[[3608,4089],[-62,69],[-43,103]],[[3608,4089],[7,-43],[76,-46],[-25,-54],[31,-43],[-17,-26],[-93,48]],[[3587,3925],[-54,39],[-124,74],[-79,-6],[-39,11],[15,93]],[[3306,4136],[32,58],[-20,32],[17,30],[62,43],[57,21]],[[3306,4136],[-17,-4]],[[3289,4132],[-37,-3],[-37,52],[-85,54],[-209,22]],[[2921,4257],[7,30],[139,177],[98,49]],[[2921,4257],[14,-73],[60,-74]],[[2995,4110],[-36,-1],[-91,46],[-47,-5]],[[2821,4150],[-101,4],[-26,53],[-153,-8],[-46,107],[-40,64],[-80,-2]],[[2375,4368],[10,33],[73,41],[69,98]],[[2527,4540],[44,-35],[20,-68],[77,-29],[59,13],[10,35],[59,45],[42,-13],[58,63],[34,19],[57,6]],[[2527,4540],[34,55],[78,44],[25,78],[-10,24],[-54,20],[-53,63]],[[2547,4824],[-42,28],[-16,48],[-54,59]],[[2435,4959],[58,-26],[126,-15],[96,20],[84,7],[88,45]],[[2435,4959],[17,46],[-44,5],[-41,91]],[[2367,5101],[44,8],[18,63],[34,26],[28,-17],[70,128],[3,53]],[[2564,5362],[33,-81],[48,10],[42,-48]],[[2564,5362],[-18,70],[13,42],[-18,31],[5,73]],[[2546,5578],[41,55]],[[2687,5691],[-50,-2],[-15,35],[-44,14],[-60,96]],[[2518,5834],[-12,29],[26,48],[46,22],[17,33]],[[2595,5966],[29,-51]],[[2624,5915],[58,-73],[180,-15],[63,-52]],[[2624,5915],[104,183],[-1,-58],[-17,-53],[184,-61],[73,-95]],[[2595,5966],[-10,21],[-93,28],[-60,116],[14,81],[-67,43],[2,84],[60,66]],[[2441,6405],[49,-83],[146,19],[34,-9],[38,-47]],[[2708,6285],[323,-342],[18,-83]],[[2708,6285],[72,53],[-16,21],[270,67]],[[3034,6426],[-2,-54]],[[3032,6372],[-76,-57],[-1,-43],[29,-41],[14,-99],[16,-37],[63,-32],[9,-51]],[[3032,6372],[77,-120],[28,-2],[25,-78],[192,8],[160,39]],[[3514,6219],[-39,-53]],[[3525,6306],[-11,-87]],[[3034,6426],[36,56],[63,16],[52,-4],[39,-33]],[[3224,6461],[50,-20],[27,-35],[51,-4],[48,-44],[10,-36],[49,-18],[51,23]],[[3224,6461],[13,126],[38,105],[-17,48],[-8,84]],[[3250,6824],[71,-42],[22,61],[-10,19],[89,60],[57,-48],[30,9]],[[3509,6883],[54,-63],[57,-30],[35,-46]],[[4831,7272],[48,-48],[46,-67],[39,-21],[-13,-34],[32,-27],[40,46],[61,20],[34,37],[52,0],[3,-35],[53,-60],[26,-6],[97,94],[26,53],[48,-27],[30,13],[47,-14],[1,-29]],[[5501,7167],[10,-46],[-33,-49],[15,-47],[-33,-125],[-51,-68],[-31,-175],[1,-52],[52,-126],[-3,-33]],[[5501,7167],[93,-9],[368,153],[424,158],[23,-42],[26,-135],[25,-34],[69,100],[61,-4],[93,40],[38,0]],[[6721,7394],[3,-76],[-13,-69],[-58,-23],[-12,-115],[42,-42],[0,-48],[35,-39],[-4,-40]],[[6714,6942],[-44,-8],[-251,-82],[-93,-26],[-140,6],[-61,18],[-118,-53],[-79,-47],[-145,-17],[-102,-44],[-50,-122],[-127,-49],[-28,-52],[-48,-20]],[[6714,6942],[41,-68],[7,-87],[83,-96]],[[6845,6691],[-46,31],[-37,-23],[-30,31],[-71,28],[-29,-27],[-32,10],[-53,-53],[41,-27],[-7,-48],[-44,-4],[-10,-37],[-81,-12],[38,-55],[3,-84],[36,-44],[35,-113]],[[6558,6264],[3,-52],[-22,-36],[-44,15],[-47,-39],[-36,9],[-19,-37],[-52,29],[12,78],[-51,33],[-24,46],[-102,-30],[-56,10],[-34,-18],[-10,-52],[-47,28],[-39,-51],[-19,-79],[-40,-22],[-104,21],[-13,-46],[-53,1]],[[5761,6072],[-24,46],[31,38],[-24,32],[-47,-12],[-60,9],[-55,48],[-69,-30]],[[6558,6264],[38,22],[49,-103]],[[6645,6183],[-115,-61],[-71,-75],[-103,-14]],[[6356,6033],[-265,27]],[[6091,6060],[-142,14],[-109,-16]],[[5840,6058],[-85,7]],[[5755,6065],[6,7]],[[6091,6060],[22,-88],[-18,-66],[-27,-31],[4,-42]],[[6072,5833],[-57,0],[-26,33],[-49,-25],[-69,-3],[-44,51],[-35,7],[-16,61],[26,23],[38,78]],[[5755,6065],[-49,-74],[-70,-75],[-61,-37]],[[5575,5879],[-85,-4]],[[5622,5547],[2,52],[-49,280]],[[6072,5833],[19,-70],[-4,-94],[8,-65],[21,-30]],[[6116,5574],[-15,-3],[-46,102],[-99,-2],[-30,-26]],[[5926,5645],[-51,48],[-22,57],[-36,-2]],[[5926,5645],[48,-85],[4,-57],[-55,-35],[14,-55],[3,-83],[-15,-24]],[[6116,5574],[48,-32],[15,-44],[78,-27]],[[6257,5471],[21,-3],[-41,-108],[-17,-131],[-51,-54],[-29,-73],[-38,-9],[-39,-56],[-93,-13]],[[6257,5471],[-25,58],[24,108],[1,98],[45,-25],[29,-64],[89,-71],[48,55]],[[6468,5630],[28,-126],[48,-35],[5,-47],[-29,-21],[-54,-1],[32,-62]],[[6498,5338],[28,-67],[65,-30],[49,-1],[-44,-75],[2,-25],[48,-61],[-49,-19],[43,-62],[-9,-57],[-37,-96],[4,-45],[-40,-4],[-36,-27],[-28,19],[-64,-46],[48,-81]],[[6478,4661],[-32,-81],[-33,-33],[-58,-18],[-11,-30],[7,-71],[-71,-44],[-6,-33],[-70,-54],[-84,80],[-23,-47],[-110,-20],[-17,-20],[-70,5],[-48,20]],[[6478,4661],[63,0],[50,-31],[10,-27]],[[6601,4603],[-43,-41],[-52,-73],[-19,-108],[-47,-71],[-12,-49],[14,-80],[21,-35],[49,-136],[-12,-41],[-120,-47],[-17,-40],[-35,-12],[-34,-51],[-95,72],[-60,2],[-28,-25],[-10,-55],[-45,-2],[-10,-29],[-65,-63],[-45,-22]],[[5936,3697],[-56,101],[-48,180],[-153,120],[-145,62],[-108,-62]],[[5426,4098],[-40,-6]],[[5936,3697],[-22,-30],[-13,-62],[-117,-41],[-24,-40],[-35,-10],[-23,-53],[-66,-37]],[[5636,3424],[-35,-14],[-66,35],[2,55],[-58,-1],[-28,33],[12,36],[-5,89],[54,53],[-1,45],[31,28]],[[5542,3783],[29,74],[-14,98],[-34,26],[-28,61],[-69,56]],[[5542,3783],[-68,8],[-67,32],[-62,-24],[-26,38],[-41,-20],[-91,-7],[-48,7],[-20,23]],[[5119,3840],[-13,58],[15,127]],[[5119,3840],[-76,-16],[-77,-55],[-27,-6]],[[4939,3763],[-59,54],[-58,-11]],[[4822,3806],[-40,12],[-12,42],[18,49],[0,76]],[[4822,3806],[-38,-27],[-58,-2],[-30,-30],[-44,36]],[[4652,3783],[-38,125]],[[4652,3783],[50,-170]],[[4702,3613],[-30,20],[-139,-17],[-27,-44],[-95,-40],[-25,37]],[[4240,3250],[-47,-24],[-23,-43],[-60,-1],[-30,-18],[-48,31],[-64,16],[-37,-15],[-59,55],[-79,-8],[-55,9]],[[3738,3252],[144,54],[122,116]],[[4004,3422],[42,5],[52,45],[11,50],[-79,24],[3,38],[-52,34],[-21,67],[-54,49],[17,26]],[[4004,3422],[-151,-109],[-59,15],[-50,-5],[-3,54],[66,50],[14,49],[-82,-43],[-91,-2],[-44,28],[-15,38],[84,56],[48,21],[5,47],[-97,-59],[-25,80],[-39,3],[-26,-52],[-46,-23]],[[3493,3570],[-149,56],[-54,73]],[[3290,3699],[100,127],[83,-30],[59,-37],[4,52],[22,89],[29,25]],[[3290,3699],[-37,78],[-74,86]],[[3179,3863],[-70,130],[-5,22]],[[3104,4015],[46,45],[53,15],[86,57]],[[3104,4015],[-38,55],[-71,40]],[[3179,3863],[-49,-15],[-113,61],[-87,26],[10,-825]],[[2940,3110],[-109,0],[-65,-15],[-34,9],[-52,46],[-79,6],[-56,-22],[-22,-34],[-2,-110],[-30,-46]],[[2491,2944],[-19,40],[-66,1],[-23,33],[-116,53],[-11,43],[-62,24],[4,42],[-32,49],[37,50],[35,95],[-15,133],[17,37],[-26,52],[-82,26],[45,30]],[[2177,3652],[33,10],[73,-11],[32,49],[-5,45],[47,3],[40,59],[81,10],[42,68],[30,75],[-3,42],[36,42],[53,-40],[26,40],[83,37],[76,69]],[[2177,3652],[-52,113]],[[2125,3765],[22,50],[-3,36],[48,103],[29,173],[-2,87]],[[2219,4214],[44,66],[112,88]],[[2375,4368],[-31,55],[6,201],[7,32],[-54,61]],[[2303,4717],[90,6],[15,36],[77,4],[53,36],[9,25]],[[2219,4214],[-313,122],[53,27],[41,56],[2,57],[24,39],[-21,62],[17,54]],[[2022,4631],[20,21]],[[2042,4652],[3,0]],[[2045,4652],[24,-6],[120,37],[60,3],[54,31]],[[2045,4652],[2,46],[-16,60],[38,137],[-7,52],[107,15],[47,58],[38,6],[30,33],[38,-1],[45,43]],[[2042,4652],[-24,46],[-56,16],[-18,68],[38,51],[-1,59],[-34,10],[-8,64]],[[1939,4966],[25,144],[-25,45],[2,45],[-23,29],[1,57],[-29,64],[9,18]],[[1899,5368],[222,-117],[78,44]],[[2199,5295],[125,-48],[43,-146]],[[2199,5295],[53,157],[8,120]],[[2260,5572],[75,-75],[80,-21],[63,-32],[86,-82]],[[2260,5572],[-40,60]],[[2220,5632],[31,26]],[[2251,5658],[91,-30],[99,-68],[68,-19],[37,37]],[[1899,5368],[5,10]],[[1904,5378],[-4,39],[29,17],[17,152],[-8,64]],[[1938,5650],[115,7],[54,-28],[113,3]],[[2251,5658],[-3,62],[89,122],[-43,18],[1,35],[109,6],[114,-67]],[[1938,5650],[-10,38]],[[1928,5688],[33,60],[63,33],[0,18]],[[2024,5799],[0,55],[-41,46],[-2,27],[76,103],[7,53],[48,13],[-10,78],[26,13],[-9,67]],[[2119,6254],[32,43],[5,57],[29,14],[66,-46],[50,14],[58,-7],[49,74],[33,2]],[[2119,6254],[-10,8]],[[2109,6262],[0,33],[-48,47],[-20,94],[-24,44],[-17,118],[-17,49]],[[1983,6647],[174,112],[167,-32],[106,4],[2,103],[217,-67],[56,-11]],[[2705,6756],[-16,-111],[91,-207],[-72,-153]],[[2705,6756],[186,17],[23,28],[162,131]],[[3076,6932],[13,-29],[84,-8],[15,-77],[62,6]],[[3076,6932],[-9,80],[-55,-1],[-43,29],[-6,61],[-31,41],[-105,38],[-20,33],[-156,0],[-32,-11],[-34,38]],[[2585,7240],[13,157],[95,222]],[[2693,7619],[17,-9],[216,-17],[70,20],[76,-49],[38,-42],[90,8],[48,-36]],[[3248,7494],[28,-35],[48,46],[42,-38],[84,29],[45,33],[26,-80],[-3,-50],[40,-23],[43,10],[2,-70],[44,-60],[-31,-35],[44,-53],[-54,-88],[-35,-38],[-36,-65],[-26,-94]],[[6721,7394],[9,25],[-35,49],[20,71],[53,23],[81,68],[6,33],[54,54],[60,27],[29,71],[25,7],[25,73],[33,0],[54,63],[176,72],[33,-17],[55,38],[67,-22],[36,-68],[5,-49],[53,-18],[-22,-46],[22,-88],[-14,-93],[7,-53],[-18,-18],[4,-98],[198,-211],[29,-18],[54,-64],[72,-56],[37,-14],[28,-58],[81,5]],[[8038,7082],[-27,-42],[11,-66],[-66,-40],[-44,-62],[-10,-42],[-30,-2],[-47,-37],[-27,1]],[[7798,6792],[-38,-32],[-51,-6],[-56,-23],[-56,7],[-47,56],[-29,-16],[-86,84],[-72,8],[-27,83],[-42,-52],[-3,-38],[-40,-13],[-64,16],[-49,-9],[-75,11],[-111,35],[-57,-38],[-5,-50],[-29,-41],[-16,-83]],[[7798,6792],[-11,-69],[-17,-13],[0,-88],[-13,-58],[-68,-93],[-62,-16],[18,-112],[49,-92],[-3,-54],[-52,0],[-36,-44],[-97,-43],[2,-55],[35,-14]],[[7543,6041],[-69,-16],[-54,39],[-154,12],[-93,33],[-52,-57],[-3,-46],[50,-88]],[[7168,5918],[-105,-23],[-98,-12],[-49,40],[-139,-93]],[[6777,5830],[17,96],[-53,77],[-96,180]],[[6777,5830],[-83,-7],[0,-34],[-60,-7],[-62,-59],[-11,-57],[-64,-53],[-29,17]],[[6468,5630],[-56,128],[-79,208],[23,67]],[[6777,5830],[1,-62],[-23,-63],[18,-56],[46,-4],[45,-46]],[[6864,5599],[-218,-135],[-61,-108],[-87,-18]],[[7168,5918],[41,-93],[-24,-45],[-12,-122]],[[7173,5658],[-149,56],[-160,-115]],[[7173,5658],[-17,-49],[-1,-82],[-47,-46]],[[7108,5481],[-59,-55],[8,-38],[-24,-66],[3,-84],[-51,-64],[-26,-61],[-36,0]],[[6923,5113],[-6,98],[-31,20],[36,78],[-40,90],[31,71],[-11,67],[-38,62]],[[6923,5113],[-35,-91],[-56,-7],[-10,-45],[-31,-49],[-21,-79],[-43,-94],[-13,-47],[-81,-50],[-32,-48]],[[6601,4603],[13,-65],[32,-58],[15,-77],[33,-68],[37,11],[60,-36],[38,7],[66,53],[39,2],[-11,-54],[13,-75],[-20,-7],[-33,-137],[18,-32],[72,-33],[59,-76],[69,-39],[26,-58],[-8,-98],[51,-66],[-2,-96],[14,-51]],[[7182,3550],[-24,42],[-38,-24],[7,-54],[-87,-62],[-30,20],[-89,-30],[-111,108],[-57,-37],[-39,24],[-19,-28],[-61,41],[-31,-20],[-6,-45],[29,-38],[-17,-66],[-77,-24],[-16,27],[-57,-12],[-33,-84],[-30,5]],[[6396,3293],[-36,139],[-181,167],[-128,38],[-115,60]],[[6396,3293],[-24,-2],[-110,-66],[20,-55],[-34,-77],[-14,-64],[15,-65],[-16,-25],[-98,-26],[-10,-38]],[[6125,2875],[-71,-28],[-49,19],[-42,-48],[-63,-4],[-27,15],[-55,68],[50,53],[-52,38]],[[5816,2988],[20,47],[-39,35],[-48,65],[-85,58],[5,37],[34,31],[-11,27],[2,74],[-37,14],[-21,48]],[[5816,2988],[-188,-141]],[[5628,2847],[-60,46],[-79,76],[-80,100],[-107,54],[-49,-49],[-19,15],[-64,-34],[-81,1],[-10,31],[74,14],[28,44],[-6,53],[-28,20],[43,90],[-20,49],[-3,61],[-35,36],[41,63],[14,43],[-40,48],[-59,1],[-34,-19],[-51,35]],[[5003,3625],[-34,45],[-30,93]],[[5003,3625],[-39,-39],[-6,-139],[-28,-32],[4,-54],[-28,-34],[-77,30],[-36,1]],[[4793,3358],[-68,65],[-19,39],[-4,151]],[[5628,2847],[-298,-231],[81,-56],[-11,-105],[-131,-10]],[[5269,2445],[-16,102],[-135,126],[-111,180],[-3,153],[-92,229],[-119,123]],[[4793,3358],[-272,-124],[-69,2],[-138,-119],[-74,133]],[[5269,2445],[-395,-27],[-363,204],[-194,-97],[-70,-7],[-193,1]],[[4054,2519],[7,70],[-33,97],[-197,233],[-44,96],[-14,117],[-35,120]],[[4054,2519],[3,-68],[-8,-209],[-78,-90],[-32,-70],[2,-84],[19,-139],[26,-33],[55,-21],[98,-68],[-6,-99],[10,-33],[-18,-127],[13,-96],[18,-36],[11,-74],[59,-26],[-35,-41],[3,-69],[35,-20],[-17,-36],[15,-37],[-45,-108],[-34,2],[11,-66],[86,-17],[-16,-45],[8,-68],[-32,-43],[35,-24],[14,-40],[-27,-28],[7,-54],[-41,-52],[-36,15],[-62,-47],[-58,-21],[-76,-43],[-8,-47],[21,-38],[-1,-53],[42,-32],[-87,-37],[-25,-41],[-122,-28],[-44,67],[-46,20],[-32,47],[-74,-9],[-82,5],[-34,-12],[-43,19],[-22,41],[-83,-11],[-24,-49],[-77,-28],[-36,19],[-32,-58],[-87,-11],[-35,36],[-118,-40],[-63,45],[-49,1],[-64,-25],[-67,-108],[-75,-31],[-51,-4],[-24,-42],[-53,42],[11,39],[56,27],[27,95],[34,31],[77,178],[-50,-2],[-35,62],[-12,57],[-29,23],[-51,-6],[-43,50],[16,75],[-82,19],[-48,79],[-47,10],[-38,-27],[-26,38],[-121,29],[-11,100],[-24,61],[-21,89],[-4,73],[21,57],[37,52],[24,96],[-31,29],[19,36],[39,-10],[23,-67],[125,-6],[119,21],[6,279],[-1,156],[-19,29]],[[2407,1814],[-16,23],[6,117],[47,-21],[103,13],[20,86],[-17,37],[17,52],[-74,79],[-151,95],[-90,21],[-62,-1],[-54,35],[20,72],[44,24],[16,62],[55,65],[-27,97],[25,58],[95,58],[50,47]],[[2414,2833],[76,49],[1,62]],[[2940,3110],[2,-149],[28,-23],[-16,-40],[0,-64],[155,2],[80,46],[130,60],[55,81],[71,71],[37,71],[55,166],[-10,59],[-23,15],[-10,74],[-51,11],[-5,50],[55,30]],[[2407,1814],[-53,-8],[-149,103],[-135,15],[-144,24],[-26,56],[-45,20],[50,52],[6,79],[-65,53],[-39,53],[-13,75],[-3,111],[-41,59],[-14,122]],[[1736,2628],[7,49],[46,-20],[41,24],[78,122],[54,17],[41,-22],[34,19],[52,-4],[53,-32],[39,-2],[106,72],[127,-18]],[[1736,2628],[-48,-13],[-24,-76],[-50,52],[-48,10],[-109,44],[-44,36],[-39,-31],[-64,-7],[-33,-32],[-44,-1],[-37,-52],[-45,1],[-44,-30],[-81,47],[-42,4],[-31,29],[-71,12],[-116,36],[-90,15],[10,43],[31,27],[-25,68],[25,7],[44,65],[-16,59],[13,39],[-12,86],[-29,39],[26,91],[101,70],[50,7],[85,77],[57,96],[22,174],[35,100],[-5,47],[30,41],[-9,47],[27,61],[22,-6],[35,47]],[[1193,3957],[33,-38],[38,-8],[27,-45],[74,-46],[22,-45],[101,29],[73,-18],[53,-29],[24,43],[89,32],[64,12],[60,28],[44,-25],[-1,-54],[30,-41],[61,-21],[140,34]],[[1193,3957],[-39,1],[-20,-27],[-88,6],[-5,46],[-44,5],[-127,63],[3,63],[21,43]],[[894,4157],[87,105],[-21,23],[28,85],[110,41],[73,38],[42,36],[0,28],[48,9],[36,-26],[94,-6],[56,67],[37,12],[37,40],[29,-90],[71,-3],[102,-74],[44,37],[46,0],[94,67],[19,57],[96,28]],[[894,4157],[-449,1],[-1,614],[-2,71]],[[442,4843],[90,53],[20,70],[65,55],[5,52],[140,81],[81,-10],[88,28]],[[931,5172],[41,-51],[46,-17],[116,16],[59,-16],[116,45]],[[1309,5149],[7,-51],[66,-17],[49,-68],[84,-30],[38,-33],[25,18],[81,-12],[-2,55],[96,14],[50,-47],[69,-40],[38,-1],[29,29]],[[1309,5149],[6,55],[48,2],[-17,80],[82,2],[44,44],[-15,62]],[[1457,5394],[61,11],[82,-13],[46,-54],[48,-37],[47,0],[29,98],[82,-2],[52,-19]],[[1457,5394],[-5,159],[23,38],[-24,33],[87,103],[82,2],[54,24],[34,41],[30,-1],[82,-109],[26,-18],[71,-2],[11,24]],[[1457,5394],[-55,-42],[-52,-23],[-47,18],[-58,-50],[-52,-11],[-49,37],[13,53],[-48,88],[24,57],[-4,41],[-30,57],[-63,11],[-65,48],[-36,-30],[-58,44],[10,40],[-17,33]],[[870,5765],[217,55],[383,51],[554,-72]],[[931,5172],[45,85],[-22,46],[-28,0],[-47,54],[-19,55],[22,30],[-13,49],[-45,49],[-3,68],[-22,29],[-51,-11],[-23,35],[-1,89]],[[724,5750],[73,-27],[73,42]],[[442,4843],[8,14],[3,313],[-383,397],[-70,77],[6,70],[32,61],[43,25],[46,54],[52,-11],[94,39],[58,8],[-1,32]],[[330,5922],[44,-17],[39,-45],[42,-17],[101,4],[27,-31],[123,-72],[18,6]],[[330,5922],[22,43],[51,20],[41,41],[-3,30],[139,17],[72,-28],[49,-3],[39,22],[56,-26],[77,1],[31,-38],[69,10],[70,-5],[52,16],[4,45],[57,17],[2,115],[35,34],[43,-10],[4,-31],[43,-52],[92,26],[31,-39],[40,-17],[107,-13],[51,31],[61,-20],[51,6],[35,-15],[110,42],[84,-34],[16,-30],[72,24],[9,101],[67,60]],[[1983,6647],[-38,41],[-17,44],[-65,46],[-6,46],[40,44],[-76,108],[34,93]],[[1855,7069],[64,21],[94,-2],[24,33],[46,15],[55,-83],[46,30],[71,-51],[34,14],[-18,45],[90,35],[52,-8],[12,104],[60,28],[100,-10]],[[2585,7240],[-19,-152],[142,-196],[-3,-136]],[[1855,7069],[-11,292],[6,528],[39,-87],[81,13],[110,-56],[7,-36],[82,-11],[52,19],[39,-64],[57,28],[-4,115],[43,30],[93,6],[100,50],[9,28],[45,21],[19,-17]],[[2622,7928],[56,-81],[40,-90],[-13,-115],[-12,-23]],[[2622,7928],[-33,49],[-2,81],[-34,19],[-9,39],[17,95],[24,75],[28,-5],[9,-51],[348,4],[61,84],[77,-19],[63,44],[17,30],[64,-7],[-4,-872]],[[8038,7082],[12,-24],[195,-473],[252,-371],[224,-193]],[[8721,6021],[60,-24],[-17,-29],[13,-44],[60,-32],[12,-42]],[[8849,5850],[-196,-42],[-333,-213]],[[8320,5595],[-34,17],[-91,90],[-23,-39],[-77,-4],[-31,-63],[-73,-31]],[[7991,5565],[7,39],[-36,21],[-26,-16],[-36,21],[-27,-20]],[[7873,5610],[-72,32],[-53,7],[-32,26],[-73,-17],[-100,383]],[[8721,6021],[313,117],[83,34],[166,133],[78,58],[63,5],[187,2],[34,45],[97,21],[59,-49],[62,17],[15,54],[-9,64],[57,4],[153,-126],[47,-119],[30,-18],[-23,-85],[16,-56],[-129,-42],[5,-33],[-22,-85],[-64,-100],[-30,25],[-39,-33],[-3,-56],[-79,60],[-24,46],[-65,-36],[-47,47],[-52,2],[-3,-67],[-33,-14],[41,-43],[43,-89],[-68,-47],[-58,-92],[5,-110],[-17,-75]],[[9510,5380],[-206,73],[-131,25],[-33,-22],[-23,26],[18,97],[-77,53],[-55,17],[-11,81],[-40,26],[-39,93],[-64,1]],[[9510,5380],[108,-34],[36,-58],[43,-14],[62,-95],[13,-62],[-21,-127],[-593,27],[-63,-21],[-44,-66],[-44,-11],[-18,-50],[-74,-52],[-45,-18],[-60,-52],[-52,30],[-36,92],[-63,0]],[[8659,4869],[-4,123],[-18,23],[-18,134],[37,102],[-8,65],[-37,-8],[-53,65],[-34,60],[-79,59],[-24,4],[-101,99]],[[8659,4869],[-24,-18],[-32,51],[0,40],[-28,58],[-94,34],[-57,8],[-58,36],[-25,32],[-55,112]],[[8286,5222],[6,34],[-36,52],[-69,35],[-54,66],[4,24],[-50,63],[-90,29],[-6,40]],[[8286,5222],[-39,-37],[-39,-120],[-107,-63],[-85,73],[-106,19],[-131,59],[-178,20]],[[7601,5173],[40,27],[59,89],[0,162],[97,9],[10,55],[29,50],[49,3],[-12,42]],[[7601,5173],[-2,-8]],[[7599,5165],[-51,10],[11,95],[-64,1],[-69,63],[-53,-5],[-60,47],[24,60],[-69,28],[8,26],[-113,5],[-55,-14]],[[7599,5165],[126,-132],[65,-57],[73,-107],[17,-125],[58,-63],[-25,-48],[1,-52],[-33,-99],[78,-141],[-8,-34],[39,-59],[-1,-42],[-37,-113],[3,-81],[-29,-8],[-45,-101],[-24,-92],[-51,-12],[-52,-31],[-40,-51],[-98,-39],[-82,-74],[31,-68],[-12,-52],[14,-33],[-19,-71],[-100,-100],[-15,-49],[-48,-55],[-83,-45],[36,70],[-78,58],[-39,66]],[[7221,3325],[13,48],[-14,57],[5,59],[32,113],[-52,14],[6,-41],[-29,-25]],[[7221,3325],[-61,8],[-39,26],[-16,-81],[-72,-48],[-93,-12],[-53,-26],[-31,-45],[31,-34],[-23,-45],[-59,-43],[-16,9],[-67,-38],[-35,-48],[-63,-5],[-51,-41],[-39,3],[-48,-45],[-36,7],[-120,-29],[-92,-48],[-25,20],[-61,-4],[2,50],[-29,19]]],"transform":{"scale":[9.504760328102728,9.524487797697102],"translate":[296122.04062272934,7343627.107094585]},"objects":{"zonas_1977_s":{"type":"GeometryCollection","geometries":[{"arcs":[[0,1,2,3,4,5,6,7]],"type":"Polygon","properties":{"codigo":"1","nome":"Sé","municipio_nome":"São Paulo"},"id":"1"},{"arcs":[[-1,8,9,10]],"type":"Polygon","properties":{"codigo":"2","nome":"Brás","municipio_nome":"São Paulo"},"id":"2"},{"arcs":[[-2,-11,11,12,13,14,15]],"type":"Polygon","properties":{"codigo":"3","nome":"Brás","municipio_nome":"São Paulo"},"id":"3"},{"arcs":[[-15,16,17,18,19,20]],"type":"Polygon","properties":{"codigo":"4","nome":"Moóca","municipio_nome":"São Paulo"},"id":"4"},{"arcs":[[-3,-16,-21,21,22,23,24]],"type":"Polygon","properties":{"codigo":"5","nome":"Liberdade","municipio_nome":"São Paulo"},"id":"5"},{"arcs":[[-4,-25,25,26]],"type":"Polygon","properties":{"codigo":"6","nome":"Liberdade","municipio_nome":"São Paulo"},"id":"6"},{"arcs":[[-5,-27,27,28,29]],"type":"Polygon","properties":{"codigo":"7","nome":"Liberdade","municipio_nome":"São Paulo"},"id":"7"},{"arcs":[[-6,-30,30,31,32,33,34,35]],"type":"Polygon","properties":{"codigo":"8","nome":"Bela Vista","municipio_nome":"São Paulo"},"id":"8"},{"arcs":[[-7,-36,36,37]],"type":"Polygon","properties":{"codigo":"9","nome":"Consolação","municipio_nome":"São Paulo"},"id":"9"},{"arcs":[[-8,-38,38,39,40,41,-9]],"type":"Polygon","properties":{"codigo":"10","nome":"Santa Efigênia","municipio_nome":"São Paulo"},"id":"10"},{"arcs":[[-10,42,43,44,45,-12]],"type":"Polygon","properties":{"codigo":"11","nome":"Brás","municipio_nome":"São Paulo"},"id":"11"},{"arcs":[[-45,46,47,48]],"type":"Polygon","properties":{"codigo":"12","nome":"Brás","municipio_nome":"São Paulo"},"id":"12"},{"arcs":[[-13,-46,-49,49,50,51]],"type":"Polygon","properties":{"codigo":"13","nome":"Brás","municipio_nome":"São Paulo"},"id":"13"},{"arcs":[[-14,-52,52,53,-17]],"type":"Polygon","properties":{"codigo":"14","nome":"Moóca","municipio_nome":"São Paulo"},"id":"14"},{"arcs":[[-18,-54,54,55,56,57]],"type":"Polygon","properties":{"codigo":"15","nome":"Alto da Moóca","municipio_nome":"São Paulo"},"id":"15"},{"arcs":[[-20,58,59,60,-22]],"type":"Polygon","properties":{"codigo":"16","nome":"Cambuci","municipio_nome":"São Paulo"},"id":"16"},{"arcs":[[-23,-61,61,62,63,64]],"type":"Polygon","properties":{"codigo":"17","nome":"Aclimação","municipio_nome":"São Paulo"},"id":"17"},{"arcs":[[-24,-65,65,66,-28,-26]],"type":"Polygon","properties":{"codigo":"18","nome":"Liberdade","municipio_nome":"São Paulo"},"id":"18"},{"arcs":[[-29,-67,67,-31]],"type":"Polygon","properties":{"codigo":"19","nome":"Liberdade","municipio_nome":"São Paulo"},"id":"19"},{"arcs":[[-64,68,69,-66]],"type":"Polygon","properties":{"codigo":"20","nome":"Liberdade","municipio_nome":"São Paulo"},"id":"20"},{"arcs":[[-32,-68,-70,70,71]],"type":"Polygon","properties":{"codigo":"21","nome":"Liberdade","municipio_nome":"São Paulo"},"id":"21"},{"arcs":[[-33,-72,72,73,74]],"type":"Polygon","properties":{"codigo":"22","nome":"Bela Vista","municipio_nome":"São Paulo"},"id":"22"},{"arcs":[[-34,-75,75,76,77,78]],"type":"Polygon","properties":{"codigo":"23","nome":"Cerqueira Cesar","municipio_nome":"São Paulo"},"id":"23"},{"arcs":[[-35,-79,79,80,-39,-37]],"type":"Polygon","properties":{"codigo":"24","nome":"Consolação","municipio_nome":"São Paulo"},"id":"24"},{"arcs":[[-81,81,82,83]],"type":"Polygon","properties":{"codigo":"25","nome":"Santa Cecília","municipio_nome":"São Paulo"},"id":"25"},{"arcs":[[-40,-84,84,85]],"type":"Polygon","properties":{"codigo":"26","nome":"Santa Cecília","municipio_nome":"São Paulo"},"id":"26"},{"arcs":[[-41,-86,86,87]],"type":"Polygon","properties":{"codigo":"27","nome":"Bom Retiro","municipio_nome":"São Paulo"},"id":"27"},{"arcs":[[-42,-88,88,89,90,91,-43]],"type":"Polygon","properties":{"codigo":"28","nome":"Santa Efigênia","municipio_nome":"São Paulo"},"id":"28"},{"arcs":[[-44,-92,92,-47]],"type":"Polygon","properties":{"codigo":"29","nome":"Pari","municipio_nome":"São Paulo"},"id":"29"},{"arcs":[[-91,93,94,-93]],"type":"Polygon","properties":{"codigo":"30","nome":"Pari","municipio_nome":"São Paulo"},"id":"30"},{"arcs":[[-48,-95,95,96,97,98,99]],"type":"Polygon","properties":{"codigo":"31","nome":"Belenzinho","municipio_nome":"São Paulo"},"id":"31"},{"arcs":[[-50,-100,100,101]],"type":"Polygon","properties":{"codigo":"32","nome":"Belenzinho","municipio_nome":"São Paulo"},"id":"32"},{"arcs":[[-51,-102,102,103,-53]],"type":"Polygon","properties":{"codigo":"33","nome":"Belenzinho","municipio_nome":"São Paulo"},"id":"33"},{"arcs":[[-55,-104,104,105,106,107]],"type":"Polygon","properties":{"codigo":"34","nome":"Alto da Moóca","municipio_nome":"São Paulo"},"id":"34"},{"arcs":[[-56,-108,108,109,110,111]],"type":"Polygon","properties":{"codigo":"35","nome":"Vila Prudente","municipio_nome":"São Paulo"},"id":"35"},{"arcs":[[-19,-58,112,113,114,115,116]],"type":"Polygon","properties":{"codigo":"36","nome":"Ipiranga","municipio_nome":"São Paulo"},"id":"36"},{"arcs":[[-59,-117,117,118]],"type":"Polygon","properties":{"codigo":"37","nome":"Cambuci","municipio_nome":"São Paulo"},"id":"37"},{"arcs":[[-116,119,120,-118]],"type":"Polygon","properties":{"codigo":"38","nome":"Aclimação","municipio_nome":"São Paulo"},"id":"38"},{"arcs":[[-60,-119,-121,121,-62]],"type":"Polygon","properties":{"codigo":"39","nome":"Aclimação","municipio_nome":"São Paulo"},"id":"39"},{"arcs":[[-63,-122,-120,-115,122,123,124,125,-69]],"type":"Polygon","properties":{"codigo":"40","nome":"Vila Mariana","municipio_nome":"São Paulo"},"id":"40"},{"arcs":[[-71,-126,126,127,128,-73]],"type":"Polygon","properties":{"codigo":"41","nome":"Vila Mariana","municipio_nome":"São Paulo"},"id":"41"},{"arcs":[[-74,-129,129,130,131,132,133]],"type":"Polygon","properties":{"codigo":"42","nome":"Jardim Paulista","municipio_nome":"São Paulo"},"id":"42"},{"arcs":[[-76,-134,134,135]],"type":"Polygon","properties":{"codigo":"43","nome":"Cerqueira Cesar","municipio_nome":"São Paulo"},"id":"43"},{"arcs":[[-78,136,137,138,-82,-80]],"type":"Polygon","properties":{"codigo":"44","nome":"Consolação","municipio_nome":"São Paulo"},"id":"44"},{"arcs":[[-83,-139,139,140]],"type":"Polygon","properties":{"codigo":"45","nome":"Santa Cecília","municipio_nome":"São Paulo"},"id":"45"},{"arcs":[[-85,-141,141,142,143]],"type":"Polygon","properties":{"codigo":"46","nome":"Barra Funda","municipio_nome":"São Paulo"},"id":"46"},{"arcs":[[-87,-144,144,145,146,-89]],"type":"Polygon","properties":{"codigo":"47","nome":"Bom Retiro","municipio_nome":"São Paulo"},"id":"47"},{"arcs":[[-90,-147,147,148,149,150]],"type":"Polygon","properties":{"codigo":"48","nome":"Santana","municipio_nome":"São Paulo"},"id":"48"},{"arcs":[[-94,-151,151,152,153,-96]],"type":"Polygon","properties":{"codigo":"49","nome":"Vila Guilherme","municipio_nome":"São Paulo"},"id":"49"},{"arcs":[[-97,-154,154,155,156]],"type":"Polygon","properties":{"codigo":"50","nome":"Vila Maria","municipio_nome":"São Paulo"},"id":"50"},{"arcs":[[-98,-157,157,158,159,160,161,162,163]],"type":"Polygon","properties":{"codigo":"51","nome":"Vila Maria","municipio_nome":"São Paulo"},"id":"51"},{"arcs":[[-99,-164,164,165,166,-101]],"type":"Polygon","properties":{"codigo":"52","nome":"Tatuapé","municipio_nome":"São Paulo"},"id":"52"},{"arcs":[[-103,-167,167,-105]],"type":"Polygon","properties":{"codigo":"53","nome":"Tatuapé","municipio_nome":"São Paulo"},"id":"53"},{"arcs":[[-107,168,169,170,-109]],"type":"Polygon","properties":{"codigo":"54","nome":"Alto da Moóca","municipio_nome":"São Paulo"},"id":"54"},{"arcs":[[-110,-171,171,172,173,174,175,176]],"type":"Polygon","properties":{"codigo":"55","nome":"Vila Prudente","municipio_nome":"São Paulo"},"id":"55"},{"arcs":[[-111,-177,177,178,179]],"type":"Polygon","properties":{"codigo":"56","nome":"Vila Prudente","municipio_nome":"São Paulo"},"id":"56"},{"arcs":[[-112,-180,180,181,182,-113,-57]],"type":"Polygon","properties":{"codigo":"57","nome":"Vila Prudente","municipio_nome":"São Paulo"},"id":"57"},{"arcs":[[-114,-183,183,184,185,-123]],"type":"Polygon","properties":{"codigo":"58","nome":"Ipiranga","municipio_nome":"São Paulo"},"id":"58"},{"arcs":[[-124,-186,186,187,188,189,190]],"type":"Polygon","properties":{"codigo":"59","nome":"Saúde","municipio_nome":"São Paulo"},"id":"59"},{"arcs":[[-125,-191,191,-127]],"type":"Polygon","properties":{"codigo":"60","nome":"Vila Mariana","municipio_nome":"São Paulo"},"id":"60"},{"arcs":[[-128,-192,192,-130]],"type":"Polygon","properties":{"codigo":"61","nome":"Vila Mariana","municipio_nome":"São Paulo"},"id":"61"},{"arcs":[[-132,193,194,195,196,197]],"type":"Polygon","properties":{"codigo":"62","nome":"Jardim Paulista","municipio_nome":"São Paulo"},"id":"62"},{"arcs":[[-133,-198,198,199,200,-135]],"type":"Polygon","properties":{"codigo":"63","nome":"Jardim América","municipio_nome":"São Paulo"},"id":"63"},{"arcs":[[-77,-136,-201,201,202,203,-137]],"type":"Polygon","properties":{"codigo":"64","nome":"Jardim América","municipio_nome":"São Paulo"},"id":"64"},{"arcs":[[-138,-204,204,205]],"type":"Polygon","properties":{"codigo":"65","nome":"Perdizes","municipio_nome":"São Paulo"},"id":"65"},{"arcs":[[-140,-206,206,207,208,-142]],"type":"Polygon","properties":{"codigo":"66","nome":"Perdizes","municipio_nome":"São Paulo"},"id":"66"},{"arcs":[[-143,-209,209,210,211,-145]],"type":"Polygon","properties":{"codigo":"67","nome":"Barra Funda","municipio_nome":"São Paulo"},"id":"67"},{"arcs":[[-146,-212,212,213,214,-148]],"type":"Polygon","properties":{"codigo":"68","nome":"Casa Verde","municipio_nome":"São Paulo"},"id":"68"},{"arcs":[[-149,-215,215,216,217]],"type":"Polygon","properties":{"codigo":"69","nome":"Santana","municipio_nome":"São Paulo"},"id":"69"},{"arcs":[[-150,-218,218,219,220,221,222,-152]],"type":"Polygon","properties":{"codigo":"70","nome":"Santana","municipio_nome":"São Paulo"},"id":"70"},{"arcs":[[-153,-223,223,224,225,-155]],"type":"Polygon","properties":{"codigo":"71","nome":"Vila Guilherme","municipio_nome":"São Paulo"},"id":"71"},{"arcs":[[-156,-226,226,227,-158]],"type":"Polygon","properties":{"codigo":"72","nome":"Vila Maria","municipio_nome":"São Paulo"},"id":"72"},{"arcs":[[-163,228,229,230,-165]],"type":"Polygon","properties":{"codigo":"73","nome":"Tatuapé","municipio_nome":"São Paulo"},"id":"73"},{"arcs":[[-106,-168,-166,-231,231,232,233,-169]],"type":"Polygon","properties":{"codigo":"74","nome":"Tatuapé","municipio_nome":"São Paulo"},"id":"74"},{"arcs":[[-170,-234,234,235,-172]],"type":"Polygon","properties":{"codigo":"75","nome":"Vila Formosa","municipio_nome":"São Paulo"},"id":"75"},{"arcs":[[-174,236,237,238,239]],"type":"Polygon","properties":{"codigo":"76","nome":"Vila Prudente","municipio_nome":"São Paulo"},"id":"76"},{"arcs":[[-175,-240,240,241,242]],"type":"Polygon","properties":{"codigo":"77","nome":"Vila Prudente","municipio_nome":"São Paulo"},"id":"77"},{"arcs":[[-176,-243,243,-178]],"type":"Polygon","properties":{"codigo":"78","nome":"Vila Prudente","municipio_nome":"São Paulo"},"id":"78"},{"arcs":[[-244,244,245,246,247,248]],"type":"Polygon","properties":{"codigo":"79","nome":"Santo André","municipio_nome":"Santo André"},"id":"79"},{"arcs":[[-179,-249,249,250,251,252,-181]],"type":"Polygon","properties":{"codigo":"80","nome":"São Caetano do Sul","municipio_nome":"São Caetano do Sul"},"id":"80"},{"arcs":[[-182,-253,253,254,-184]],"type":"Polygon","properties":{"codigo":"81","nome":"Ipiranga","municipio_nome":"São Paulo"},"id":"81"},{"arcs":[[-185,-255,255,256,257,258,-187]],"type":"Polygon","properties":{"codigo":"82","nome":"Saúde","municipio_nome":"São Paulo"},"id":"82"},{"arcs":[[-188,-259,259,260]],"type":"Polygon","properties":{"codigo":"83","nome":"Saúde","municipio_nome":"São Paulo"},"id":"83"},{"arcs":[[-189,-261,261,262,263,264]],"type":"Polygon","properties":{"codigo":"84","nome":"Indianópolis","municipio_nome":"São Paulo"},"id":"84"},{"arcs":[[-131,-193,-190,-265,265,-194]],"type":"Polygon","properties":{"codigo":"85","nome":"Indianópolis","municipio_nome":"São Paulo"},"id":"85"},{"arcs":[[-197,266,267,-199]],"type":"Polygon","properties":{"codigo":"86","nome":"Jardim América","municipio_nome":"São Paulo"},"id":"86"},{"arcs":[[-200,-268,268,269,270,-202]],"type":"Polygon","properties":{"codigo":"87","nome":"Pinheiros","municipio_nome":"São Paulo"},"id":"87"},{"arcs":[[-203,-271,271,272]],"type":"Polygon","properties":{"codigo":"88","nome":"Vila Madalena","municipio_nome":"São Paulo"},"id":"88"},{"arcs":[[-205,-273,273,274,275,-207]],"type":"Polygon","properties":{"codigo":"89","nome":"Perdizes","municipio_nome":"São Paulo"},"id":"89"},{"arcs":[[-208,-276,276,277,278,279]],"type":"Polygon","properties":{"codigo":"90","nome":"Lapa","municipio_nome":"São Paulo"},"id":"90"},{"arcs":[[-210,-280,280,281,282]],"type":"Polygon","properties":{"codigo":"91","nome":"Lapa","municipio_nome":"São Paulo"},"id":"91"},{"arcs":[[-211,-283,283,284,285,-213]],"type":"Polygon","properties":{"codigo":"92","nome":"Limão","municipio_nome":"São Paulo"},"id":"92"},{"arcs":[[-214,286,287,-216]],"type":"Polygon","properties":{"codigo":"93","nome":"Casa Verde","municipio_nome":"São Paulo"},"id":"93"},{"arcs":[[-217,-288,288,289,290,-219]],"type":"Polygon","properties":{"codigo":"94","nome":"Santana","municipio_nome":"São Paulo"},"id":"94"},{"arcs":[[-220,-291,291,292]],"type":"Polygon","properties":{"codigo":"95","nome":"Santana","municipio_nome":"São Paulo"},"id":"95"},{"arcs":[[-221,-293,293,294,295,296]],"type":"Polygon","properties":{"codigo":"96","nome":"Tucuruvi","municipio_nome":"São Paulo"},"id":"96"},{"arcs":[[-222,-297,297,298,-224]],"type":"Polygon","properties":{"codigo":"97","nome":"Tucuruvi","municipio_nome":"São Paulo"},"id":"97"},{"arcs":[[-225,-299,299,300,-227]],"type":"Polygon","properties":{"codigo":"98","nome":"Tucuruvi","municipio_nome":"São Paulo"},"id":"98"},{"arcs":[[-159,-228,-301,301,302]],"type":"Polygon","properties":{"codigo":"99","nome":"Tucuruvi","municipio_nome":"São Paulo"},"id":"99"},{"arcs":[[-160,-303,303,304,305,306,307,308,309,310]],"type":"Polygon","properties":{"codigo":"100","nome":"Guarulhos","municipio_nome":"Guarulhos"},"id":"100"},{"arcs":[[-161,-311,311,312,313]],"type":"Polygon","properties":{"codigo":"101","nome":"Cangaíba","municipio_nome":"São Paulo"},"id":"101"},{"arcs":[[-162,-314,314,315,-229]],"type":"Polygon","properties":{"codigo":"102","nome":"Penha","municipio_nome":"São Paulo"},"id":"102"},{"arcs":[[-230,316,317,318,-232]],"type":"Polygon","properties":{"codigo":"103","nome":"Tatuapé","municipio_nome":"São Paulo"},"id":"103"},{"arcs":[[-233,-319,319,320,321,-235]],"type":"Polygon","properties":{"codigo":"104","nome":"Vila Formosa","municipio_nome":"São Paulo"},"id":"104"},{"arcs":[[-238,322,-321,323,324,325,326]],"type":"Polygon","properties":{"codigo":"105","nome":"Tatuapé","municipio_nome":"São Paulo"},"id":"105"},{"arcs":[[-242,327,328,-245]],"type":"Polygon","properties":{"codigo":"106","nome":"Santo André","municipio_nome":"Santo André"},"id":"106"},{"arcs":[[-248,329,330,331,332]],"type":"Polygon","properties":{"codigo":"107","nome":"Santo André","municipio_nome":"Santo André"},"id":"107"},{"arcs":[[-332,333,334,335]],"type":"Polygon","properties":{"codigo":"108","nome":"São Caetano do Sul","municipio_nome":"São Caetano do Sul"},"id":"108"},{"arcs":[[-250,-333,-336,336]],"type":"Polygon","properties":{"codigo":"109","nome":"São Caetano do Sul","municipio_nome":"São Caetano do Sul"},"id":"109"},{"arcs":[[-251,-337,-335,337,338]],"type":"Polygon","properties":{"codigo":"110","nome":"São Caetano do Sul","municipio_nome":"São Caetano do Sul"},"id":"110"},{"arcs":[[-252,-339,339,-256,-254]],"type":"Polygon","properties":{"codigo":"111","nome":"Ipiranga","municipio_nome":"São Paulo"},"id":"111"},{"arcs":[[-257,-340,340,341,342]],"type":"Polygon","properties":{"codigo":"112","nome":"Saúde","municipio_nome":"São Paulo"},"id":"112"},{"arcs":[[-342,343,344,345,346,347]],"type":"Polygon","properties":{"codigo":"113","nome":"Jabaquara","municipio_nome":"São Paulo"},"id":"113"},{"arcs":[[-258,-343,-348,348,349,-262,-260]],"type":"Polygon","properties":{"codigo":"114","nome":"Jabaquara","municipio_nome":"São Paulo"},"id":"114"},{"arcs":[[-263,-350,350,351]],"type":"Polygon","properties":{"codigo":"115","nome":"Ibirapuera","municipio_nome":"São Paulo"},"id":"115"},{"arcs":[[-264,-352,352,353,354,-266]],"type":"Polygon","properties":{"codigo":"116","nome":"Ibirapuera","municipio_nome":"São Paulo"},"id":"116"},{"arcs":[[-195,-355,355,356,357]],"type":"Polygon","properties":{"codigo":"117","nome":"Ibirapuera","municipio_nome":"São Paulo"},"id":"117"},{"arcs":[[-357,358,359,360,361]],"type":"Polygon","properties":{"codigo":"118","nome":"Ibirapuera","municipio_nome":"São Paulo"},"id":"118"},{"arcs":[[-196,-358,-362,362,363,364,365,-269,-267]],"type":"Polygon","properties":{"codigo":"119","nome":"Butantã","municipio_nome":"São Paulo"},"id":"119"},{"arcs":[[-365,366,367,368,369]],"type":"Polygon","properties":{"codigo":"120","nome":"Butantã","municipio_nome":"São Paulo"},"id":"120"},{"arcs":[[-270,-366,-370,370,371]],"type":"Polygon","properties":{"codigo":"121","nome":"Pinheiros","municipio_nome":"São Paulo"},"id":"121"},{"arcs":[[-272,-372,372,-274]],"type":"Polygon","properties":{"codigo":"122","nome":"Vila Madalena","municipio_nome":"São Paulo"},"id":"122"},{"arcs":[[-275,-373,373,374,-277]],"type":"Polygon","properties":{"codigo":"123","nome":"Lapa","municipio_nome":"São Paulo"},"id":"123"},{"arcs":[[-278,375,376]],"type":"Polygon","properties":{"codigo":"124","nome":"Lapa","municipio_nome":"São Paulo"},"id":"124"},{"arcs":[[-369,377,378,-374,-371]],"type":"Polygon","properties":{"codigo":"125","nome":"Lapa","municipio_nome":"São Paulo"},"id":"125"},{"arcs":[[-375,-379,379,380,-376]],"type":"Polygon","properties":{"codigo":"126","nome":"Lapa","municipio_nome":"São Paulo"},"id":"126"},{"arcs":[[-279,-377,-381,381,382,383,384,385,-281]],"type":"Polygon","properties":{"codigo":"127","nome":"Lapa","municipio_nome":"São Paulo"},"id":"127"},{"arcs":[[-282,386,387,388,389,-284]],"type":"Polygon","properties":{"codigo":"128","nome":"Nossa Senhora do Ó","municipio_nome":"São Paulo"},"id":"128"},{"arcs":[[-285,-390,390,391,392]],"type":"Polygon","properties":{"codigo":"129","nome":"Limão","municipio_nome":"São Paulo"},"id":"129"},{"arcs":[[-286,-393,393,394,-289,-287]],"type":"Polygon","properties":{"codigo":"130","nome":"Casa Verde","municipio_nome":"São Paulo"},"id":"130"},{"arcs":[[-290,-395,395,396,397,398,-294,-292]],"type":"Polygon","properties":{"codigo":"131","nome":"Santana","municipio_nome":"São Paulo"},"id":"131"},{"arcs":[[-295,-399,399,400,401,402]],"type":"Polygon","properties":{"codigo":"132","nome":"Tucuruvi","municipio_nome":"São Paulo"},"id":"132"},{"arcs":[[-296,-403,403,-302,-300,-298]],"type":"Polygon","properties":{"codigo":"133","nome":"Tucuruvi","municipio_nome":"São Paulo"},"id":"133"},{"arcs":[[-304,-404,-402,404,405]],"type":"Polygon","properties":{"codigo":"134","nome":"Guarulhos","municipio_nome":"Guarulhos"},"id":"134"},{"arcs":[[-305,-406,406]],"type":"Polygon","properties":{"codigo":"135","nome":"Guarulhos","municipio_nome":"Guarulhos"},"id":"135"},{"arcs":[[-309,407,408,409,410]],"type":"Polygon","properties":{"codigo":"136","nome":"Ermelino Matarazzo","municipio_nome":"São Paulo"},"id":"136"},{"arcs":[[-310,-411,411,412,-312]],"type":"Polygon","properties":{"codigo":"137","nome":"Cangaíba","municipio_nome":"São Paulo"},"id":"137"},{"arcs":[[-410,413,414,415,-412]],"type":"Polygon","properties":{"codigo":"138","nome":"Ermelino Matarazzo","municipio_nome":"São Paulo"},"id":"138"},{"arcs":[[-415,416,417,418]],"type":"Polygon","properties":{"codigo":"139","nome":"Penha","municipio_nome":"São Paulo"},"id":"139"},{"arcs":[[-313,-413,-416,-419,419,420,-315]],"type":"Polygon","properties":{"codigo":"140","nome":"Penha","municipio_nome":"São Paulo"},"id":"140"},{"arcs":[[-418,421,422,423,424,-420]],"type":"Polygon","properties":{"codigo":"141","nome":"Vila Matilde","municipio_nome":"São Paulo"},"id":"141"},{"arcs":[[-316,-421,-425,425,426,-317]],"type":"Polygon","properties":{"codigo":"142","nome":"Vila Matilde","municipio_nome":"São Paulo"},"id":"142"},{"arcs":[[-318,-427,427,-324,-320]],"type":"Polygon","properties":{"codigo":"143","nome":"Tatuapé","municipio_nome":"São Paulo"},"id":"143"},{"arcs":[[-325,-428,-426,-424,428]],"type":"Polygon","properties":{"codigo":"144","nome":"Vila Matilde","municipio_nome":"São Paulo"},"id":"144"},{"arcs":[[-326,-429,-423,429,430,431,432,433,434]],"type":"Polygon","properties":{"codigo":"145","nome":"Itaquera","municipio_nome":"São Paulo"},"id":"145"},{"arcs":[[-239,-327,-435,435,436,437,-241]],"type":"Polygon","properties":{"codigo":"146","nome":"Itaquera","municipio_nome":"São Paulo"},"id":"146"},{"arcs":[[-328,-438,438,439,440]],"type":"Polygon","properties":{"codigo":"147","nome":"Santo André","municipio_nome":"Santo André"},"id":"147"},{"arcs":[[-246,-329,-441,441]],"type":"Polygon","properties":{"codigo":"148","nome":"Santo André","municipio_nome":"Santo André"},"id":"148"},{"arcs":[[-247,-442,442,443,444,-330]],"type":"Polygon","properties":{"codigo":"149","nome":"Santo André","municipio_nome":"Santo André"},"id":"149"},{"arcs":[[-331,-445,445,446,-334]],"type":"Polygon","properties":{"codigo":"150","nome":"Santo André","municipio_nome":"Santo André"},"id":"150"},{"arcs":[[-338,-447,447,448,449]],"type":"Polygon","properties":{"codigo":"151","nome":"São Bernardo do Cam","municipio_nome":"São Bernardo"},"id":"151"},{"arcs":[[-341,-450,450,451]],"type":"Polygon","properties":{"codigo":"152","nome":"São Bernardo do Cam","municipio_nome":"São Bernardo"},"id":"152"},{"arcs":[[-344,-452,452,453,454]],"type":"Polygon","properties":{"codigo":"153","nome":"Diadema","municipio_nome":"Diadema"},"id":"153"},{"arcs":[[-347,455,-351,-349]],"type":"Polygon","properties":{"codigo":"154","nome":"Jabaquara","municipio_nome":"São Paulo"},"id":"154"},{"arcs":[[-353,-456,456,457,458]],"type":"Polygon","properties":{"codigo":"155","nome":"Santo Amaro","municipio_nome":"São Paulo"},"id":"155"},{"arcs":[[-354,-459,459,460,461,-359,-356]],"type":"Polygon","properties":{"codigo":"156","nome":"Santo Amaro","municipio_nome":"São Paulo"},"id":"156"},{"arcs":[[-360,-462,462,463,464,465,466]],"type":"Polygon","properties":{"codigo":"157","nome":"Santo Amaro","municipio_nome":"São Paulo"},"id":"157"},{"arcs":[[-361,-467,467,468,469,-363]],"type":"Polygon","properties":{"codigo":"158","nome":"Butantã","municipio_nome":"São Paulo"},"id":"158"},{"arcs":[[-364,-470,470,471,472,-367]],"type":"Polygon","properties":{"codigo":"159","nome":"Butantã","municipio_nome":"São Paulo"},"id":"159"},{"arcs":[[-368,-473,473,474,-382,-380,-378]],"type":"Polygon","properties":{"codigo":"160","nome":"Butantã","municipio_nome":"São Paulo"},"id":"160"},{"arcs":[[-384,475,476,477,478]],"type":"Polygon","properties":{"codigo":"161","nome":"Vila Jaguara","municipio_nome":"São Paulo"},"id":"161"},{"arcs":[[-385,-479,479]],"type":"Polygon","properties":{"codigo":"162","nome":"Vila Jaguara","municipio_nome":"São Paulo"},"id":"162"},{"arcs":[[-386,-480,-478,480,481,482,-387]],"type":"Polygon","properties":{"codigo":"163","nome":"Pirituba","municipio_nome":"São Paulo"},"id":"163"},{"arcs":[[-388,-483,483,484,485]],"type":"Polygon","properties":{"codigo":"164","nome":"Pirituba","municipio_nome":"São Paulo"},"id":"164"},{"arcs":[[-389,-486,486,487,-391]],"type":"Polygon","properties":{"codigo":"165","nome":"Nossa Senhora do Ó","municipio_nome":"São Paulo"},"id":"165"},{"arcs":[[-397,488,-487,-485,489,490]],"type":"Polygon","properties":{"codigo":"166","nome":"Brasilândia","municipio_nome":"São Paulo"},"id":"166"},{"arcs":[[-392,-488,-489,-396,-394]],"type":"Polygon","properties":{"codigo":"167","nome":"Vila Nova Cachoeiri","municipio_nome":"São Paulo"},"id":"167"},{"arcs":[[-398,-491,491,492,493]],"type":"Polygon","properties":{"codigo":"168","nome":"Brasilândia","municipio_nome":"São Paulo"},"id":"168"},{"arcs":[[-306,-407,-405,-401,494,495]],"type":"Polygon","properties":{"codigo":"169","nome":"Guarulhos","municipio_nome":"Guarulhos"},"id":"169"},{"arcs":[[-496,496,497,498]],"type":"Polygon","properties":{"codigo":"170","nome":"Guarulhos","municipio_nome":"Guarulhos"},"id":"170"},{"arcs":[[-307,-499,499,500,501,502]],"type":"Polygon","properties":{"codigo":"171","nome":"Guarulhos","municipio_nome":"Guarulhos"},"id":"171"},{"arcs":[[-502,503,504,505,506,507,508]],"type":"Polygon","properties":{"codigo":"172","nome":"São Miguel Paulista","municipio_nome":"São Paulo"},"id":"172"},{"arcs":[[-507,509,510]],"type":"Polygon","properties":{"codigo":"173","nome":"São Miguel Paulista","municipio_nome":"São Paulo"},"id":"173"},{"arcs":[[-308,-503,-509,511,512,-408]],"type":"Polygon","properties":{"codigo":"174","nome":"Ermelino Matarazzo","municipio_nome":"São Paulo"},"id":"174"},{"arcs":[[-431,513,-512,-508,-511,514,515,516]],"type":"Polygon","properties":{"codigo":"175","nome":"São Miguel Paulista","municipio_nome":"São Paulo"},"id":"175"},{"arcs":[[-432,-517,517]],"type":"Polygon","properties":{"codigo":"176","nome":"Itaquera","municipio_nome":"São Paulo"},"id":"176"},{"arcs":[[-409,-513,-514,-430,-422,-417,-414]],"type":"Polygon","properties":{"codigo":"177","nome":"Ermelino Matarazzo","municipio_nome":"São Paulo"},"id":"177"},{"arcs":[[-433,-518,-516,518,519]],"type":"Polygon","properties":{"codigo":"178","nome":"Itaquera","municipio_nome":"São Paulo"},"id":"178"},{"arcs":[[-434,-520,520,521,522,523,-436]],"type":"Polygon","properties":{"codigo":"179","nome":"Guaianazes","municipio_nome":"São Paulo"},"id":"179"},{"arcs":[[-437,-524,524,525,526,527,-439]],"type":"Polygon","properties":{"codigo":"180","nome":"Mauá","municipio_nome":"Mauá"},"id":"180"},{"arcs":[[-527,528,529,530]],"type":"Polygon","properties":{"codigo":"181","nome":"Mauá","municipio_nome":"Mauá"},"id":"181"},{"arcs":[[-440,-528,-531,531,532,-443]],"type":"Polygon","properties":{"codigo":"182","nome":"Santo André","municipio_nome":"Santo André"},"id":"182"},{"arcs":[[-444,-533,533,534,535,-446]],"type":"Polygon","properties":{"codigo":"183","nome":"Santo André","municipio_nome":"Santo André"},"id":"183"},{"arcs":[[-448,-536,536,537]],"type":"Polygon","properties":{"codigo":"184","nome":"São Bernardo do Cam","municipio_nome":"São Bernardo"},"id":"184"},{"arcs":[[-449,-538,538,539,-453,-451]],"type":"Polygon","properties":{"codigo":"185","nome":"São Bernardo do Cam","municipio_nome":"São Bernardo"},"id":"185"},{"arcs":[[-345,-455,540,541,542]],"type":"Polygon","properties":{"codigo":"186","nome":"Diadema","municipio_nome":"Diadema"},"id":"186"},{"arcs":[[-346,-543,543,544,545,-457]],"type":"Polygon","properties":{"codigo":"187","nome":"Santo Amaro","municipio_nome":"São Paulo"},"id":"187"},{"arcs":[[-458,-546,546,547,548,-460]],"type":"Polygon","properties":{"codigo":"188","nome":"Santo Amaro","municipio_nome":"São Paulo"},"id":"188"},{"arcs":[[-461,-549,549,-463]],"type":"Polygon","properties":{"codigo":"189","nome":"Santo Amaro","municipio_nome":"São Paulo"},"id":"189"},{"arcs":[[-464,-550,-548,550,551,552,553]],"type":"Polygon","properties":{"codigo":"190","nome":"Socorro","municipio_nome":"São Paulo"},"id":"190"},{"arcs":[[-465,-554,554,555,556]],"type":"Polygon","properties":{"codigo":"191","nome":"Santo Amaro","municipio_nome":"São Paulo"},"id":"191"},{"arcs":[[-466,557,558,-468]],"type":"Polygon","properties":{"codigo":"192","nome":"Taboão da Serra","municipio_nome":"Taboão da Serra"},"id":"192"},{"arcs":[[-557,559,560,561,562,-558]],"type":"Polygon","properties":{"codigo":"193","nome":"Taboão da Serra","municipio_nome":"Taboão da Serra"},"id":"193"},{"arcs":[[-469,-559,-563,563,-471]],"type":"Polygon","properties":{"codigo":"194","nome":"Butantã","municipio_nome":"São Paulo"},"id":"194"},{"arcs":[[-562,564,565,566,567,-564]],"type":"Polygon","properties":{"codigo":"195","nome":"Osasco","municipio_nome":"Osasco"},"id":"195"},{"arcs":[[-472,-568,568,569]],"type":"Polygon","properties":{"codigo":"196","nome":"Osasco","municipio_nome":"Osasco"},"id":"196"},{"arcs":[[-474,-570,570,571,572]],"type":"Polygon","properties":{"codigo":"197","nome":"Osasco","municipio_nome":"Osasco"},"id":"197"},{"arcs":[[-567,573,574,575,-571,-569]],"type":"Polygon","properties":{"codigo":"198","nome":"Osasco","municipio_nome":"Osasco"},"id":"198"},{"arcs":[[-383,-475,-573,576,-476]],"type":"Polygon","properties":{"codigo":"199","nome":"Osasco","municipio_nome":"Osasco"},"id":"199"},{"arcs":[[-477,-577,-572,-576,577,578,579,580,-481]],"type":"Polygon","properties":{"codigo":"200","nome":"Osasco","municipio_nome":"Osasco"},"id":"200"},{"arcs":[[-482,-581,581,582,583,584]],"type":"Polygon","properties":{"codigo":"201","nome":"Jaraguá","municipio_nome":"São Paulo"},"id":"201"},{"arcs":[[-484,-585,585,586,-492,-490]],"type":"Polygon","properties":{"codigo":"202","nome":"Jaraguá","municipio_nome":"São Paulo"},"id":"202"},{"arcs":[[-493,-587,587,588,589,590]],"type":"Polygon","properties":{"codigo":"203","nome":"Caieiras","municipio_nome":"Caieiras"},"id":"203"},{"arcs":[[-498,591,592,593,-500]],"type":"Polygon","properties":{"codigo":"204","nome":"Arujá","municipio_nome":"Arujá"},"id":"204"},{"arcs":[[-501,-594,594,595,596,597,-504]],"type":"Polygon","properties":{"codigo":"205","nome":"Itaquaquecetuba","municipio_nome":"Itaquaquecetuba"},"id":"205"},{"arcs":[[-505,-598,598,599]],"type":"Polygon","properties":{"codigo":"206","nome":"São Miguel Paulista","municipio_nome":"São Paulo"},"id":"206"},{"arcs":[[-506,-600,-521,-519,-515,-510]],"type":"Polygon","properties":{"codigo":"207","nome":"São Miguel Paulista","municipio_nome":"São Paulo"},"id":"207"},{"arcs":[[-522,-599,600,601]],"type":"Polygon","properties":{"codigo":"208","nome":"Ferraz de Vasconcel","municipio_nome":"Ferraz de Vasconcelos"},"id":"208"},{"arcs":[[-597,602,603,-601]],"type":"Polygon","properties":{"codigo":"209","nome":"Poá","municipio_nome":"Poá"},"id":"209"},{"arcs":[[-604,604,605,606]],"type":"Polygon","properties":{"codigo":"210","nome":"Poá","municipio_nome":"Poá"},"id":"210"},{"arcs":[[-523,-602,-607,607,-525]],"type":"Polygon","properties":{"codigo":"211","nome":"Ferraz de Vasconcel","municipio_nome":"Ferraz de Vasconcelos"},"id":"211"},{"arcs":[[-526,608,609,610]],"type":"Polygon","properties":{"codigo":"212","nome":"Ribeirão Pires","municipio_nome":"Ribeirão Pires"},"id":"212"},{"arcs":[[-529,-611,611,612,613]],"type":"Polygon","properties":{"codigo":"213","nome":"Ribeirão Pires","municipio_nome":"Ribeirão Pires"},"id":"213"},{"arcs":[[-530,-614,614,615,616,-534,-532]],"type":"Polygon","properties":{"codigo":"214","nome":"Santo André","municipio_nome":"Santo André"},"id":"214"},{"arcs":[[-535,-617,617,618,-539,-537]],"type":"Polygon","properties":{"codigo":"215","nome":"São Bernardo do Cam","municipio_nome":"São Bernardo"},"id":"215"},{"arcs":[[-616,619,620,-618]],"type":"Polygon","properties":{"codigo":"216","nome":"São Bernardo do Cam","municipio_nome":"São Bernardo"},"id":"216"},{"arcs":[[-454,-540,-619,621]],"type":"Polygon","properties":{"codigo":"217","nome":"São Bernardo do Cam","municipio_nome":"São Bernardo"},"id":"217"},{"arcs":[[-541,-622,-621,622,623]],"type":"Polygon","properties":{"codigo":"218","nome":"São Bernardo do Cam","municipio_nome":"São Bernardo"},"id":"218"},{"arcs":[[-542,-624,624,625,626,-552,627,-544]],"type":"Polygon","properties":{"codigo":"219","nome":"Parelheiros","municipio_nome":"São Paulo"},"id":"219"},{"arcs":[[-545,-628,-551,-547]],"type":"Polygon","properties":{"codigo":"220","nome":"Socorro","municipio_nome":"São Paulo"},"id":"220"},{"arcs":[[-626,628,629]],"type":"Polygon","properties":{"codigo":"221","nome":"Embu-Guaçu","municipio_nome":"Embu Guaçu"},"id":"221"},{"arcs":[[-553,-627,-630,630,631,-555]],"type":"Polygon","properties":{"codigo":"222","nome":"Itapecerica da Serr","municipio_nome":"Itapecerica da Serra"},"id":"222"},{"arcs":[[-556,-632,632,633,-560]],"type":"Polygon","properties":{"codigo":"223","nome":"Embu","municipio_nome":"Embu"},"id":"223"},{"arcs":[[-561,-634,634,635,636,637,-565]],"type":"Polygon","properties":{"codigo":"224","nome":"Cotia","municipio_nome":"Cotia"},"id":"224"},{"arcs":[[-566,-638,638,639,-574]],"type":"Polygon","properties":{"codigo":"225","nome":"Carapicuiba","municipio_nome":"Carapicuiba"},"id":"225"},{"arcs":[[-575,-640,640,-578]],"type":"Polygon","properties":{"codigo":"226","nome":"Carapicuiba","municipio_nome":"Carapicuiba"},"id":"226"},{"arcs":[[-579,-641,641,642]],"type":"Polygon","properties":{"codigo":"227","nome":"Barueri","municipio_nome":"Barueri"},"id":"227"},{"arcs":[[-637,643,644,-642,-639]],"type":"Polygon","properties":{"codigo":"228","nome":"Jandira","municipio_nome":"Jandira"},"id":"228"},{"arcs":[[-636,645,646,-644]],"type":"Polygon","properties":{"codigo":"229","nome":"Itapevi","municipio_nome":"Itapeví"},"id":"229"},{"arcs":[[-580,-643,-645,-647,647,-582]],"type":"Polygon","properties":{"codigo":"230","nome":"Barueri","municipio_nome":"Barueri"},"id":"230"},{"arcs":[[-584,648,649,650]],"type":"Polygon","properties":{"codigo":"231","nome":"Perus","municipio_nome":"São Paulo"},"id":"231"},{"arcs":[[-589,-650,651,652]],"type":"Polygon","properties":{"codigo":"232","nome":"Caieiras","municipio_nome":"Caieiras"},"id":"232"},{"arcs":[[-586,-651,-588]],"type":"Polygon","properties":{"codigo":"233","nome":"Perus","municipio_nome":"São Paulo"},"id":"233"},{"arcs":[[-590,-653,653]],"type":"Polygon","properties":{"codigo":"234","nome":"Franco da Rocha","municipio_nome":"Franco da Rocha"},"id":"234"},{"arcs":[[-593,654,655,656,657,658,659,-595]],"type":"Polygon","properties":{"codigo":"235","nome":"Mogi das Cruzes","municipio_nome":"Mogi das Cruzes"},"id":"235"},{"arcs":[[-656,660,661]],"type":"Polygon","properties":{"codigo":"236","nome":"Mogi das Cruzes","municipio_nome":"Mogi das Cruzes"},"id":"236"},{"arcs":[[-657,-662,662,663]],"type":"Polygon","properties":{"codigo":"237","nome":"Mogi das Cruzes","municipio_nome":"Mogi das Cruzes"},"id":"237"},{"arcs":[[-658,-664,664,665]],"type":"Polygon","properties":{"codigo":"238","nome":"Mogi das Cruzes","municipio_nome":"Mogi das Cruzes"},"id":"238"},{"arcs":[[-659,-666,666,667]],"type":"Polygon","properties":{"codigo":"239","nome":"Mogi das Cruzes","municipio_nome":"Mogi das Cruzes"},"id":"239"},{"arcs":[[-596,-660,-668,668,669,-605,-603]],"type":"Polygon","properties":{"codigo":"240","nome":"Suzano","municipio_nome":"Suzano"},"id":"240"},{"arcs":[[-606,-670,670,671,-609,-608]],"type":"Polygon","properties":{"codigo":"241","nome":"Suzano","municipio_nome":"Suzano"},"id":"241"},{"arcs":[[-610,-672,672,-612]],"type":"Polygon","properties":{"codigo":"242","nome":"Rio Grande da Serra","municipio_nome":"Rio Grande da Serra"},"id":"242"},{"arcs":[[-173,-236,-322,-323,-237]],"type":"Polygon","properties":{"codigo":"243","nome":"Vila Formosa","municipio_nome":"São Paulo"},"id":"243"}]}}}