{"type":"Topology","arcs":[[[3973,5468],[-17,-44]],[[3956,5424],[2,-55],[28,-57]],[[3986,5312],[-6,-11]],[[3980,5301],[-71,8]],[[3909,5309],[-50,17]],[[3859,5326],[-13,26]],[[3846,5352],[31,64]],[[3877,5416],[26,37],[70,15]],[[3973,5468],[8,20]],[[3981,5488],[58,-25],[29,-32]],[[4068,5431],[-87,-18],[-25,11]],[[4068,5431],[3,-4]],[[4071,5427],[18,-31]],[[4089,5396],[29,-47]],[[4118,5349],[-47,-29],[-72,7],[-5,-26]],[[3994,5301],[-8,11]],[[4118,5349],[40,-48],[42,-107]],[[4200,5194],[23,-50]],[[4223,5144],[-61,4]],[[4162,5148],[-57,93],[-86,34]],[[4019,5275],[-25,26]],[[4019,5275],[-12,-70],[-31,-32],[-49,-10]],[[3927,5163],[-2,57]],[[3925,5220],[26,47]],[[3951,5267],[29,34]],[[3951,5267],[-40,-4]],[[3911,5263],[-2,46]],[[3911,5263],[-61,8]],[[3850,5271],[-9,1]],[[3841,5272],[18,54]],[[3841,5272],[-52,-66]],[[3789,5206],[-16,-18]],[[3773,5188],[-22,-26],[-44,43],[27,19],[-18,51]],[[3716,5275],[-9,31]],[[3707,5306],[43,-2],[64,29]],[[3814,5333],[32,19]],[[3814,5333],[-10,79],[30,29]],[[3834,5441],[43,-25]],[[3834,5441],[-66,29]],[[3768,5470],[70,47]],[[3838,5517],[32,0]],[[3870,5517],[111,-29]],[[3981,5488],[14,37]],[[3995,5525],[99,-13]],[[4094,5512],[18,-62]],[[4112,5450],[-41,-23]],[[4094,5512],[68,57]],[[4162,5569],[53,-44],[-11,-51]],[[4204,5474],[-62,-6],[-30,-18]],[[4204,5474],[8,-35],[41,-36]],[[4253,5403],[-38,-8]],[[4215,5395],[-87,-20],[-39,21]],[[4215,5395],[84,-119],[19,-5]],[[4318,5271],[-11,-37],[-107,-40]],[[4318,5271],[140,-66],[-6,-79]],[[4452,5126],[-60,6],[-60,-78],[29,-80]],[[4361,4974],[-64,3]],[[4297,4977],[-74,167]],[[4162,5148],[-84,10],[-15,-47],[-54,-3]],[[4009,5108],[-33,16]],[[3976,5124],[-49,39]],[[3976,5124],[-21,-40],[-66,-37],[-29,-40]],[[3860,5007],[-16,58]],[[3844,5065],[8,77],[28,36]],[[3880,5178],[45,42]],[[3880,5178],[-45,15]],[[3835,5193],[15,78]],[[3835,5193],[-46,13]],[[3844,5065],[-24,6]],[[3820,5071],[15,122]],[[3820,5071],[-32,24]],[[3788,5095],[-15,93]],[[3788,5095],[-47,37],[-21,-14]],[[3720,5118],[-76,68]],[[3644,5186],[72,89]],[[3644,5186],[-83,73]],[[3561,5259],[14,7]],[[3575,5266],[112,77]],[[3687,5343],[20,-37]],[[3687,5343],[19,53]],[[3706,5396],[11,43],[51,31]],[[3706,5396],[-47,21]],[[3659,5417],[28,99]],[[3687,5516],[81,-46]],[[3687,5516],[10,25],[68,46],[23,0]],[[3788,5587],[50,-70]],[[3788,5587],[77,59],[59,-35]],[[3924,5611],[-17,-6],[-37,-88]],[[3924,5611],[18,98]],[[3942,5709],[53,-4]],[[3995,5705],[-5,-75]],[[3990,5630],[5,-105]],[[3990,5630],[48,1],[42,-42],[35,4],[47,-24]],[[3995,5705],[80,3],[64,-43],[64,0],[46,-14]],[[4249,5651],[-49,-35],[-38,-47]],[[4249,5651],[50,-45]],[[4299,5606],[61,-27]],[[4360,5579],[31,6]],[[4391,5585],[50,-27],[9,-37]],[[4450,5521],[-246,-47]],[[4450,5521],[24,-69]],[[4474,5452],[-221,-49]],[[4474,5452],[1,-27]],[[4475,5425],[-90,-73],[-67,-81]],[[4475,5425],[37,-135],[100,-46]],[[4612,5244],[24,-37]],[[4636,5207],[-43,-46],[3,-85]],[[4596,5076],[-44,7],[-47,-25],[-44,24],[-9,44]],[[4596,5076],[58,-8]],[[4654,5068],[-38,-106]],[[4616,4962],[-85,-7]],[[4531,4955],[-100,-3],[-12,28],[-58,-6]],[[4297,4977],[41,-73]],[[4338,4904],[-215,-20],[-53,51]],[[4070,4935],[10,16]],[[4080,4951],[32,22]],[[4112,4973],[53,39],[18,58],[-21,78]],[[4112,4973],[-73,73],[-41,8]],[[3998,5054],[11,54]],[[4080,4951],[-84,7],[-12,31]],[[3984,4989],[23,26],[-9,39]],[[3984,4989],[-58,24],[-66,-6]],[[4070,4935],[-26,-87]],[[4044,4848],[-40,-34],[-38,10],[-73,56]],[[3893,4880],[-18,68],[-57,99],[3,21]],[[3821,5068],[-1,3]],[[3821,5068],[-113,-97]],[[3708,4971],[-26,42],[42,27],[3,38],[-30,19]],[[3697,5097],[23,21]],[[3697,5097],[-58,-61],[-62,-46],[7,-28],[-18,-125],[4,-19]],[[3570,4818],[-91,-2]],[[3479,4816],[2,45],[28,94],[-19,70],[-33,58]],[[3457,5083],[63,68]],[[3520,5151],[46,-43],[78,78]],[[3520,5151],[-65,43]],[[3455,5194],[106,65]],[[3575,5266],[-124,55]],[[3451,5321],[53,11],[11,44],[40,31],[16,41]],[[3571,5448],[33,3],[55,-34]],[[3571,5448],[34,99]],[[3605,5547],[27,3],[55,-34]],[[3605,5547],[-12,41],[20,34]],[[3613,5622],[83,-25],[86,1]],[[3782,5598],[6,-11]],[[3782,5598],[6,27],[-50,101]],[[3738,5726],[10,0]],[[3748,5726],[194,-17]],[[3748,5726],[7,111],[58,27],[22,-15]],[[3835,5849],[46,33],[129,-8]],[[4010,5874],[-1,-26]],[[4009,5848],[-12,-19],[-2,-124]],[[4009,5848],[53,45],[39,14]],[[4101,5907],[217,-106]],[[4318,5801],[0,-94],[-19,-101]],[[4318,5801],[-16,48]],[[4302,5849],[40,-15],[114,-78],[18,-31]],[[4474,5725],[-114,-146]],[[4474,5725],[140,151]],[[4614,5876],[59,43]],[[4673,5919],[30,-76],[38,-26]],[[4741,5817],[-12,-35],[7,-87]],[[4736,5695],[-42,-39]],[[4694,5656],[-66,-10],[-51,-26]],[[4577,5620],[-65,4],[-121,-39]],[[4577,5620],[15,-96],[17,-44]],[[4609,5480],[-28,-8]],[[4581,5472],[-107,-20]],[[4581,5472],[29,-154],[2,-74]],[[4636,5207],[35,-17]],[[4671,5190],[56,-30],[112,-94],[-15,-41]],[[4824,5025],[-170,43]],[[4824,5025],[96,-26]],[[4920,4999],[56,-56]],[[4976,4943],[22,-50]],[[4998,4893],[-3,-27],[-54,-107]],[[4941,4759],[-80,91],[-22,12]],[[4839,4862],[-118,66],[-14,41],[-51,9],[-40,-16]],[[4839,4862],[-41,-50],[-5,-37],[31,-87]],[[4824,4688],[-24,5],[-63,-69],[-21,-1],[-187,132]],[[4529,4755],[7,49],[52,5],[26,29],[-83,117]],[[4529,4755],[-47,-17]],[[4482,4738],[-108,119]],[[4374,4857],[-36,47]],[[4374,4857],[-54,-39],[-18,-41],[-45,-28],[-49,-60],[-19,-72]],[[4189,4617],[-32,39],[-43,15],[-8,75]],[[4106,4746],[-9,52],[-53,50]],[[4106,4746],[-29,3],[-16,-55],[-74,34]],[[3987,4728],[-197,5],[-66,-4]],[[3724,4729],[-9,12]],[[3715,4741],[7,104]],[[3722,4845],[84,-14],[69,19],[18,30]],[[3722,4845],[-33,95],[19,31]],[[3722,4845],[-24,16],[-128,-43]],[[3479,4816],[-3,-66],[-36,-89]],[[3440,4661],[-49,69],[-102,68],[-37,39]],[[3252,4837],[22,82]],[[3274,4919],[22,-3],[92,102]],[[3388,5018],[69,65]],[[3388,5018],[-4,30],[-40,16],[-28,50]],[[3316,5114],[92,53]],[[3408,5167],[47,27]],[[3408,5167],[-46,70]],[[3362,5237],[-24,129]],[[3338,5366],[113,-45]],[[3338,5366],[40,79],[47,69]],[[3425,5514],[110,-76],[36,10]],[[3425,5514],[-71,51],[-28,54]],[[3326,5619],[51,-8],[24,35]],[[3401,5646],[31,-10],[181,-14]],[[3401,5646],[10,24],[2,102]],[[3413,5772],[91,-14]],[[3504,5758],[234,-32]],[[3504,5758],[3,82],[79,100]],[[3586,5940],[52,-41],[79,-2],[15,25],[57,6]],[[3789,5928],[46,-79]],[[3789,5928],[-9,33]],[[3780,5961],[68,-11],[67,55],[34,-39],[64,-30]],[[4013,5936],[-3,-62]],[[4013,5936],[5,28],[-35,45]],[[3983,6009],[64,62],[32,6]],[[4079,6077],[49,3]],[[4128,6080],[10,-72]],[[4138,6008],[-37,-101]],[[4138,6008],[152,-1]],[[4290,6007],[-7,-37],[65,-50]],[[4348,5920],[-46,-71]],[[4348,5920],[100,65]],[[4448,5985],[61,-11],[105,-98]],[[4694,5656],[23,-54],[46,-23],[58,-56]],[[4821,5523],[-107,-22]],[[4714,5501],[-105,-21]],[[4714,5501],[33,-130],[87,-12],[-17,-37],[6,-42]],[[4823,5280],[-28,-41]],[[4795,5239],[-30,41],[-59,8],[14,-46],[-10,-34],[-39,-18]],[[4795,5239],[100,-118]],[[4895,5121],[-20,-86],[45,-36]],[[4976,4943],[21,14],[64,-23]],[[5061,4934],[47,7],[62,-32],[148,-56],[69,15]],[[5387,4868],[12,-71],[-69,-59],[-10,-130]],[[5320,4608],[-123,173],[-99,19],[-100,93]],[[5320,4608],[-4,-136]],[[5316,4472],[-53,-5],[-44,33],[-17,35],[-108,64]],[[5094,4599],[-24,32],[32,56],[-34,24],[-127,48]],[[5094,4599],[-127,-7],[-143,96]],[[5094,4599],[-22,-104],[-50,-165]],[[5022,4330],[-66,-16]],[[4956,4314],[-9,-3]],[[4947,4311],[-102,188],[-55,68]],[[4790,4567],[63,8],[-29,113]],[[4790,4567],[-75,-30],[-16,23],[-77,3]],[[4622,4563],[-155,4]],[[4467,4567],[7,57]],[[4474,4624],[8,114]],[[4474,4624],[-73,18],[-39,22],[-40,-40],[-32,-59],[-42,0],[-2,-42]],[[4246,4523],[-51,47],[-6,47]],[[4246,4523],[7,-15]],[[4253,4508],[-41,-25],[-168,-23]],[[4044,4460],[-60,17],[5,26]],[[3989,4503],[-24,166],[22,59]],[[3989,4503],[-40,-3],[-70,17],[-79,38]],[[3800,4555],[-19,73],[-57,101]],[[3800,4555],[7,-78],[-99,-33]],[[3708,4444],[-41,68],[-70,25]],[[3597,4537],[6,23]],[[3603,4560],[111,138],[1,43]],[[3603,4560],[-48,16],[-85,51],[-30,34]],[[3274,4919],[-33,78],[-36,49]],[[3205,5046],[111,68]],[[3205,5046],[-45,55],[-25,76]],[[3135,5177],[75,82]],[[3210,5259],[53,-46],[38,-15],[61,39]],[[3210,5259],[52,98],[-3,55]],[[3259,5412],[79,-46]],[[3259,5412],[-41,42]],[[3218,5454],[-2,26],[84,109]],[[3300,5589],[26,30]],[[3300,5589],[-143,6],[-61,17],[-45,-63]],[[3051,5549],[-9,90],[18,47]],[[3060,5686],[73,39]],[[3133,5725],[108,-50],[105,-1],[55,-28]],[[3133,5725],[-73,51],[-22,58]],[[3038,5834],[92,-10],[67,11],[133,-17]],[[3330,5818],[83,-46]],[[3330,5818],[15,58],[-9,45],[23,37]],[[3359,5958],[180,70]],[[3539,6028],[11,-59],[36,-29]],[[3586,5940],[100,109],[37,-2]],[[3723,6047],[57,-86]],[[3723,6047],[-15,26]],[[3708,6073],[86,98],[112,58],[34,1]],[[3940,6230],[-24,-44],[8,-65],[55,-49],[4,-63]],[[3940,6230],[-5,74]],[[3935,6304],[60,-47],[81,-7],[-47,-117],[50,-56]],[[3935,6304],[-20,30],[-42,-11],[-41,48],[-46,22]],[[3786,6393],[87,2],[62,-12],[74,8],[10,21],[58,9],[164,-19],[0,18],[117,14],[75,-23]],[[4433,6411],[-45,-70],[-26,8],[-29,-53]],[[4333,6296],[-30,-9],[-35,-82],[-34,-39],[-54,-8],[-25,-58],[-27,-20]],[[4333,6296],[20,-15],[66,15],[6,-31],[49,-44],[32,-3]],[[4506,6218],[-144,-105],[-72,-106]],[[4506,6218],[19,-39]],[[4525,6179],[36,-89],[-113,-105]],[[4525,6179],[133,62],[30,-41]],[[4688,6200],[-10,-75],[5,-66],[15,-25],[-22,-58],[-3,-57]],[[4688,6200],[67,-13],[81,-48],[15,-34],[100,41],[1,24],[59,100]],[[5011,6270],[95,7],[66,14]],[[5172,6291],[48,34],[116,35],[42,38],[56,14]],[[5434,6412],[0,-34],[34,-56],[14,-103],[33,-50]],[[5515,6169],[-43,-30]],[[5472,6139],[-3,10],[-138,48],[-72,-28],[-1,72],[-16,13],[-58,-22],[-48,-55],[-58,-4]],[[5078,6173],[-20,-43],[-42,-41]],[[5016,6089],[-123,-96],[7,-30],[-54,-28],[0,-65],[-31,-19],[-31,17],[-43,-51]],[[5016,6089],[-80,-159],[61,-166]],[[4997,5764],[-34,-9],[-78,10]],[[4885,5765],[-44,-55],[-105,-15]],[[4885,5765],[29,-219]],[[4914,5546],[-93,-23]],[[4821,5523],[20,-39],[47,-24],[66,-15],[53,-31]],[[5007,5414],[-39,-49],[-18,-78]],[[4950,5287],[-58,27],[-69,-34]],[[4950,5287],[-31,-53],[44,-7],[69,-36],[40,75],[44,-27],[-23,-95],[69,23]],[[5162,5167],[-19,-37],[-20,-93]],[[5123,5037],[-65,4],[-163,80]],[[5061,4934],[62,103]],[[5162,5167],[34,65]],[[5196,5232],[44,-40],[51,-72],[0,-44],[46,-57],[81,-31]],[[5418,4988],[-7,-84]],[[5411,4904],[-24,-36]],[[5316,4472],[-19,-27],[-78,6],[-4,-82],[-87,-63]],[[5128,4306],[-106,24]],[[4947,4311],[-21,-14],[26,-55],[-74,-43]],[[4878,4199],[-22,37],[-37,-26],[-34,83]],[[4785,4293],[23,151]],[[4808,4444],[13,61],[-31,62]],[[4785,4293],[-36,-44],[-59,6],[-46,-32],[-25,-41]],[[4619,4182],[27,177],[-23,88]],[[4623,4447],[101,9],[19,-38],[65,26]],[[4623,4447],[-1,116]],[[4619,4182],[-78,-5],[-97,104]],[[4444,4281],[-15,79],[27,29],[9,44],[-20,24],[22,110]],[[4444,4281],[-116,67],[-6,104],[-12,24],[-57,32]],[[4444,4281],[-23,-49],[-59,-44],[-129,-74],[-31,0],[-39,-32],[-50,-18],[-21,20]],[[4092,4084],[26,41],[-7,40],[22,89],[-9,64],[-79,43]],[[4045,4361],[-1,99]],[[4092,4084],[-26,0],[-52,-41],[-30,29],[-13,-82]],[[3971,3990],[-11,-48],[-27,-23],[3,-83],[-27,-21],[-10,-73]],[[3899,3742],[-33,52],[-45,132],[-45,58],[-189,92]],[[3587,4076],[97,23],[21,-26],[42,43],[16,70],[57,15],[9,22]],[[3829,4223],[9,-52],[63,-27],[28,84],[8,86],[39,32],[69,15]],[[3829,4223],[-6,134]],[[3823,4357],[-90,60],[-25,27]],[[3823,4357],[-183,-63],[-37,48],[-119,-94]],[[3484,4248],[-11,47],[47,59],[5,54],[81,42],[-9,87]],[[3484,4248],[-48,60]],[[3436,4308],[-15,34],[-48,32],[-70,-18],[-32,22]],[[3271,4378],[157,238],[12,45]],[[3271,4378],[-76,70],[39,39],[14,43],[-69,20]],[[3179,4550],[16,103],[43,126]],[[3238,4779],[14,58]],[[3179,4550],[-30,-46]],[[3149,4504],[-21,34],[-33,-7],[-35,25],[-22,44],[-29,3],[-36,-33]],[[2973,4570],[4,74],[-21,64],[36,32],[-15,42]],[[2977,4782],[29,40],[29,-12],[31,-47],[172,16]],[[2977,4782],[-32,110],[-40,12],[-23,32],[-5,49]],[[2877,4985],[1,66],[45,35]],[[2923,5086],[134,67],[-2,89]],[[3055,5242],[42,-21],[38,-44]],[[2923,5086],[-32,43],[-114,-49],[-29,39],[39,23],[-107,99]],[[2680,5241],[47,7],[104,57],[13,52]],[[2844,5357],[134,-77]],[[2978,5280],[77,-38]],[[2978,5280],[109,173],[43,11]],[[3130,5464],[-27,-105],[51,-36],[56,-64]],[[3130,5464],[52,-17],[36,7]],[[3130,5464],[-42,40],[-50,11]],[[3038,5515],[13,34]],[[3051,5549],[-100,25],[-56,35],[-17,53],[-44,25]],[[2834,5687],[20,11],[147,7],[59,-19]],[[2844,5357],[-26,31]],[[2818,5388],[89,94],[131,33]],[[2818,5388],[-166,156]],[[2652,5544],[119,75],[63,68]],[[2652,5544],[-8,51],[-58,37]],[[2586,5632],[67,-3],[33,59]],[[2686,5688],[29,28],[123,7],[86,46]],[[2924,5769],[44,55]],[[2968,5824],[70,10]],[[3038,5834],[12,19]],[[3050,5853],[18,19],[11,64],[39,-3],[-29,71]],[[3089,6004],[80,62],[91,-6],[22,40],[65,-19],[8,-41]],[[3355,6040],[4,-82]],[[3355,6040],[87,110],[37,4]],[[3479,6154],[115,-28]],[[3594,6126],[-52,-46],[-3,-52]],[[3594,6126],[21,-31],[59,36]],[[3674,6131],[34,-58]],[[3674,6131],[-68,24],[-20,46],[141,41],[-49,87],[-61,35],[-43,-16],[-44,-55]],[[3530,6293],[-14,21]],[[3516,6314],[-55,103],[7,58],[-13,29],[33,70],[-41,16],[37,48],[22,0],[160,92]],[[3666,6730],[47,-53],[-3,-147],[-8,-75],[42,-48],[42,-14]],[[3666,6730],[181,39],[53,-15],[91,68],[38,16],[-3,33],[103,25],[-19,41],[31,29],[-6,38],[26,59],[55,68],[56,12],[3,42],[-21,35],[81,40],[59,53],[74,44],[20,38],[107,-24],[49,55],[37,18],[80,82],[40,64],[82,-22],[69,-62],[-17,-69],[-82,-77],[5,-84],[-12,-32]],[[4846,7244],[-84,-80],[-39,-58],[-26,-13],[37,-49],[-4,-66],[-103,-62],[-18,-46],[21,-98],[-21,-69],[30,-42],[-15,-111]],[[4624,6550],[-38,-84],[-2,-66]],[[4584,6400],[-81,-25],[-12,35],[-58,1]],[[4584,6400],[45,-109],[38,-32],[21,-59]],[[4624,6550],[72,-19],[54,29],[65,-48],[77,-8],[43,44],[27,-22],[22,-74],[56,-69],[8,-34]],[[5048,6349],[-33,-25],[-46,-1],[6,-51],[36,-2]],[[5048,6349],[69,65],[40,-73],[15,-50]],[[5472,6139],[-24,-44],[75,-4],[26,-171],[-59,-79]],[[5490,5841],[-10,-1]],[[5480,5840],[-82,10],[-54,-9],[-21,36]],[[5323,5877],[-2,44],[-48,11],[-195,241]],[[5323,5877],[-220,-16],[6,-98]],[[5109,5763],[-31,10],[-81,-9]],[[5480,5840],[-6,-92],[-49,5],[-48,-71]],[[5377,5682],[-178,20]],[[5199,5702],[-90,61]],[[5377,5682],[98,-173]],[[5475,5509],[-91,11],[-118,82],[-78,-5],[-32,-15]],[[5156,5582],[-51,73],[38,8],[56,39]],[[5156,5582],[-53,-23]],[[5103,5559],[-100,0],[-89,-13]],[[5475,5509],[51,-66]],[[5526,5443],[48,-75],[-10,-50],[-43,-23]],[[5521,5295],[-45,-13],[-47,18],[-16,31],[-103,46]],[[5310,5377],[-70,34],[-102,86],[-35,62]],[[5310,5377],[-90,-39],[-29,-49],[-35,-3]],[[5156,5286],[-77,60],[-72,68]],[[5156,5286],[40,-54]],[[5521,5295],[58,-28],[-2,-33],[36,-32],[0,-49],[-23,-27],[-56,-1],[-39,-96],[-51,-46],[-26,5]],[[5526,5443],[-5,26],[57,13],[39,29]],[[5617,5511],[52,20],[28,80],[27,43],[91,57]],[[5815,5711],[-54,-99],[54,-83],[-81,-170],[36,-33],[93,-56],[56,-2]],[[5919,5268],[-10,-164],[51,-119]],[[5960,4985],[-3,-103],[-26,-55],[-28,-1]],[[5903,4826],[-91,-22],[-42,-20],[-140,2],[-59,45],[-67,5],[-41,50],[-52,18]],[[5903,4826],[34,-21],[-7,-33],[27,-103],[29,-65],[-20,-28],[-2,-65],[-38,-38],[41,-25],[5,-69],[-42,-46],[-51,-6],[-44,-50]],[[5835,4277],[-56,1],[-66,39],[-81,-3],[-29,59],[-17,80],[-62,33]],[[5524,4486],[-122,-16],[-86,2]],[[5524,4486],[-9,-75],[-30,-110],[45,-106],[-111,-30],[-31,-56],[-41,-20],[20,-30]],[[5367,4059],[-23,-7],[-127,29]],[[5217,4081],[9,70],[-6,83],[-46,-21],[-83,37],[37,56]],[[5217,4081],[-172,84],[-89,149]],[[5217,4081],[-7,-50],[-97,-43],[-12,6]],[[5101,3994],[-27,-13],[-87,67],[-58,9]],[[4929,4057],[-53,47],[2,95]],[[4929,4057],[-65,-106],[-49,-27],[-48,34]],[[4767,3958],[-20,50],[-94,150],[-34,24]],[[4767,3958],[-156,-25],[-19,-50]],[[4592,3883],[-15,42]],[[4577,3925],[-70,212],[-63,144]],[[4577,3925],[-69,-2]],[[4508,3923],[-92,-15],[-58,-40],[-91,73],[35,81],[-50,11],[-87,-79],[-41,36],[-32,94]],[[4508,3923],[-37,-65],[13,-153],[-94,-79],[-30,-80]],[[4360,3546],[0,-32],[-92,-63],[-10,-41],[-48,-33],[-12,-81],[12,-67]],[[4210,3229],[-25,72],[40,174],[17,123],[-17,94],[-52,90],[-34,79],[-29,9],[-139,120]],[[3587,4076],[-61,69],[-42,103]],[[3587,4076],[7,-43],[76,-47],[-26,-55],[31,-43],[-18,-26],[-92,49]],[[3565,3911],[-54,40],[-123,75],[-79,-4],[-39,11],[16,92]],[[3286,4125],[33,58],[-19,33],[16,29],[63,43],[57,20]],[[3286,4125],[-17,-3]],[[3269,4122],[-37,-2],[-37,52],[-84,55],[-209,25]],[[2902,4252],[8,29],[141,175],[98,48]],[[2902,4252],[14,-74],[58,-74]],[[2974,4104],[-35,-1],[-91,47],[-47,-4]],[[2801,4146],[-100,5],[-26,53],[-153,-6],[-45,108],[-39,64],[-80,-1]],[[2358,4369],[10,33],[74,40],[70,97]],[[2512,4539],[43,-35],[20,-69],[76,-29],[59,12],[11,34],[60,45],[41,-14],[59,63],[34,19],[58,5]],[[2512,4539],[34,54],[79,44],[25,78],[-9,24],[-54,20],[-52,64]],[[2535,4823],[-42,28],[-15,49],[-53,60]],[[2425,4960],[58,-28],[125,-16],[97,19],[84,6],[88,44]],[[2425,4960],[17,45],[-43,5],[-40,92]],[[2359,5102],[44,8],[19,62],[34,26],[28,-18],[72,128],[3,52]],[[2559,5360],[31,-80],[49,9],[41,-48]],[[2559,5360],[-18,71],[14,42],[-18,31],[7,73]],[[2544,5577],[42,55]],[[2686,5688],[-50,-1],[-14,35],[-45,15],[-58,96]],[[2519,5833],[-12,30],[27,47],[46,21],[17,33]],[[2597,5964],[28,-51]],[[2625,5913],[58,-74],[179,-17],[62,-53]],[[2625,5913],[107,182],[-2,-59],[-17,-53],[182,-63],[73,-96]],[[2597,5964],[-10,22],[-92,28],[-59,118],[15,80],[-66,44],[3,84],[61,65]],[[2449,6405],[48,-83],[145,16],[35,-8],[37,-48]],[[2714,6282],[318,-346],[18,-83]],[[2714,6282],[72,52],[-15,21],[270,64]],[[3041,6419],[-2,-54]],[[3039,6365],[-77,-56],[-1,-43],[28,-41],[13,-100],[16,-37],[62,-33],[9,-51]],[[3039,6365],[76,-121],[27,-3],[25,-78],[191,7],[160,36]],[[3518,6206],[-39,-52]],[[3530,6293],[-12,-87]],[[3041,6419],[37,55],[63,16],[52,-5],[38,-33]],[[3231,6452],[50,-21],[27,-35],[51,-5],[47,-45],[10,-36],[48,-19],[52,23]],[[3231,6452],[15,125],[40,105],[-17,49],[-7,83]],[[3262,6814],[70,-42],[23,60],[-10,20],[90,58],[56,-48],[30,8]],[[3521,6870],[54,-63],[56,-31],[35,-46]],[[4846,7244],[47,-48],[45,-68],[39,-21],[-13,-34],[32,-27],[40,45],[61,20],[34,37],[52,-1],[3,-35],[52,-61],[26,-5],[98,92],[27,52],[47,-27],[30,13],[47,-14],[1,-29]],[[5514,7133],[9,-46],[-34,-49],[15,-47],[-34,-125],[-52,-67],[-32,-176],[0,-51],[51,-127],[-3,-33]],[[5514,7133],[92,-10],[369,149],[425,154],[23,-42],[25,-136],[25,-34],[69,100],[61,-5],[93,39],[38,-1]],[[6734,7347],[3,-75],[-14,-69],[-58,-23],[-13,-115],[41,-42],[0,-48],[34,-40],[-4,-39]],[[6723,6896],[-44,-8],[-252,-79],[-93,-26],[-140,8],[-60,18],[-118,-52],[-80,-45],[-146,-16],[-101,-43],[-52,-122],[-127,-47],[-28,-52],[-48,-20]],[[6723,6896],[40,-68],[6,-88],[82,-97]],[[6851,6643],[-46,32],[-37,-23],[-30,31],[-69,29],[-30,-27],[-32,11],[-53,-53],[40,-27],[-7,-48],[-44,-4],[-11,-37],[-80,-11],[37,-55],[2,-85],[35,-44],[34,-113]],[[6560,6219],[3,-52],[-23,-35],[-43,15],[-47,-39],[-36,10],[-20,-37],[-51,29],[12,78],[-51,33],[-22,47],[-103,-30],[-56,12],[-34,-18],[-11,-52],[-46,28],[-39,-50],[-20,-79],[-40,-21],[-105,22],[-13,-47],[-53,2]],[[5762,6035],[-23,46],[31,38],[-23,33],[-48,-12],[-60,9],[-54,48],[-70,-28]],[[6560,6219],[39,22],[48,-104]],[[6647,6137],[-116,-60],[-71,-74],[-104,-13]],[[6356,5990],[-265,30]],[[6091,6020],[-141,15],[-109,-15]],[[5841,6020],[-84,8]],[[5757,6028],[5,7]],[[6091,6020],[22,-88],[-19,-67],[-27,-30],[3,-42]],[[6070,5793],[-56,0],[-26,34],[-50,-25],[-68,-2],[-43,51],[-36,8],[-15,61],[26,23],[39,77]],[[5757,6028],[-51,-73],[-70,-75],[-61,-36]],[[5575,5844],[-85,-3]],[[5617,5511],[4,52],[-46,281]],[[6070,5793],[18,-70],[-5,-94],[8,-66],[21,-30]],[[6112,5533],[-15,-3],[-45,103],[-99,-1],[-30,-25]],[[5923,5607],[-51,48],[-21,57],[-36,-1]],[[5923,5607],[46,-86],[4,-58],[-55,-34],[13,-55],[3,-83],[-15,-23]],[[6112,5533],[47,-33],[15,-44],[78,-27]],[[6252,5429],[21,-4],[-42,-106],[-19,-132],[-51,-53],[-30,-73],[-38,-8],[-39,-56],[-94,-12]],[[6252,5429],[-24,58],[24,108],[2,98],[46,-25],[28,-64],[88,-72],[48,54]],[[6464,5586],[27,-127],[47,-35],[5,-47],[-29,-21],[-53,0],[30,-63]],[[6491,5293],[28,-66],[65,-31],[48,-2],[-44,-74],[2,-25],[48,-62],[-50,-18],[42,-63],[-9,-57],[-38,-95],[3,-45],[-40,-4],[-36,-27],[-28,20],[-64,-46],[47,-82]],[[6465,4616],[-33,-80],[-33,-32],[-58,-18],[-12,-30],[6,-71],[-71,-43],[-6,-34],[-71,-52],[-83,80],[-23,-47],[-111,-19],[-17,-19],[-70,5],[-48,21]],[[6465,4616],[63,0],[50,-32],[9,-27]],[[6587,4557],[-43,-40],[-53,-73],[-19,-108],[-49,-70],[-12,-49],[13,-80],[21,-35],[47,-136],[-12,-42],[-121,-45],[-17,-40],[-34,-11],[-35,-51],[-95,72],[-59,3],[-29,-24],[-11,-56],[-45,-1],[-10,-30],[-65,-61],[-46,-22]],[[5913,3658],[-55,102],[-47,180],[-151,122],[-145,63],[-109,-61]],[[5406,4064],[-39,-5]],[[5913,3658],[-22,-30],[-14,-61],[-117,-41],[-25,-39],[-35,-10],[-23,-53],[-67,-36]],[[5610,3388],[-36,-13],[-65,35],[3,55],[-59,-1],[-27,35],[12,35],[-4,89],[54,52],[0,46],[32,27]],[[5520,3748],[29,74],[-12,98],[-34,27],[-27,60],[-70,57]],[[5520,3748],[-69,8],[-66,33],[-62,-23],[-26,38],[-42,-19],[-90,-6],[-49,7],[-19,23]],[[5097,3809],[-12,58],[16,127]],[[5097,3809],[-77,-15],[-77,-54],[-27,-6]],[[4916,3734],[-59,55],[-58,-10]],[[4799,3779],[-40,12],[-11,42],[19,49],[0,76]],[[4799,3779],[-38,-27],[-58,-1],[-30,-30],[-44,37]],[[4629,3758],[-37,125]],[[4629,3758],[48,-171]],[[4677,3587],[-29,21],[-140,-16],[-27,-43],[-96,-39],[-25,36]],[[4210,3229],[-47,-24],[-23,-42],[-60,-1],[-30,-17],[-48,31],[-64,17],[-38,-14],[-58,55],[-79,-7],[-55,10]],[[3708,3237],[145,52],[124,114]],[[3977,3403],[42,6],[52,44],[12,50],[-79,24],[3,38],[-51,35],[-20,68],[-54,48],[17,26]],[[3977,3403],[-153,-107],[-59,16],[-50,-4],[-3,54],[67,49],[14,49],[-81,-42],[-92,-1],[-43,29],[-15,38],[84,54],[48,21],[7,47],[-98,-57],[-25,79],[-38,3],[-27,-51],[-47,-22]],[[3466,3558],[-148,57],[-53,74]],[[3265,3689],[102,126],[82,-31],[59,-38],[4,52],[24,89],[29,24]],[[3265,3689],[-36,79],[-73,87]],[[3156,3855],[-69,130],[-5,22]],[[3082,4007],[47,45],[53,14],[87,56]],[[3082,4007],[-37,56],[-71,41]],[[3156,3855],[-49,-15],[-113,62],[-86,27],[-1,-825]],[[2907,3104],[-108,2],[-66,-15],[-33,10],[-53,47],[-79,7],[-55,-22],[-23,-34],[-3,-110],[-31,-45]],[[2456,2944],[-19,40],[-66,2],[-22,33],[-116,54],[-10,44],[-62,25],[4,42],[-31,49],[38,49],[36,95],[-13,133],[17,37],[-25,52],[-82,27],[45,30]],[[2150,3656],[34,10],[72,-12],[33,48],[-4,45],[47,2],[41,59],[81,9],[42,67],[31,75],[-2,42],[37,42],[53,-41],[26,40],[84,35],[76,69]],[[2150,3656],[-50,114]],[[2100,3770],[23,49],[-3,36],[49,102],[31,173],[-1,87]],[[2199,4217],[45,65],[114,87]],[[2358,4369],[-31,56],[9,200],[7,32],[-53,62]],[[2290,4719],[90,5],[15,36],[77,2],[54,36],[9,25]],[[2199,4217],[-311,126],[54,26],[41,56],[3,57],[24,39],[-19,61],[17,55]],[[2008,4637],[20,21]],[[2028,4658],[3,-1]],[[2031,4657],[24,-6],[121,35],[59,3],[55,30]],[[2031,4657],[3,46],[-15,60],[40,137],[-7,52],[107,13],[47,58],[39,6],[30,32],[38,-2],[46,43]],[[2028,4658],[-23,45],[-56,17],[-17,68],[38,51],[1,59],[-34,11],[-8,64]],[[1929,4973],[27,144],[-24,45],[2,45],[-23,28],[2,58],[-28,64],[10,18]],[[1895,5375],[219,-120],[79,44]],[[2193,5299],[125,-50],[41,-147]],[[2193,5299],[55,155],[10,121]],[[2258,5575],[74,-77],[79,-22],[63,-33],[85,-83]],[[2258,5575],[-39,60]],[[2219,5635],[30,25]],[[2249,5660],[91,-31],[98,-69],[68,-20],[38,37]],[[1895,5375],[5,9]],[[1900,5384],[-4,40],[29,17],[19,151],[-7,64]],[[1937,5656],[115,6],[53,-28],[114,1]],[[2249,5660],[-2,62],[91,122],[-43,17],[2,36],[109,5],[113,-69]],[[1937,5656],[-10,38]],[[1927,5694],[34,60],[64,32],[0,18]],[[2025,5804],[0,56],[-40,46],[-2,27],[77,102],[8,53],[48,12],[-9,79],[26,12],[-8,67]],[[2125,6258],[32,43],[7,57],[29,13],[65,-47],[50,14],[58,-8],[50,73],[33,2]],[[2125,6258],[-9,8]],[[2116,6266],[0,33],[-48,47],[-18,95],[-24,44],[-15,118],[-17,49]],[[1994,6652],[175,110],[167,-33],[106,2],[4,103],[215,-70],[56,-12]],[[2717,6752],[-18,-110],[89,-208],[-74,-152]],[[2717,6752],[186,15],[23,28],[163,129]],[[3089,6924],[13,-28],[84,-10],[14,-76],[62,4]],[[3089,6924],[-7,80],[-56,0],[-43,29],[-4,62],[-31,41],[-104,39],[-19,33],[-156,2],[-32,-10],[-34,39]],[[2603,7239],[15,156],[98,221]],[[2716,7616],[16,-9],[215,-19],[71,18],[75,-50],[38,-42],[89,7],[48,-36]],[[3268,7485],[27,-36],[49,46],[41,-40],[84,29],[46,32],[24,-80],[-3,-49],[40,-24],[43,10],[1,-71],[44,-60],[-32,-35],[43,-53],[-54,-87],[-36,-38],[-36,-65],[-28,-94]],[[6734,7347],[9,25],[-34,49],[20,71],[53,23],[82,67],[6,34],[55,53],[60,27],[30,70],[25,7],[26,73],[32,0],[55,61],[176,71],[32,-18],[56,39],[67,-23],[35,-68],[5,-49],[53,-20],[-23,-44],[21,-89],[-15,-93],[6,-53],[-17,-18],[3,-98],[195,-213],[29,-18],[54,-65],[71,-56],[37,-15],[28,-58],[81,4]],[[8047,7023],[-28,-42],[11,-66],[-66,-39],[-45,-61],[-11,-42],[-30,-2],[-46,-36],[-28,0]],[[7804,6735],[-38,-31],[-51,-5],[-56,-23],[-56,7],[-47,57],[-29,-16],[-85,85],[-71,9],[-27,82],[-43,-51],[-3,-38],[-39,-12],[-64,16],[-49,-9],[-76,12],[-110,36],[-57,-37],[-6,-50],[-28,-41],[-18,-83]],[[7804,6735],[-11,-68],[-17,-14],[-2,-87],[-13,-58],[-69,-92],[-62,-16],[18,-112],[47,-93],[-3,-53],[-52,0],[-36,-44],[-98,-42],[2,-55],[35,-15]],[[7543,5986],[-69,-15],[-54,40],[-154,14],[-92,33],[-53,-56],[-3,-46],[49,-89]],[[7167,5867],[-105,-22],[-99,-10],[-48,39],[-139,-91]],[[6776,5783],[17,95],[-52,78],[-94,181]],[[6776,5783],[-84,-6],[0,-34],[-61,-7],[-62,-58],[-11,-58],[-65,-51],[-29,17]],[[6464,5586],[-54,128],[-77,209],[23,67]],[[6776,5783],[0,-62],[-24,-63],[17,-56],[47,-4],[44,-46]],[[6860,5552],[-219,-134],[-62,-107],[-88,-18]],[[7167,5867],[40,-93],[-25,-45],[-13,-121]],[[7169,5608],[-148,56],[-161,-112]],[[7169,5608],[-17,-50],[-2,-82],[-47,-46]],[[7103,5430],[-60,-54],[8,-38],[-25,-66],[3,-83],[-52,-65],[-27,-60],[-36,1]],[[6914,5065],[-5,97],[-30,20],[37,79],[-40,90],[32,70],[-10,68],[-38,63]],[[6914,5065],[-35,-91],[-56,-7],[-11,-45],[-31,-48],[-22,-79],[-44,-94],[-13,-46],[-82,-50],[-33,-48]],[[6587,4557],[12,-65],[32,-58],[14,-77],[33,-68],[37,10],[59,-37],[39,7],[67,52],[38,2],[-11,-54],[12,-75],[-20,-6],[-34,-137],[17,-33],[73,-33],[57,-77],[69,-39],[25,-59],[-9,-98],[51,-66],[-3,-96],[14,-51]],[[7159,3499],[-24,42],[-38,-24],[6,-54],[-87,-61],[-30,20],[-89,-28],[-111,108],[-57,-36],[-38,25],[-20,-28],[-61,41],[-32,-19],[-6,-46],[29,-37],[-18,-66],[-76,-24],[-16,27],[-58,-11],[-34,-84],[-29,5]],[[6370,3249],[-35,140],[-179,169],[-128,39],[-115,61]],[[6370,3249],[-25,-1],[-110,-66],[19,-55],[-35,-76],[-14,-64],[13,-65],[-16,-25],[-97,-25],[-11,-38]],[[6094,2834],[-71,-27],[-50,19],[-42,-48],[-63,-2],[-27,14],[-54,69],[51,53],[-52,39]],[[5786,2951],[20,46],[-39,35],[-47,66],[-84,59],[5,36],[35,32],[-12,26],[3,74],[-37,14],[-20,49]],[[5786,2951],[-190,-140]],[[5596,2811],[-59,47],[-79,76],[-79,102],[-106,55],[-50,-48],[-19,14],[-64,-33],[-82,1],[-9,32],[74,14],[29,43],[-6,53],[-28,20],[44,89],[-19,50],[-2,61],[-35,37],[41,62],[14,43],[-38,49],[-60,1],[-34,-19],[-50,36]],[[4979,3596],[-35,45],[-28,93]],[[4979,3596],[-40,-39],[-7,-139],[-29,-31],[4,-54],[-29,-34],[-77,31],[-36,1]],[[4765,3331],[-67,66],[-18,39],[-3,151]],[[5596,2811],[-301,-228],[80,-57],[-12,-104],[-131,-9]],[[5232,2413],[-15,102],[-133,128],[-110,180],[-1,154],[-90,229],[-118,125]],[[4765,3331],[-273,-121],[-69,3],[-139,-117],[-74,133]],[[5232,2413],[-395,-23],[-362,208],[-196,-95],[-69,-6],[-194,3]],[[4016,2500],[7,71],[-31,97],[-195,235],[-43,97],[-12,116],[-34,121]],[[4016,2500],[3,-68],[-11,-209],[-79,-89],[-33,-69],[1,-84],[17,-139],[26,-34],[54,-21],[98,-69],[-7,-100],[10,-32],[-19,-127],[11,-96],[18,-37],[10,-74],[59,-27],[-36,-40],[3,-69],[34,-21],[-17,-35],[14,-38],[-46,-107],[-34,2],[11,-66],[86,-18],[-18,-45],[8,-68],[-33,-42],[36,-25],[12,-40],[-27,-28],[7,-53],[-42,-52],[-36,15],[-63,-46],[-58,-21],[-77,-42],[-8,-47],[21,-38],[-2,-52],[41,-33],[-87,-37],[-26,-40],[-122,-26],[-44,68],[-46,20],[-31,47],[-75,-8],[-82,6],[-34,-12],[-43,20],[-22,41],[-83,-10],[-25,-49],[-77,-27],[-36,20],[-33,-58],[-87,-10],[-35,36],[-119,-38],[-62,46],[-50,1],[-64,-24],[-68,-107],[-77,-30],[-50,-3],[-25,-42],[-53,43],[11,39],[58,26],[28,94],[34,31],[80,177],[-50,-2],[-35,63],[-11,57],[-29,24],[-51,-6],[-43,51],[17,74],[-82,21],[-47,79],[-46,10],[-39,-25],[-26,37],[-120,31],[-10,100],[-24,61],[-19,90],[-4,73],[22,57],[38,51],[25,96],[-30,29],[19,35],[39,-10],[22,-67],[125,-8],[120,20],[9,279],[1,156],[-19,29]],[[2357,1815],[-16,23],[8,117],[48,-21],[103,11],[21,86],[-17,37],[17,52],[-72,80],[-150,96],[-90,23],[-63,-1],[-53,37],[21,71],[45,23],[16,62],[56,65],[-26,97],[26,58],[96,57],[50,46]],[[2377,2834],[77,48],[2,62]],[[2907,3104],[1,-148],[27,-24],[-16,-40],[-1,-64],[156,1],[80,45],[131,58],[56,80],[72,71],[38,70],[57,165],[-9,59],[-23,15],[-10,74],[-50,13],[-5,49],[55,30]],[[2357,1815],[-53,-7],[-148,105],[-134,16],[-144,26],[-26,56],[-44,21],[50,51],[7,79],[-64,54],[-39,53],[-12,76],[-1,111],[-41,59],[-12,123]],[[1696,2638],[7,48],[46,-21],[42,25],[80,120],[53,17],[42,-23],[34,19],[52,-5],[53,-32],[38,-3],[107,71],[127,-20]],[[1696,2638],[-49,-13],[-24,-76],[-49,53],[-48,11],[-110,45],[-43,37],[-39,-31],[-65,-5],[-33,-32],[-44,-1],[-38,-52],[-45,2],[-44,-29],[-80,47],[-42,6],[-31,29],[-71,13],[-116,38],[-90,16],[11,42],[31,27],[-23,68],[24,7],[45,64],[-15,59],[14,39],[-12,87],[-28,39],[27,90],[102,69],[51,7],[85,75],[59,96],[24,173],[37,100],[-5,47],[31,40],[-8,48],[27,60],[22,-6],[36,46]],[[1170,3973],[32,-38],[38,-9],[27,-45],[74,-47],[20,-45],[102,28],[73,-20],[52,-30],[25,43],[90,31],[63,12],[61,27],[44,-26],[-2,-53],[30,-42],[60,-22],[141,33]],[[1170,3973],[-39,1],[-20,-26],[-88,7],[-5,47],[-43,5],[-127,65],[4,63],[22,42]],[[874,4177],[88,104],[-21,23],[29,85],[111,39],[73,37],[42,36],[1,28],[48,8],[36,-26],[94,-8],[57,67],[37,11],[37,40],[28,-90],[71,-5],[101,-74],[45,36],[46,0],[94,65],[21,57],[96,27]],[[874,4177],[-450,7],[8,614],[-1,72]],[[431,4870],[90,51],[22,69],[65,55],[6,52],[141,78],[81,-10],[88,27]],[[924,5192],[40,-52],[46,-18],[116,15],[59,-17],[117,44]],[[1302,5164],[6,-51],[66,-19],[48,-68],[83,-31],[38,-34],[25,18],[81,-13],[-1,55],[96,13],[49,-48],[69,-41],[38,-1],[29,29]],[[1302,5164],[7,55],[47,1],[-15,80],[81,1],[44,43],[-13,62]],[[1453,5406],[61,11],[82,-14],[45,-55],[47,-37],[48,-1],[29,97],[83,-2],[52,-21]],[[1453,5406],[-4,159],[24,38],[-23,34],[88,101],[82,2],[55,23],[33,40],[31,-1],[80,-110],[26,-19],[70,-2],[12,23]],[[1453,5406],[-55,-41],[-53,-22],[-47,19],[-58,-49],[-52,-11],[-49,37],[14,53],[-47,90],[25,56],[-4,41],[-29,57],[-63,12],[-64,49],[-37,-30],[-57,45],[11,40],[-17,33]],[[871,5785],[218,52],[383,46],[553,-79]],[[924,5192],[47,84],[-22,47],[-28,0],[-46,54],[-18,56],[21,29],[-11,49],[-45,50],[-2,68],[-22,29],[-51,-10],[-23,35],[1,89]],[[725,5772],[72,-28],[74,41]],[[431,4870],[8,13],[7,313],[-377,402],[-69,78],[7,70],[33,60],[43,25],[47,54],[51,-12],[95,37],[58,7],[0,33]],[[334,5950],[43,-18],[39,-45],[42,-18],[101,2],[26,-31],[122,-74],[18,6]],[[334,5950],[22,43],[51,19],[42,39],[-2,31],[139,15],[71,-29],[49,-3],[39,21],[56,-27],[77,0],[30,-39],[69,10],[70,-6],[53,15],[4,45],[57,16],[3,115],[36,34],[43,-11],[4,-30],[42,-53],[92,24],[31,-39],[39,-17],[107,-14],[52,30],[60,-21],[51,5],[35,-15],[110,40],[83,-35],[16,-29],[72,23],[11,100],[68,59]],[[1994,6652],[-37,42],[-16,44],[-64,47],[-6,46],[40,44],[-74,109],[35,92]],[[1872,7076],[64,20],[94,-2],[24,32],[47,15],[53,-84],[47,29],[70,-51],[34,13],[-18,45],[91,34],[51,-9],[14,104],[60,27],[100,-10]],[[2603,7239],[-21,-153],[139,-197],[-4,-137]],[[1872,7076],[-8,292],[13,528],[39,-87],[80,11],[109,-57],[7,-36],[82,-12],[51,19],[39,-65],[57,27],[-2,116],[43,29],[93,5],[99,49],[10,27],[45,21],[19,-17]],[[2648,7926],[55,-82],[39,-90],[-15,-115],[-11,-23]],[[2648,7926],[-33,49],[-1,81],[-33,19],[-9,39],[19,96],[25,74],[28,-5],[7,-51],[348,0],[62,83],[77,-20],[62,44],[18,29],[63,-7],[-13,-872]],[[8047,7023],[12,-24],[190,-474],[249,-373],[221,-196]],[[8719,5956],[60,-24],[-16,-28],[12,-45],[60,-32],[12,-42]],[[8847,5785],[-197,-41],[-334,-210]],[[8316,5534],[-34,17],[-90,91],[-24,-39],[-77,-3],[-32,-62],[-72,-31]],[[7987,5507],[7,39],[-36,21],[-26,-16],[-36,22],[-27,-20]],[[7869,5553],[-72,32],[-53,8],[-32,26],[-72,-16],[-97,383]],[[8719,5956],[315,115],[83,33],[166,132],[79,57],[63,6],[188,0],[33,44],[97,20],[59,-49],[62,16],[16,54],[-9,65],[57,3],[152,-127],[46,-119],[30,-18],[-23,-86],[15,-56],[-130,-40],[6,-33],[-24,-86],[-64,-98],[-30,25],[-39,-34],[-3,-55],[-79,60],[-23,47],[-66,-36],[-47,47],[-51,3],[-4,-67],[-33,-14],[40,-43],[43,-90],[-68,-46],[-59,-92],[4,-110],[-17,-75]],[[9504,5309],[-206,75],[-131,26],[-32,-21],[-24,26],[19,96],[-76,54],[-55,17],[-10,81],[-40,27],[-38,93],[-64,2]],[[9504,5309],[107,-35],[36,-58],[43,-15],[61,-95],[13,-62],[-22,-126],[-593,31],[-64,-21],[-44,-65],[-44,-11],[-18,-50],[-75,-51],[-45,-17],[-60,-52],[-53,30],[-34,93],[-64,0]],[[8648,4805],[-2,123],[-19,23],[-16,135],[37,101],[-7,65],[-37,-8],[-52,66],[-34,60],[-78,60],[-25,4],[-99,100]],[[8648,4805],[-24,-18],[-31,51],[0,40],[-27,59],[-95,35],[-56,9],[-58,36],[-25,32],[-53,112]],[[8279,5161],[6,34],[-36,53],[-69,36],[-53,66],[4,24],[-50,63],[-89,30],[-5,40]],[[8279,5161],[-40,-36],[-40,-120],[-107,-62],[-85,73],[-106,21],[-130,60],[-178,21]],[[7593,5118],[40,27],[60,88],[1,163],[97,8],[11,55],[29,49],[49,3],[-11,42]],[[7593,5118],[-2,-8]],[[7591,5110],[-51,11],[12,94],[-64,2],[-69,64],[-53,-5],[-60,48],[25,59],[-69,29],[9,27],[-114,5],[-54,-14]],[[7591,5110],[125,-133],[65,-58],[71,-107],[16,-125],[58,-64],[-26,-47],[1,-52],[-34,-99],[77,-142],[-8,-34],[37,-59],[-1,-42],[-37,-113],[1,-81],[-28,-7],[-47,-102],[-24,-91],[-52,-12],[-51,-30],[-41,-51],[-99,-38],[-82,-73],[30,-69],[-13,-52],[15,-32],[-20,-72],[-102,-98],[-15,-49],[-48,-55],[-84,-44],[37,70],[-78,58],[-38,66]],[[7196,3273],[13,48],[-13,57],[6,60],[33,112],[-53,15],[6,-42],[-29,-24]],[[7196,3273],[-61,9],[-39,26],[-17,-80],[-72,-48],[-93,-11],[-54,-25],[-32,-45],[31,-34],[-23,-45],[-60,-43],[-16,9],[-67,-37],[-35,-48],[-64,-3],[-52,-41],[-38,3],[-49,-45],[-35,8],[-122,-28],[-92,-47],[-25,20],[-61,-3],[2,50],[-28,19]]],"transform":{"scale":[0.00009311835368255201,0.00008600155428024871],"translate":[-46.996882,-24.009176]},"objects":{"zonas_1977_s":{"type":"GeometryCollection","geometries":[{"arcs":[[0,1,2,3,4,5,6,7]],"type":"Polygon","properties":{"codigo":"1","nome":"Sé","municipio_nome":"São Paulo"},"id":"1"},{"arcs":[[-1,8,9,10]],"type":"Polygon","properties":{"codigo":"2","nome":"Brás","municipio_nome":"São Paulo"},"id":"2"},{"arcs":[[-2,-11,11,12,13,14,15]],"type":"Polygon","properties":{"codigo":"3","nome":"Brás","municipio_nome":"São Paulo"},"id":"3"},{"arcs":[[-15,16,17,18,19,20]],"type":"Polygon","properties":{"codigo":"4","nome":"Moóca","municipio_nome":"São Paulo"},"id":"4"},{"arcs":[[-3,-16,-21,21,22,23,24]],"type":"Polygon","properties":{"codigo":"5","nome":"Liberdade","municipio_nome":"São Paulo"},"id":"5"},{"arcs":[[-4,-25,25,26]],"type":"Polygon","properties":{"codigo":"6","nome":"Liberdade","municipio_nome":"São Paulo"},"id":"6"},{"arcs":[[-5,-27,27,28,29]],"type":"Polygon","properties":{"codigo":"7","nome":"Liberdade","municipio_nome":"São Paulo"},"id":"7"},{"arcs":[[-6,-30,30,31,32,33,34,35]],"type":"Polygon","properties":{"codigo":"8","nome":"Bela Vista","municipio_nome":"São Paulo"},"id":"8"},{"arcs":[[-7,-36,36,37]],"type":"Polygon","properties":{"codigo":"9","nome":"Consolação","municipio_nome":"São Paulo"},"id":"9"},{"arcs":[[-8,-38,38,39,40,41,-9]],"type":"Polygon","properties":{"codigo":"10","nome":"Santa Efigênia","municipio_nome":"São Paulo"},"id":"10"},{"arcs":[[-10,42,43,44,45,-12]],"type":"Polygon","properties":{"codigo":"11","nome":"Brás","municipio_nome":"São Paulo"},"id":"11"},{"arcs":[[-45,46,47,48]],"type":"Polygon","properties":{"codigo":"12","nome":"Brás","municipio_nome":"São Paulo"},"id":"12"},{"arcs":[[-13,-46,-49,49,50,51]],"type":"Polygon","properties":{"codigo":"13","nome":"Brás","municipio_nome":"São Paulo"},"id":"13"},{"arcs":[[-14,-52,52,53,-17]],"type":"Polygon","properties":{"codigo":"14","nome":"Moóca","municipio_nome":"São Paulo"},"id":"14"},{"arcs":[[-18,-54,54,55,56,57]],"type":"Polygon","properties":{"codigo":"15","nome":"Alto da Moóca","municipio_nome":"São Paulo"},"id":"15"},{"arcs":[[-20,58,59,60,-22]],"type":"Polygon","properties":{"codigo":"16","nome":"Cambuci","municipio_nome":"São Paulo"},"id":"16"},{"arcs":[[-23,-61,61,62,63,64]],"type":"Polygon","properties":{"codigo":"17","nome":"Aclimação","municipio_nome":"São Paulo"},"id":"17"},{"arcs":[[-24,-65,65,66,-28,-26]],"type":"Polygon","properties":{"codigo":"18","nome":"Liberdade","municipio_nome":"São Paulo"},"id":"18"},{"arcs":[[-29,-67,67,-31]],"type":"Polygon","properties":{"codigo":"19","nome":"Liberdade","municipio_nome":"São Paulo"},"id":"19"},{"arcs":[[-64,68,69,-66]],"type":"Polygon","properties":{"codigo":"20","nome":"Liberdade","municipio_nome":"São Paulo"},"id":"20"},{"arcs":[[-32,-68,-70,70,71]],"type":"Polygon","properties":{"codigo":"21","nome":"Liberdade","municipio_nome":"São Paulo"},"id":"21"},{"arcs":[[-33,-72,72,73,74]],"type":"Polygon","properties":{"codigo":"22","nome":"Bela Vista","municipio_nome":"São Paulo"},"id":"22"},{"arcs":[[-34,-75,75,76,77,78]],"type":"Polygon","properties":{"codigo":"23","nome":"Cerqueira Cesar","municipio_nome":"São Paulo"},"id":"23"},{"arcs":[[-35,-79,79,80,-39,-37]],"type":"Polygon","properties":{"codigo":"24","nome":"Consolação","municipio_nome":"São Paulo"},"id":"24"},{"arcs":[[-81,81,82,83]],"type":"Polygon","properties":{"codigo":"25","nome":"Santa Cecília","municipio_nome":"São Paulo"},"id":"25"},{"arcs":[[-40,-84,84,85]],"type":"Polygon","properties":{"codigo":"26","nome":"Santa Cecília","municipio_nome":"São Paulo"},"id":"26"},{"arcs":[[-41,-86,86,87]],"type":"Polygon","properties":{"codigo":"27","nome":"Bom Retiro","municipio_nome":"São Paulo"},"id":"27"},{"arcs":[[-42,-88,88,89,90,91,-43]],"type":"Polygon","properties":{"codigo":"28","nome":"Santa Efigênia","municipio_nome":"São Paulo"},"id":"28"},{"arcs":[[-44,-92,92,-47]],"type":"Polygon","properties":{"codigo":"29","nome":"Pari","municipio_nome":"São Paulo"},"id":"29"},{"arcs":[[-91,93,94,-93]],"type":"Polygon","properties":{"codigo":"30","nome":"Pari","municipio_nome":"São Paulo"},"id":"30"},{"arcs":[[-48,-95,95,96,97,98,99]],"type":"Polygon","properties":{"codigo":"31","nome":"Belenzinho","municipio_nome":"São Paulo"},"id":"31"},{"arcs":[[-50,-100,100,101]],"type":"Polygon","properties":{"codigo":"32","nome":"Belenzinho","municipio_nome":"São Paulo"},"id":"32"},{"arcs":[[-51,-102,102,103,-53]],"type":"Polygon","properties":{"codigo":"33","nome":"Belenzinho","municipio_nome":"São Paulo"},"id":"33"},{"arcs":[[-55,-104,104,105,106,107]],"type":"Polygon","properties":{"codigo":"34","nome":"Alto da Moóca","municipio_nome":"São Paulo"},"id":"34"},{"arcs":[[-56,-108,108,109,110,111]],"type":"Polygon","properties":{"codigo":"35","nome":"Vila Prudente","municipio_nome":"São Paulo"},"id":"35"},{"arcs":[[-19,-58,112,113,114,115,116]],"type":"Polygon","properties":{"codigo":"36","nome":"Ipiranga","municipio_nome":"São Paulo"},"id":"36"},{"arcs":[[-59,-117,117,118]],"type":"Polygon","properties":{"codigo":"37","nome":"Cambuci","municipio_nome":"São Paulo"},"id":"37"},{"arcs":[[-116,119,120,-118]],"type":"Polygon","properties":{"codigo":"38","nome":"Aclimação","municipio_nome":"São Paulo"},"id":"38"},{"arcs":[[-60,-119,-121,121,-62]],"type":"Polygon","properties":{"codigo":"39","nome":"Aclimação","municipio_nome":"São Paulo"},"id":"39"},{"arcs":[[-63,-122,-120,-115,122,123,124,125,-69]],"type":"Polygon","properties":{"codigo":"40","nome":"Vila Mariana","municipio_nome":"São Paulo"},"id":"40"},{"arcs":[[-71,-126,126,127,128,-73]],"type":"Polygon","properties":{"codigo":"41","nome":"Vila Mariana","municipio_nome":"São Paulo"},"id":"41"},{"arcs":[[-74,-129,129,130,131,132,133]],"type":"Polygon","properties":{"codigo":"42","nome":"Jardim Paulista","municipio_nome":"São Paulo"},"id":"42"},{"arcs":[[-76,-134,134,135]],"type":"Polygon","properties":{"codigo":"43","nome":"Cerqueira Cesar","municipio_nome":"São Paulo"},"id":"43"},{"arcs":[[-78,136,137,138,-82,-80]],"type":"Polygon","properties":{"codigo":"44","nome":"Consolação","municipio_nome":"São Paulo"},"id":"44"},{"arcs":[[-83,-139,139,140]],"type":"Polygon","properties":{"codigo":"45","nome":"Santa Cecília","municipio_nome":"São Paulo"},"id":"45"},{"arcs":[[-85,-141,141,142,143]],"type":"Polygon","properties":{"codigo":"46","nome":"Barra Funda","municipio_nome":"São Paulo"},"id":"46"},{"arcs":[[-87,-144,144,145,146,-89]],"type":"Polygon","properties":{"codigo":"47","nome":"Bom Retiro","municipio_nome":"São Paulo"},"id":"47"},{"arcs":[[-90,-147,147,148,149,150]],"type":"Polygon","properties":{"codigo":"48","nome":"Santana","municipio_nome":"São Paulo"},"id":"48"},{"arcs":[[-94,-151,151,152,153,-96]],"type":"Polygon","properties":{"codigo":"49","nome":"Vila Guilherme","municipio_nome":"São Paulo"},"id":"49"},{"arcs":[[-97,-154,154,155,156]],"type":"Polygon","properties":{"codigo":"50","nome":"Vila Maria","municipio_nome":"São Paulo"},"id":"50"},{"arcs":[[-98,-157,157,158,159,160,161,162,163]],"type":"Polygon","properties":{"codigo":"51","nome":"Vila Maria","municipio_nome":"São Paulo"},"id":"51"},{"arcs":[[-99,-164,164,165,166,-101]],"type":"Polygon","properties":{"codigo":"52","nome":"Tatuapé","municipio_nome":"São Paulo"},"id":"52"},{"arcs":[[-103,-167,167,-105]],"type":"Polygon","properties":{"codigo":"53","nome":"Tatuapé","municipio_nome":"São Paulo"},"id":"53"},{"arcs":[[-107,168,169,170,-109]],"type":"Polygon","properties":{"codigo":"54","nome":"Alto da Moóca","municipio_nome":"São Paulo"},"id":"54"},{"arcs":[[-110,-171,171,172,173,174,175,176]],"type":"Polygon","properties":{"codigo":"55","nome":"Vila Prudente","municipio_nome":"São Paulo"},"id":"55"},{"arcs":[[-111,-177,177,178,179]],"type":"Polygon","properties":{"codigo":"56","nome":"Vila Prudente","municipio_nome":"São Paulo"},"id":"56"},{"arcs":[[-112,-180,180,181,182,-113,-57]],"type":"Polygon","properties":{"codigo":"57","nome":"Vila Prudente","municipio_nome":"São Paulo"},"id":"57"},{"arcs":[[-114,-183,183,184,185,-123]],"type":"Polygon","properties":{"codigo":"58","nome":"Ipiranga","municipio_nome":"São Paulo"},"id":"58"},{"arcs":[[-124,-186,186,187,188,189,190]],"type":"Polygon","properties":{"codigo":"59","nome":"Saúde","municipio_nome":"São Paulo"},"id":"59"},{"arcs":[[-125,-191,191,-127]],"type":"Polygon","properties":{"codigo":"60","nome":"Vila Mariana","municipio_nome":"São Paulo"},"id":"60"},{"arcs":[[-128,-192,192,-130]],"type":"Polygon","properties":{"codigo":"61","nome":"Vila Mariana","municipio_nome":"São Paulo"},"id":"61"},{"arcs":[[-132,193,194,195,196,197]],"type":"Polygon","properties":{"codigo":"62","nome":"Jardim Paulista","municipio_nome":"São Paulo"},"id":"62"},{"arcs":[[-133,-198,198,199,200,-135]],"type":"Polygon","properties":{"codigo":"63","nome":"Jardim América","municipio_nome":"São Paulo"},"id":"63"},{"arcs":[[-77,-136,-201,201,202,203,-137]],"type":"Polygon","properties":{"codigo":"64","nome":"Jardim América","municipio_nome":"São Paulo"},"id":"64"},{"arcs":[[-138,-204,204,205]],"type":"Polygon","properties":{"codigo":"65","nome":"Perdizes","municipio_nome":"São Paulo"},"id":"65"},{"arcs":[[-140,-206,206,207,208,-142]],"type":"Polygon","properties":{"codigo":"66","nome":"Perdizes","municipio_nome":"São Paulo"},"id":"66"},{"arcs":[[-143,-209,209,210,211,-145]],"type":"Polygon","properties":{"codigo":"67","nome":"Barra Funda","municipio_nome":"São Paulo"},"id":"67"},{"arcs":[[-146,-212,212,213,214,-148]],"type":"Polygon","properties":{"codigo":"68","nome":"Casa Verde","municipio_nome":"São Paulo"},"id":"68"},{"arcs":[[-149,-215,215,216,217]],"type":"Polygon","properties":{"codigo":"69","nome":"Santana","municipio_nome":"São Paulo"},"id":"69"},{"arcs":[[-150,-218,218,219,220,221,222,-152]],"type":"Polygon","properties":{"codigo":"70","nome":"Santana","municipio_nome":"São Paulo"},"id":"70"},{"arcs":[[-153,-223,223,224,225,-155]],"type":"Polygon","properties":{"codigo":"71","nome":"Vila Guilherme","municipio_nome":"São Paulo"},"id":"71"},{"arcs":[[-156,-226,226,227,-158]],"type":"Polygon","properties":{"codigo":"72","nome":"Vila Maria","municipio_nome":"São Paulo"},"id":"72"},{"arcs":[[-163,228,229,230,-165]],"type":"Polygon","properties":{"codigo":"73","nome":"Tatuapé","municipio_nome":"São Paulo"},"id":"73"},{"arcs":[[-106,-168,-166,-231,231,232,233,-169]],"type":"Polygon","properties":{"codigo":"74","nome":"Tatuapé","municipio_nome":"São Paulo"},"id":"74"},{"arcs":[[-170,-234,234,235,-172]],"type":"Polygon","properties":{"codigo":"75","nome":"Vila Formosa","municipio_nome":"São Paulo"},"id":"75"},{"arcs":[[-174,236,237,238,239]],"type":"Polygon","properties":{"codigo":"76","nome":"Vila Prudente","municipio_nome":"São Paulo"},"id":"76"},{"arcs":[[-175,-240,240,241,242]],"type":"Polygon","properties":{"codigo":"77","nome":"Vila Prudente","municipio_nome":"São Paulo"},"id":"77"},{"arcs":[[-176,-243,243,-178]],"type":"Polygon","properties":{"codigo":"78","nome":"Vila Prudente","municipio_nome":"São Paulo"},"id":"78"},{"arcs":[[-244,244,245,246,247,248]],"type":"Polygon","properties":{"codigo":"79","nome":"Santo André","municipio_nome":"Santo André"},"id":"79"},{"arcs":[[-179,-249,249,250,251,252,-181]],"type":"Polygon","properties":{"codigo":"80","nome":"São Caetano do Sul","municipio_nome":"São Caetano do Sul"},"id":"80"},{"arcs":[[-182,-253,253,254,-184]],"type":"Polygon","properties":{"codigo":"81","nome":"Ipiranga","municipio_nome":"São Paulo"},"id":"81"},{"arcs":[[-185,-255,255,256,257,258,-187]],"type":"Polygon","properties":{"codigo":"82","nome":"Saúde","municipio_nome":"São Paulo"},"id":"82"},{"arcs":[[-188,-259,259,260]],"type":"Polygon","properties":{"codigo":"83","nome":"Saúde","municipio_nome":"São Paulo"},"id":"83"},{"arcs":[[-189,-261,261,262,263,264]],"type":"Polygon","properties":{"codigo":"84","nome":"Indianópolis","municipio_nome":"São Paulo"},"id":"84"},{"arcs":[[-131,-193,-190,-265,265,-194]],"type":"Polygon","properties":{"codigo":"85","nome":"Indianópolis","municipio_nome":"São Paulo"},"id":"85"},{"arcs":[[-197,266,267,-199]],"type":"Polygon","properties":{"codigo":"86","nome":"Jardim América","municipio_nome":"São Paulo"},"id":"86"},{"arcs":[[-200,-268,268,269,270,-202]],"type":"Polygon","properties":{"codigo":"87","nome":"Pinheiros","municipio_nome":"São Paulo"},"id":"87"},{"arcs":[[-203,-271,271,272]],"type":"Polygon","properties":{"codigo":"88","nome":"Vila Madalena","municipio_nome":"São Paulo"},"id":"88"},{"arcs":[[-205,-273,273,274,275,-207]],"type":"Polygon","properties":{"codigo":"89","nome":"Perdizes","municipio_nome":"São Paulo"},"id":"89"},{"arcs":[[-208,-276,276,277,278,279]],"type":"Polygon","properties":{"codigo":"90","nome":"Lapa","municipio_nome":"São Paulo"},"id":"90"},{"arcs":[[-210,-280,280,281,282]],"type":"Polygon","properties":{"codigo":"91","nome":"Lapa","municipio_nome":"São Paulo"},"id":"91"},{"arcs":[[-211,-283,283,284,285,-213]],"type":"Polygon","properties":{"codigo":"92","nome":"Limão","municipio_nome":"São Paulo"},"id":"92"},{"arcs":[[-214,286,287,-216]],"type":"Polygon","properties":{"codigo":"93","nome":"Casa Verde","municipio_nome":"São Paulo"},"id":"93"},{"arcs":[[-217,-288,288,289,290,-219]],"type":"Polygon","properties":{"codigo":"94","nome":"Santana","municipio_nome":"São Paulo"},"id":"94"},{"arcs":[[-220,-291,291,292]],"type":"Polygon","properties":{"codigo":"95","nome":"Santana","municipio_nome":"São Paulo"},"id":"95"},{"arcs":[[-221,-293,293,294,295,296]],"type":"Polygon","properties":{"codigo":"96","nome":"Tucuruvi","municipio_nome":"São Paulo"},"id":"96"},{"arcs":[[-222,-297,297,298,-224]],"type":"Polygon","properties":{"codigo":"97","nome":"Tucuruvi","municipio_nome":"São Paulo"},"id":"97"},{"arcs":[[-225,-299,299,300,-227]],"type":"Polygon","properties":{"codigo":"98","nome":"Tucuruvi","municipio_nome":"São Paulo"},"id":"98"},{"arcs":[[-159,-228,-301,301,302]],"type":"Polygon","properties":{"codigo":"99","nome":"Tucuruvi","municipio_nome":"São Paulo"},"id":"99"},{"arcs":[[-160,-303,303,304,305,306,307,308,309,310]],"type":"Polygon","properties":{"codigo":"100","nome":"Guarulhos","municipio_nome":"Guarulhos"},"id":"100"},{"arcs":[[-161,-311,311,312,313]],"type":"Polygon","properties":{"codigo":"101","nome":"Cangaíba","municipio_nome":"São Paulo"},"id":"101"},{"arcs":[[-162,-314,314,315,-229]],"type":"Polygon","properties":{"codigo":"102","nome":"Penha","municipio_nome":"São Paulo"},"id":"102"},{"arcs":[[-230,316,317,318,-232]],"type":"Polygon","properties":{"codigo":"103","nome":"Tatuapé","municipio_nome":"São Paulo"},"id":"103"},{"arcs":[[-233,-319,319,320,321,-235]],"type":"Polygon","properties":{"codigo":"104","nome":"Vila Formosa","municipio_nome":"São Paulo"},"id":"104"},{"arcs":[[-238,322,-321,323,324,325,326]],"type":"Polygon","properties":{"codigo":"105","nome":"Tatuapé","municipio_nome":"São Paulo"},"id":"105"},{"arcs":[[-242,327,328,-245]],"type":"Polygon","properties":{"codigo":"106","nome":"Santo André","municipio_nome":"Santo André"},"id":"106"},{"arcs":[[-248,329,330,331,332]],"type":"Polygon","properties":{"codigo":"107","nome":"Santo André","municipio_nome":"Santo André"},"id":"107"},{"arcs":[[-332,333,334,335]],"type":"Polygon","properties":{"codigo":"108","nome":"São Caetano do Sul","municipio_nome":"São Caetano do Sul"},"id":"108"},{"arcs":[[-250,-333,-336,336]],"type":"Polygon","properties":{"codigo":"109","nome":"São Caetano do Sul","municipio_nome":"São Caetano do Sul"},"id":"109"},{"arcs":[[-251,-337,-335,337,338]],"type":"Polygon","properties":{"codigo":"110","nome":"São Caetano do Sul","municipio_nome":"São Caetano do Sul"},"id":"110"},{"arcs":[[-252,-339,339,-256,-254]],"type":"Polygon","properties":{"codigo":"111","nome":"Ipiranga","municipio_nome":"São Paulo"},"id":"111"},{"arcs":[[-257,-340,340,341,342]],"type":"Polygon","properties":{"codigo":"112","nome":"Saúde","municipio_nome":"São Paulo"},"id":"112"},{"arcs":[[-342,343,344,345,346,347]],"type":"Polygon","properties":{"codigo":"113","nome":"Jabaquara","municipio_nome":"São Paulo"},"id":"113"},{"arcs":[[-258,-343,-348,348,349,-262,-260]],"type":"Polygon","properties":{"codigo":"114","nome":"Jabaquara","municipio_nome":"São Paulo"},"id":"114"},{"arcs":[[-263,-350,350,351]],"type":"Polygon","properties":{"codigo":"115","nome":"Ibirapuera","municipio_nome":"São Paulo"},"id":"115"},{"arcs":[[-264,-352,352,353,354,-266]],"type":"Polygon","properties":{"codigo":"116","nome":"Ibirapuera","municipio_nome":"São Paulo"},"id":"116"},{"arcs":[[-195,-355,355,356,357]],"type":"Polygon","properties":{"codigo":"117","nome":"Ibirapuera","municipio_nome":"São Paulo"},"id":"117"},{"arcs":[[-357,358,359,360,361]],"type":"Polygon","properties":{"codigo":"118","nome":"Ibirapuera","municipio_nome":"São Paulo"},"id":"118"},{"arcs":[[-196,-358,-362,362,363,364,365,-269,-267]],"type":"Polygon","properties":{"codigo":"119","nome":"Butantã","municipio_nome":"São Paulo"},"id":"119"},{"arcs":[[-365,366,367,368,369]],"type":"Polygon","properties":{"codigo":"120","nome":"Butantã","municipio_nome":"São Paulo"},"id":"120"},{"arcs":[[-270,-366,-370,370,371]],"type":"Polygon","properties":{"codigo":"121","nome":"Pinheiros","municipio_nome":"São Paulo"},"id":"121"},{"arcs":[[-272,-372,372,-274]],"type":"Polygon","properties":{"codigo":"122","nome":"Vila Madalena","municipio_nome":"São Paulo"},"id":"122"},{"arcs":[[-275,-373,373,374,-277]],"type":"Polygon","properties":{"codigo":"123","nome":"Lapa","municipio_nome":"São Paulo"},"id":"123"},{"arcs":[[-278,375,376]],"type":"Polygon","properties":{"codigo":"124","nome":"Lapa","municipio_nome":"São Paulo"},"id":"124"},{"arcs":[[-369,377,378,-374,-371]],"type":"Polygon","properties":{"codigo":"125","nome":"Lapa","municipio_nome":"São Paulo"},"id":"125"},{"arcs":[[-375,-379,379,380,-376]],"type":"Polygon","properties":{"codigo":"126","nome":"Lapa","municipio_nome":"São Paulo"},"id":"126"},{"arcs":[[-279,-377,-381,381,382,383,384,385,-281]],"type":"Polygon","properties":{"codigo":"127","nome":"Lapa","municipio_nome":"São Paulo"},"id":"127"},{"arcs":[[-282,386,387,388,389,-284]],"type":"Polygon","properties":{"codigo":"128","nome":"Nossa Senhora do Ó","municipio_nome":"São Paulo"},"id":"128"},{"arcs":[[-285,-390,390,391,392]],"type":"Polygon","properties":{"codigo":"129","nome":"Limão","municipio_nome":"São Paulo"},"id":"129"},{"arcs":[[-286,-393,393,394,-289,-287]],"type":"Polygon","properties":{"codigo":"130","nome":"Casa Verde","municipio_nome":"São Paulo"},"id":"130"},{"arcs":[[-290,-395,395,396,397,398,-294,-292]],"type":"Polygon","properties":{"codigo":"131","nome":"Santana","municipio_nome":"São Paulo"},"id":"131"},{"arcs":[[-295,-399,399,400,401,402]],"type":"Polygon","properties":{"codigo":"132","nome":"Tucuruvi","municipio_nome":"São Paulo"},"id":"132"},{"arcs":[[-296,-403,403,-302,-300,-298]],"type":"Polygon","properties":{"codigo":"133","nome":"Tucuruvi","municipio_nome":"São Paulo"},"id":"133"},{"arcs":[[-304,-404,-402,404,405]],"type":"Polygon","properties":{"codigo":"134","nome":"Guarulhos","municipio_nome":"Guarulhos"},"id":"134"},{"arcs":[[-305,-406,406]],"type":"Polygon","properties":{"codigo":"135","nome":"Guarulhos","municipio_nome":"Guarulhos"},"id":"135"},{"arcs":[[-309,407,408,409,410]],"type":"Polygon","properties":{"codigo":"136","nome":"Ermelino Matarazzo","municipio_nome":"São Paulo"},"id":"136"},{"arcs":[[-310,-411,411,412,-312]],"type":"Polygon","properties":{"codigo":"137","nome":"Cangaíba","municipio_nome":"São Paulo"},"id":"137"},{"arcs":[[-410,413,414,415,-412]],"type":"Polygon","properties":{"codigo":"138","nome":"Ermelino Matarazzo","municipio_nome":"São Paulo"},"id":"138"},{"arcs":[[-415,416,417,418]],"type":"Polygon","properties":{"codigo":"139","nome":"Penha","municipio_nome":"São Paulo"},"id":"139"},{"arcs":[[-313,-413,-416,-419,419,420,-315]],"type":"Polygon","properties":{"codigo":"140","nome":"Penha","municipio_nome":"São Paulo"},"id":"140"},{"arcs":[[-418,421,422,423,424,-420]],"type":"Polygon","properties":{"codigo":"141","nome":"Vila Matilde","municipio_nome":"São Paulo"},"id":"141"},{"arcs":[[-316,-421,-425,425,426,-317]],"type":"Polygon","properties":{"codigo":"142","nome":"Vila Matilde","municipio_nome":"São Paulo"},"id":"142"},{"arcs":[[-318,-427,427,-324,-320]],"type":"Polygon","properties":{"codigo":"143","nome":"Tatuapé","municipio_nome":"São Paulo"},"id":"143"},{"arcs":[[-325,-428,-426,-424,428]],"type":"Polygon","properties":{"codigo":"144","nome":"Vila Matilde","municipio_nome":"São Paulo"},"id":"144"},{"arcs":[[-326,-429,-423,429,430,431,432,433,434]],"type":"Polygon","properties":{"codigo":"145","nome":"Itaquera","municipio_nome":"São Paulo"},"id":"145"},{"arcs":[[-239,-327,-435,435,436,437,-241]],"type":"Polygon","properties":{"codigo":"146","nome":"Itaquera","municipio_nome":"São Paulo"},"id":"146"},{"arcs":[[-328,-438,438,439,440]],"type":"Polygon","properties":{"codigo":"147","nome":"Santo André","municipio_nome":"Santo André"},"id":"147"},{"arcs":[[-246,-329,-441,441]],"type":"Polygon","properties":{"codigo":"148","nome":"Santo André","municipio_nome":"Santo André"},"id":"148"},{"arcs":[[-247,-442,442,443,444,-330]],"type":"Polygon","properties":{"codigo":"149","nome":"Santo André","municipio_nome":"Santo André"},"id":"149"},{"arcs":[[-331,-445,445,446,-334]],"type":"Polygon","properties":{"codigo":"150","nome":"Santo André","municipio_nome":"Santo André"},"id":"150"},{"arcs":[[-338,-447,447,448,449]],"type":"Polygon","properties":{"codigo":"151","nome":"São Bernardo do Cam","municipio_nome":"São Bernardo"},"id":"151"},{"arcs":[[-341,-450,450,451]],"type":"Polygon","properties":{"codigo":"152","nome":"São Bernardo do Cam","municipio_nome":"São Bernardo"},"id":"152"},{"arcs":[[-344,-452,452,453,454]],"type":"Polygon","properties":{"codigo":"153","nome":"Diadema","municipio_nome":"Diadema"},"id":"153"},{"arcs":[[-347,455,-351,-349]],"type":"Polygon","properties":{"codigo":"154","nome":"Jabaquara","municipio_nome":"São Paulo"},"id":"154"},{"arcs":[[-353,-456,456,457,458]],"type":"Polygon","properties":{"codigo":"155","nome":"Santo Amaro","municipio_nome":"São Paulo"},"id":"155"},{"arcs":[[-354,-459,459,460,461,-359,-356]],"type":"Polygon","properties":{"codigo":"156","nome":"Santo Amaro","municipio_nome":"São Paulo"},"id":"156"},{"arcs":[[-360,-462,462,463,464,465,466]],"type":"Polygon","properties":{"codigo":"157","nome":"Santo Amaro","municipio_nome":"São Paulo"},"id":"157"},{"arcs":[[-361,-467,467,468,469,-363]],"type":"Polygon","properties":{"codigo":"158","nome":"Butantã","municipio_nome":"São Paulo"},"id":"158"},{"arcs":[[-364,-470,470,471,472,-367]],"type":"Polygon","properties":{"codigo":"159","nome":"Butantã","municipio_nome":"São Paulo"},"id":"159"},{"arcs":[[-368,-473,473,474,-382,-380,-378]],"type":"Polygon","properties":{"codigo":"160","nome":"Butantã","municipio_nome":"São Paulo"},"id":"160"},{"arcs":[[-384,475,476,477,478]],"type":"Polygon","properties":{"codigo":"161","nome":"Vila Jaguara","municipio_nome":"São Paulo"},"id":"161"},{"arcs":[[-385,-479,479]],"type":"Polygon","properties":{"codigo":"162","nome":"Vila Jaguara","municipio_nome":"São Paulo"},"id":"162"},{"arcs":[[-386,-480,-478,480,481,482,-387]],"type":"Polygon","properties":{"codigo":"163","nome":"Pirituba","municipio_nome":"São Paulo"},"id":"163"},{"arcs":[[-388,-483,483,484,485]],"type":"Polygon","properties":{"codigo":"164","nome":"Pirituba","municipio_nome":"São Paulo"},"id":"164"},{"arcs":[[-389,-486,486,487,-391]],"type":"Polygon","properties":{"codigo":"165","nome":"Nossa Senhora do Ó","municipio_nome":"São Paulo"},"id":"165"},{"arcs":[[-397,488,-487,-485,489,490]],"type":"Polygon","properties":{"codigo":"166","nome":"Brasilândia","municipio_nome":"São Paulo"},"id":"166"},{"arcs":[[-392,-488,-489,-396,-394]],"type":"Polygon","properties":{"codigo":"167","nome":"Vila Nova Cachoeiri","municipio_nome":"São Paulo"},"id":"167"},{"arcs":[[-398,-491,491,492,493]],"type":"Polygon","properties":{"codigo":"168","nome":"Brasilândia","municipio_nome":"São Paulo"},"id":"168"},{"arcs":[[-306,-407,-405,-401,494,495]],"type":"Polygon","properties":{"codigo":"169","nome":"Guarulhos","municipio_nome":"Guarulhos"},"id":"169"},{"arcs":[[-496,496,497,498]],"type":"Polygon","properties":{"codigo":"170","nome":"Guarulhos","municipio_nome":"Guarulhos"},"id":"170"},{"arcs":[[-307,-499,499,500,501,502]],"type":"Polygon","properties":{"codigo":"171","nome":"Guarulhos","municipio_nome":"Guarulhos"},"id":"171"},{"arcs":[[-502,503,504,505,506,507,508]],"type":"Polygon","properties":{"codigo":"172","nome":"São Miguel Paulista","municipio_nome":"São Paulo"},"id":"172"},{"arcs":[[-507,509,510]],"type":"Polygon","properties":{"codigo":"173","nome":"São Miguel Paulista","municipio_nome":"São Paulo"},"id":"173"},{"arcs":[[-308,-503,-509,511,512,-408]],"type":"Polygon","properties":{"codigo":"174","nome":"Ermelino Matarazzo","municipio_nome":"São Paulo"},"id":"174"},{"arcs":[[-431,513,-512,-508,-511,514,515,516]],"type":"Polygon","properties":{"codigo":"175","nome":"São Miguel Paulista","municipio_nome":"São Paulo"},"id":"175"},{"arcs":[[-432,-517,517]],"type":"Polygon","properties":{"codigo":"176","nome":"Itaquera","municipio_nome":"São Paulo"},"id":"176"},{"arcs":[[-409,-513,-514,-430,-422,-417,-414]],"type":"Polygon","properties":{"codigo":"177","nome":"Ermelino Matarazzo","municipio_nome":"São Paulo"},"id":"177"},{"arcs":[[-433,-518,-516,518,519]],"type":"Polygon","properties":{"codigo":"178","nome":"Itaquera","municipio_nome":"São Paulo"},"id":"178"},{"arcs":[[-434,-520,520,521,522,523,-436]],"type":"Polygon","properties":{"codigo":"179","nome":"Guaianazes","municipio_nome":"São Paulo"},"id":"179"},{"arcs":[[-437,-524,524,525,526,527,-439]],"type":"Polygon","properties":{"codigo":"180","nome":"Mauá","municipio_nome":"Mauá"},"id":"180"},{"arcs":[[-527,528,529,530]],"type":"Polygon","properties":{"codigo":"181","nome":"Mauá","municipio_nome":"Mauá"},"id":"181"},{"arcs":[[-440,-528,-531,531,532,-443]],"type":"Polygon","properties":{"codigo":"182","nome":"Santo André","municipio_nome":"Santo André"},"id":"182"},{"arcs":[[-444,-533,533,534,535,-446]],"type":"Polygon","properties":{"codigo":"183","nome":"Santo André","municipio_nome":"Santo André"},"id":"183"},{"arcs":[[-448,-536,536,537]],"type":"Polygon","properties":{"codigo":"184","nome":"São Bernardo do Cam","municipio_nome":"São Bernardo"},"id":"184"},{"arcs":[[-449,-538,538,539,-453,-451]],"type":"Polygon","properties":{"codigo":"185","nome":"São Bernardo do Cam","municipio_nome":"São Bernardo"},"id":"185"},{"arcs":[[-345,-455,540,541,542]],"type":"Polygon","properties":{"codigo":"186","nome":"Diadema","municipio_nome":"Diadema"},"id":"186"},{"arcs":[[-346,-543,543,544,545,-457]],"type":"Polygon","properties":{"codigo":"187","nome":"Santo Amaro","municipio_nome":"São Paulo"},"id":"187"},{"arcs":[[-458,-546,546,547,548,-460]],"type":"Polygon","properties":{"codigo":"188","nome":"Santo Amaro","municipio_nome":"São Paulo"},"id":"188"},{"arcs":[[-461,-549,549,-463]],"type":"Polygon","properties":{"codigo":"189","nome":"Santo Amaro","municipio_nome":"São Paulo"},"id":"189"},{"arcs":[[-464,-550,-548,550,551,552,553]],"type":"Polygon","properties":{"codigo":"190","nome":"Socorro","municipio_nome":"São Paulo"},"id":"190"},{"arcs":[[-465,-554,554,555,556]],"type":"Polygon","properties":{"codigo":"191","nome":"Santo Amaro","municipio_nome":"São Paulo"},"id":"191"},{"arcs":[[-466,557,558,-468]],"type":"Polygon","properties":{"codigo":"192","nome":"Taboão da Serra","municipio_nome":"Taboão da Serra"},"id":"192"},{"arcs":[[-557,559,560,561,562,-558]],"type":"Polygon","properties":{"codigo":"193","nome":"Taboão da Serra","municipio_nome":"Taboão da Serra"},"id":"193"},{"arcs":[[-469,-559,-563,563,-471]],"type":"Polygon","properties":{"codigo":"194","nome":"Butantã","municipio_nome":"São Paulo"},"id":"194"},{"arcs":[[-562,564,565,566,567,-564]],"type":"Polygon","properties":{"codigo":"195","nome":"Osasco","municipio_nome":"Osasco"},"id":"195"},{"arcs":[[-472,-568,568,569]],"type":"Polygon","properties":{"codigo":"196","nome":"Osasco","municipio_nome":"Osasco"},"id":"196"},{"arcs":[[-474,-570,570,571,572]],"type":"Polygon","properties":{"codigo":"197","nome":"Osasco","municipio_nome":"Osasco"},"id":"197"},{"arcs":[[-567,573,574,575,-571,-569]],"type":"Polygon","properties":{"codigo":"198","nome":"Osasco","municipio_nome":"Osasco"},"id":"198"},{"arcs":[[-383,-475,-573,576,-476]],"type":"Polygon","properties":{"codigo":"199","nome":"Osasco","municipio_nome":"Osasco"},"id":"199"},{"arcs":[[-477,-577,-572,-576,577,578,579,580,-481]],"type":"Polygon","properties":{"codigo":"200","nome":"Osasco","municipio_nome":"Osasco"},"id":"200"},{"arcs":[[-482,-581,581,582,583,584]],"type":"Polygon","properties":{"codigo":"201","nome":"Jaraguá","municipio_nome":"São Paulo"},"id":"201"},{"arcs":[[-484,-585,585,586,-492,-490]],"type":"Polygon","properties":{"codigo":"202","nome":"Jaraguá","municipio_nome":"São Paulo"},"id":"202"},{"arcs":[[-493,-587,587,588,589,590]],"type":"Polygon","properties":{"codigo":"203","nome":"Caieiras","municipio_nome":"Caieiras"},"id":"203"},{"arcs":[[-498,591,592,593,-500]],"type":"Polygon","properties":{"codigo":"204","nome":"Arujá","municipio_nome":"Arujá"},"id":"204"},{"arcs":[[-501,-594,594,595,596,597,-504]],"type":"Polygon","properties":{"codigo":"205","nome":"Itaquaquecetuba","municipio_nome":"Itaquaquecetuba"},"id":"205"},{"arcs":[[-505,-598,598,599]],"type":"Polygon","properties":{"codigo":"206","nome":"São Miguel Paulista","municipio_nome":"São Paulo"},"id":"206"},{"arcs":[[-506,-600,-521,-519,-515,-510]],"type":"Polygon","properties":{"codigo":"207","nome":"São Miguel Paulista","municipio_nome":"São Paulo"},"id":"207"},{"arcs":[[-522,-599,600,601]],"type":"Polygon","properties":{"codigo":"208","nome":"Ferraz de Vasconcel","municipio_nome":"Ferraz de Vasconcelos"},"id":"208"},{"arcs":[[-597,602,603,-601]],"type":"Polygon","properties":{"codigo":"209","nome":"Poá","municipio_nome":"Poá"},"id":"209"},{"arcs":[[-604,604,605,606]],"type":"Polygon","properties":{"codigo":"210","nome":"Poá","municipio_nome":"Poá"},"id":"210"},{"arcs":[[-523,-602,-607,607,-525]],"type":"Polygon","properties":{"codigo":"211","nome":"Ferraz de Vasconcel","municipio_nome":"Ferraz de Vasconcelos"},"id":"211"},{"arcs":[[-526,608,609,610]],"type":"Polygon","properties":{"codigo":"212","nome":"Ribeirão Pires","municipio_nome":"Ribeirão Pires"},"id":"212"},{"arcs":[[-529,-611,611,612,613]],"type":"Polygon","properties":{"codigo":"213","nome":"Ribeirão Pires","municipio_nome":"Ribeirão Pires"},"id":"213"},{"arcs":[[-530,-614,614,615,616,-534,-532]],"type":"Polygon","properties":{"codigo":"214","nome":"Santo André","municipio_nome":"Santo André"},"id":"214"},{"arcs":[[-535,-617,617,618,-539,-537]],"type":"Polygon","properties":{"codigo":"215","nome":"São Bernardo do Cam","municipio_nome":"São Bernardo"},"id":"215"},{"arcs":[[-616,619,620,-618]],"type":"Polygon","properties":{"codigo":"216","nome":"São Bernardo do Cam","municipio_nome":"São Bernardo"},"id":"216"},{"arcs":[[-454,-540,-619,621]],"type":"Polygon","properties":{"codigo":"217","nome":"São Bernardo do Cam","municipio_nome":"São Bernardo"},"id":"217"},{"arcs":[[-541,-622,-621,622,623]],"type":"Polygon","properties":{"codigo":"218","nome":"São Bernardo do Cam","municipio_nome":"São Bernardo"},"id":"218"},{"arcs":[[-542,-624,624,625,626,-552,627,-544]],"type":"Polygon","properties":{"codigo":"219","nome":"Parelheiros","municipio_nome":"São Paulo"},"id":"219"},{"arcs":[[-545,-628,-551,-547]],"type":"Polygon","properties":{"codigo":"220","nome":"Socorro","municipio_nome":"São Paulo"},"id":"220"},{"arcs":[[-626,628,629]],"type":"Polygon","properties":{"codigo":"221","nome":"Embu-Guaçu","municipio_nome":"Embu Guaçu"},"id":"221"},{"arcs":[[-553,-627,-630,630,631,-555]],"type":"Polygon","properties":{"codigo":"222","nome":"Itapecerica da Serr","municipio_nome":"Itapecerica da Serra"},"id":"222"},{"arcs":[[-556,-632,632,633,-560]],"type":"Polygon","properties":{"codigo":"223","nome":"Embu","municipio_nome":"Embu"},"id":"223"},{"arcs":[[-561,-634,634,635,636,637,-565]],"type":"Polygon","properties":{"codigo":"224","nome":"Cotia","municipio_nome":"Cotia"},"id":"224"},{"arcs":[[-566,-638,638,639,-574]],"type":"Polygon","properties":{"codigo":"225","nome":"Carapicuiba","municipio_nome":"Carapicuiba"},"id":"225"},{"arcs":[[-575,-640,640,-578]],"type":"Polygon","properties":{"codigo":"226","nome":"Carapicuiba","municipio_nome":"Carapicuiba"},"id":"226"},{"arcs":[[-579,-641,641,642]],"type":"Polygon","properties":{"codigo":"227","nome":"Barueri","municipio_nome":"Barueri"},"id":"227"},{"arcs":[[-637,643,644,-642,-639]],"type":"Polygon","properties":{"codigo":"228","nome":"Jandira","municipio_nome":"Jandira"},"id":"228"},{"arcs":[[-636,645,646,-644]],"type":"Polygon","properties":{"codigo":"229","nome":"Itapevi","municipio_nome":"Itapeví"},"id":"229"},{"arcs":[[-580,-643,-645,-647,647,-582]],"type":"Polygon","properties":{"codigo":"230","nome":"Barueri","municipio_nome":"Barueri"},"id":"230"},{"arcs":[[-584,648,649,650]],"type":"Polygon","properties":{"codigo":"231","nome":"Perus","municipio_nome":"São Paulo"},"id":"231"},{"arcs":[[-589,-650,651,652]],"type":"Polygon","properties":{"codigo":"232","nome":"Caieiras","municipio_nome":"Caieiras"},"id":"232"},{"arcs":[[-586,-651,-588]],"type":"Polygon","properties":{"codigo":"233","nome":"Perus","municipio_nome":"São Paulo"},"id":"233"},{"arcs":[[-590,-653,653]],"type":"Polygon","properties":{"codigo":"234","nome":"Franco da Rocha","municipio_nome":"Franco da Rocha"},"id":"234"},{"arcs":[[-593,654,655,656,657,658,659,-595]],"type":"Polygon","properties":{"codigo":"235","nome":"Mogi das Cruzes","municipio_nome":"Mogi das Cruzes"},"id":"235"},{"arcs":[[-656,660,661]],"type":"Polygon","properties":{"codigo":"236","nome":"Mogi das Cruzes","municipio_nome":"Mogi das Cruzes"},"id":"236"},{"arcs":[[-657,-662,662,663]],"type":"Polygon","properties":{"codigo":"237","nome":"Mogi das Cruzes","municipio_nome":"Mogi das Cruzes"},"id":"237"},{"arcs":[[-658,-664,664,665]],"type":"Polygon","properties":{"codigo":"238","nome":"Mogi das Cruzes","municipio_nome":"Mogi das Cruzes"},"id":"238"},{"arcs":[[-659,-666,666,667]],"type":"Polygon","properties":{"codigo":"239","nome":"Mogi das Cruzes","municipio_nome":"Mogi das Cruzes"},"id":"239"},{"arcs":[[-596,-660,-668,668,669,-605,-603]],"type":"Polygon","properties":{"codigo":"240","nome":"Suzano","municipio_nome":"Suzano"},"id":"240"},{"arcs":[[-606,-670,670,671,-609,-608]],"type":"Polygon","properties":{"codigo":"241","nome":"Suzano","municipio_nome":"Suzano"},"id":"241"},{"arcs":[[-610,-672,672,-612]],"type":"Polygon","properties":{"codigo":"242","nome":"Rio Grande da Serra","municipio_nome":"Rio Grande da Serra"},"id":"242"},{"arcs":[[-173,-236,-322,-323,-237]],"type":"Polygon","properties":{"codigo":"243","nome":"Vila Formosa","municipio_nome":"São Paulo"},"id":"243"}]}}}