{"type":"Topology","arcs":[[[6800,7034],[125,-31]],[[6925,7003],[-30,-81],[7,-54],[32,-64]],[[6934,6804],[-7,-12]],[[6927,6792],[-79,8],[2,-52]],[[6850,6748],[-79,9]],[[6771,6757],[22,44],[-19,39],[-81,-37]],[[6693,6803],[-25,62],[0,81]],[[6668,6946],[19,34]],[[6687,6980],[78,53]],[[6765,7033],[35,1]],[[6925,7003],[66,-28],[57,-75]],[[7048,6900],[33,-53],[-53,-33],[-80,7],[-5,-29]],[[6943,6792],[-9,12]],[[6927,6792],[-33,-40]],[[6894,6752],[-44,-4]],[[6943,6792],[28,-29]],[[6971,6763],[-27,-77]],[[6944,6686],[-20,-40],[-55,-11],[-2,64]],[[6867,6699],[27,53]],[[6867,6699],[-45,-54],[-108,36]],[[6714,6681],[57,76]],[[6714,6681],[-18,-20]],[[6696,6661],[-24,-29],[-51,48],[31,21],[-5,55],[-27,37]],[[6620,6793],[73,10]],[[6620,6793],[-22,42]],[[6598,6835],[20,60]],[[6618,6895],[12,49]],[[6630,6944],[38,2]],[[6630,6944],[-56,3],[21,84]],[[6595,7031],[92,-51]],[[6595,7031],[11,28],[76,53],[26,0]],[[6708,7112],[57,-79]],[[6708,7112],[-7,12]],[[6701,7124],[7,31],[-59,114]],[[6649,7269],[12,0]],[[6661,7269],[217,-17]],[[6878,7252],[-6,-83],[-31,-35],[-41,-100]],[[6878,7252],[60,-4]],[[6938,7248],[-5,-148],[7,-55]],[[6940,7045],[-15,-42]],[[6938,7248],[90,4],[73,-47],[71,1],[52,-16]],[[7224,7190],[-54,-40],[-43,-53]],[[7127,7097],[-75,-66],[-112,14]],[[7127,7097],[61,-49],[-2,-98],[45,-39]],[[7231,6911],[-42,-11]],[[7189,6900],[-97,-23],[-44,23]],[[7189,6900],[96,-133],[22,-6]],[[7307,6761],[-12,-42],[-82,-23],[-21,-25],[10,-55]],[[7202,6616],[-69,4]],[[7133,6620],[-65,105],[-97,38]],[[7133,6620],[24,-87],[-19,-67],[-59,-44]],[[7079,6422],[-83,82],[-45,8],[-6,64]],[[6945,6576],[-1,110]],[[6945,6576],[-117,-74],[-78,27]],[[6750,6529],[-36,27]],[[6714,6556],[-18,105]],[[7079,6422],[-36,-26],[-30,-56],[-8,-60]],[[7005,6280],[-45,-39],[-43,11],[-82,62]],[[6835,6314],[-21,77],[-66,111],[2,27]],[[6835,6314],[-20,-34],[-77,-23],[-94,16]],[[6644,6273],[-49,116],[-93,60]],[[6502,6449],[64,65]],[[6566,6514],[72,67]],[[6638,6581],[23,16],[53,-41]],[[6638,6581],[-180,157]],[[6458,6738],[14,9]],[[6472,6747],[126,88]],[[6566,6514],[-67,54],[-34,0],[-65,59],[-61,36]],[[6339,6663],[119,75]],[[6472,6747],[-139,60]],[[6333,6807],[59,13],[12,50],[45,36],[17,46]],[[6466,6952],[37,4],[115,-61]],[[6466,6952],[36,112]],[[6502,7064],[31,4],[62,-37]],[[6502,7064],[-13,47],[22,38]],[[6511,7149],[94,-27],[96,2]],[[6333,6807],[-128,50]],[[6205,6857],[-39,10],[-96,88]],[[6070,6955],[-3,29],[93,124]],[[6160,7108],[29,35],[58,-9],[26,40]],[[6273,7174],[34,-11],[204,-14]],[[6273,7174],[11,27],[0,115]],[[6284,7316],[103,-14]],[[6387,7302],[262,-33]],[[6387,7302],[2,93],[88,114]],[[6477,7509],[59,-46],[88,-2],[17,29],[64,8]],[[6705,7498],[52,-89]],[[6757,7409],[-25,17],[-64,-32],[-7,-125]],[[6878,7252],[22,190],[-92,5],[-51,-38]],[[6705,7498],[66,25],[74,63],[38,-43],[73,-33]],[[6956,7510],[-4,-99]],[[6952,7411],[-12,-23],[-2,-140]],[[6952,7411],[60,51],[43,16],[41,115]],[[7096,7593],[170,0]],[[7266,7593],[-7,-42],[74,-55]],[[7333,7496],[-51,-81]],[[7282,7415],[19,-58],[0,-103],[-20,-114]],[[7281,7140],[-57,50]],[[7282,7415],[45,-17],[128,-87],[21,-34]],[[7476,7277],[-126,-167]],[[7350,7110],[-69,30]],[[7350,7110],[35,7]],[[7385,7117],[56,-29],[38,-120]],[[7479,6968],[-248,-57]],[[7479,6968],[20,-114],[26,-60]],[[7525,6794],[-49,-35],[-47,-55]],[[7429,6704],[-122,57]],[[7429,6704],[36,-15],[-7,-105],[11,-34],[50,-27]],[[7519,6523],[47,-110]],[[7566,6413],[-17,-6]],[[7549,6407],[-111,-4],[-49,22],[-103,5]],[[7286,6430],[-84,186]],[[7286,6430],[30,-59],[59,-77],[-60,-45],[-20,-46],[-50,-32],[-55,-68],[-20,-83]],[[7170,6020],[-36,44],[-49,17],[-21,143],[-59,56]],[[7170,6020],[8,-53],[57,-52]],[[7235,5915],[-37,-45],[-189,-28]],[[7009,5842],[-67,18],[-77,45],[-42,-1],[-89,42]],[[6734,5946],[-21,82],[-76,126],[7,119]],[[6734,5946],[10,-88],[-111,-39]],[[6633,5819],[-47,76],[-79,28]],[[6507,5923],[-48,43],[-96,57],[-89,116]],[[6274,6139],[43,71]],[[6317,6210],[54,26]],[[6371,6236],[103,4]],[[6474,6240],[142,50],[28,-17]],[[6317,6210],[-70,23],[-27,109],[-3,61]],[[6217,6403],[2,5]],[[6219,6408],[76,23],[86,42]],[[6381,6473],[21,-79],[-29,-107],[-2,-51]],[[6502,6449],[-25,-18]],[[6477,6431],[-81,51]],[[6396,6482],[-53,56],[-77,-74]],[[6266,6464],[-5,34],[-44,17],[-32,57]],[[6185,6572],[102,61]],[[6287,6633],[52,30]],[[6287,6633],[-53,78]],[[6234,6711],[-29,146]],[[6234,6711],[-67,-45],[-44,16],[-59,51]],[[6064,6733],[-64,72],[-58,41],[29,118]],[[5971,6964],[58,-18],[41,9]],[[5971,6964],[-48,46],[-56,11]],[[5867,7021],[14,39]],[[5881,7060],[50,71],[68,-19],[161,-4]],[[5881,7060],[-12,101],[20,53]],[[5889,7214],[66,44],[29,-6]],[[5984,7252],[108,-47],[118,-1],[63,-30]],[[5984,7252],[-77,44],[-44,86]],[[5863,7382],[103,-11],[75,13],[150,-17]],[[6191,7367],[93,-51]],[[5863,7382],[33,43],[11,72],[44,-2],[-33,80]],[[5918,7575],[89,71],[102,-6],[24,46]],[[6133,7686],[73,-21],[10,-46]],[[6216,7619],[3,-106],[-23,-29],[11,-51],[-16,-66]],[[6216,7619],[15,20]],[[6231,7639],[78,-8],[116,35]],[[6425,7666],[-13,-42],[24,-83],[41,-32]],[[6425,7666],[58,53]],[[6483,7719],[28,83],[80,34],[23,35]],[[6614,7871],[57,28]],[[6671,7899],[54,29],[116,31],[23,-35]],[[6864,7924],[6,-83],[-27,-50],[11,-74],[62,-54],[5,-71],[41,-50],[-6,-32]],[[6864,7924],[9,-9]],[[6873,7915],[59,-43],[90,-7],[50,-28],[69,-74]],[[7141,7763],[-42,-100],[-3,-70]],[[7141,7763],[60,10],[38,44],[38,93],[34,11],[31,59],[29,-8],[50,79]],[[7421,8051],[65,1],[15,-40],[90,30]],[[7591,8042],[52,-124],[43,-36],[24,-65]],[[7710,7817],[-34,45],[-149,-71],[-21,44],[-158,-117],[-43,-79],[-39,-46]],[[7710,7817],[-10,-86],[6,-74],[18,-28],[-24,-66],[-3,-64]],[[7697,7499],[-66,-49]],[[7631,7450],[-119,109],[-86,7],[-55,-53],[-38,-17]],[[7631,7450],[-155,-173]],[[7697,7499],[30,-41],[5,-45],[43,-28]],[[7775,7385],[-13,-41],[8,-98]],[[7770,7246],[-47,-44]],[[7723,7202],[-73,-13],[-57,-29],[-73,3],[-135,-46]],[[7723,7202],[28,-61],[51,-26],[66,-63]],[[7868,7052],[-120,-26]],[[7748,7026],[-269,-58]],[[7748,7026],[39,-146],[97,-13],[-18,-42],[7,-46]],[[7873,6779],[-30,-48],[-35,46],[-67,8],[17,-51],[-11,-38],[-43,-22]],[[7704,6674],[-40,19]],[[7664,6693],[-27,42],[-112,59]],[[7664,6693],[-48,-52],[5,-96]],[[7621,6545],[-49,8],[-53,-30]],[[7549,6407],[95,-131],[-29,-34],[-58,-6],[-7,-56]],[[7550,6180],[-60,2],[14,-60],[-14,-90]],[[7490,6032],[-83,20],[-43,24],[-45,-46],[-35,-67],[-47,0],[-2,-48]],[[7490,6032],[-31,-189],[24,-32]],[[7483,5811],[-40,-77],[18,-90]],[[7461,5644],[-25,-56],[-66,-51],[-144,-85],[-35,1],[-44,-37],[-55,-22],[-24,23]],[[7068,5417],[29,47],[-9,45],[24,109],[-12,64],[-88,48]],[[7012,5730],[-3,112]],[[7012,5730],[-78,-18],[-42,-37],[-9,-97],[-30,-96]],[[6853,5482],[-71,30],[-11,58]],[[6771,5570],[-8,152],[-74,59]],[[6689,5781],[-56,38]],[[6853,5482],[3,-57],[48,-83],[-33,-65],[21,-49]],[[6892,5228],[4,-93],[-30,-25],[-10,-82]],[[6856,5028],[-58,6],[-50,-19],[-17,-46]],[[6731,4969],[-21,88],[-46,16],[-111,96]],[[6553,5169],[50,21],[-35,49],[28,61],[-85,52],[-9,49]],[[6502,5401],[108,28],[24,-29],[47,49],[17,79],[64,17],[9,25]],[[6502,5401],[-69,77],[-48,117]],[[6385,5595],[-14,52],[53,68],[4,61],[22,19]],[[6450,5795],[79,-40],[59,-3],[2,-37],[48,-7],[18,62],[33,11]],[[6507,5923],[11,-98],[-68,-30]],[[6385,5595],[-55,67]],[[6330,5662],[-18,38],[-54,35],[-78,-21],[-94,66],[-28,37],[43,44],[14,49]],[[6115,5910],[33,45],[33,1],[65,66],[-30,43],[58,74]],[[6115,5910],[-77,22]],[[6038,5932],[16,117],[47,142]],[[6101,6191],[15,67]],[[6116,6258],[43,-44],[115,-75]],[[6116,6258],[24,92]],[[6140,6350],[24,-3],[53,56]],[[6140,6350],[-38,88],[-41,55]],[[6061,6493],[124,79]],[[6266,6464],[-47,-56]],[[6061,6493],[-51,62],[-31,86]],[[5979,6641],[85,92]],[[5979,6641],[-42,48],[-48,23]],[[5889,6712],[-231,116],[-6,12]],[[5652,6840],[-31,35]],[[5621,6875],[59,65]],[[5680,6940],[52,52],[51,1],[84,28]],[[5680,6940],[-3,27],[-78,92],[44,39],[33,-36],[58,47],[-42,33],[-6,43],[-50,28]],[[5636,7213],[22,12],[165,10],[66,-21]],[[5636,7213],[-31,37]],[[5605,7250],[80,25],[69,49],[30,46]],[[5784,7370],[79,12]],[[5621,6875],[-187,173],[-10,57],[-66,42]],[[5358,7147],[76,-2],[35,67]],[[5469,7212],[61,40],[75,-2]],[[5469,7212],[-55,-3],[-17,41],[-50,15],[-67,108]],[[5280,7373],[-13,34],[29,53],[51,25],[8,62],[-67,20]],[[5288,7567],[-55,27],[-6,34],[-44,82],[15,91]],[[5198,7801],[129,0],[67,-51],[9,46],[-9,81],[28,32]],[[5422,7909],[37,-82],[99,-59],[23,-112],[121,-179],[82,-107]],[[5422,7909],[-10,37]],[[5412,7946],[39,-9],[41,-54],[81,61],[-17,23],[303,76]],[[5859,8043],[-3,-62],[-85,-63],[-1,-49],[32,-46],[16,-113],[18,-42],[71,-36],[11,-57]],[[5412,7946],[-20,70]],[[5392,8016],[-42,211],[-15,37]],[[5335,8264],[72,19],[-22,46],[66,12],[16,-85],[41,-22],[148,34],[2,52],[37,46],[1,59],[49,7],[52,-40],[65,44],[19,-46],[-14,-64],[60,-37],[39,-85],[51,-51],[11,-33]],[[6028,8120],[-58,4],[-71,-18],[-40,-63]],[[6028,8120],[44,-37]],[[6072,8083],[56,-23],[30,-40],[58,-4],[53,-50],[36,-61]],[[6305,7905],[-30,-107],[-28,-54],[-52,-44],[-62,-14]],[[6305,7905],[44,28],[44,-3]],[[6393,7930],[112,58],[69,-38],[40,-79]],[[6483,7719],[-21,17],[-150,8],[-81,-105]],[[6072,8083],[15,142]],[[6087,8225],[29,-18],[74,3],[24,43],[100,20]],[[6314,8273],[-2,-32],[46,-17],[-36,-80],[16,-32],[-8,-66],[63,-116]],[[6314,8273],[38,23],[62,-11],[21,-52],[-23,-56],[32,-46],[28,49],[54,22],[71,-28],[11,24]],[[6608,8198],[-8,-105],[46,-58]],[[6646,8035],[-5,-74],[30,-62]],[[6873,7915],[6,81]],[[6879,7996],[78,52],[65,10],[184,-19],[-1,20],[132,18],[84,-26]],[[6879,7996],[-60,61],[36,127]],[[6855,8184],[31,-1],[40,56],[82,2],[31,42],[78,-18],[48,-68],[-6,-49],[83,5],[4,48],[41,48],[83,20],[50,46],[86,-27],[46,25],[34,-17],[56,17]],[[7642,8313],[-8,-102]],[[7634,8211],[-42,-95],[-1,-74]],[[7775,7385],[47,57],[35,-18],[35,21],[-1,73],[60,33],[-8,34],[105,77],[78,80],[23,49]],[[8149,7791],[222,-270],[53,-13],[3,-49]],[[8427,7459],[-247,-20],[8,-112]],[[8188,7327],[-35,11],[-73,-19],[-143,8]],[[7937,7327],[-25,-7],[-24,-56],[-118,-18]],[[7937,7327],[35,-247]],[[7972,7080],[-104,-28]],[[8188,7327],[101,-67],[-62,-45],[-42,-10],[58,-82]],[[8243,7123],[-59,-26]],[[8184,7097],[-112,-1],[-100,-16]],[[7868,7052],[23,-43],[53,-27],[75,-16],[76,-39],[64,-71],[87,-67]],[[8246,6789],[46,-61]],[[8292,6728],[-38,-74]],[[8254,6654],[-77,-26],[25,108],[-49,30],[-45,-86],[-77,40],[-49,7],[34,61],[-65,29],[-78,-38]],[[8184,7097],[40,-69],[116,-97],[79,-37]],[[8419,6894],[-102,-46],[-32,-56],[-39,-3]],[[8254,6654],[-20,-42],[-24,-113],[-65,-109]],[[8145,6390],[-72,25],[-24,-15]],[[8049,6400],[-57,59],[-115,31],[17,46],[-145,116]],[[7749,6652],[-45,22]],[[7566,6413],[78,3],[42,121]],[[7686,6537],[22,-1],[41,116]],[[8049,6400],[22,-88],[-60,-121],[144,-54],[39,-26],[-36,-63],[28,-37]],[[8186,6011],[-143,-9],[-161,107]],[[7882,6109],[-27,6],[-70,-80],[-60,19],[-175,126]],[[8149,7791],[65,5],[53,62],[64,26],[19,-14],[2,-81],[80,32],[156,-53],[51,23]],[[8639,7791],[78,33],[62,-53],[67,-11],[54,14],[26,-37],[-35,-42],[27,-52]],[[8918,7643],[-6,-9]],[[8912,7634],[-56,-82],[-78,-86],[-68,-41]],[[8710,7425],[-135,-7],[-63,12],[-61,-12],[-24,41]],[[8710,7425],[55,-317],[-3,-59]],[[8762,7049],[-44,-34],[-64,-15],[6,-29]],[[8660,6971],[-50,69],[-110,16],[-134,91],[-88,-6],[-35,-18]],[[8660,6971],[55,-85],[-9,-46]],[[8706,6840],[-50,-36]],[[8656,6804],[-50,-15],[-53,19],[-19,34],[-115,52]],[[8656,6804],[66,-31],[-2,-38],[40,-36],[0,-56],[-25,-30],[-62,-2],[-43,-109],[-57,-52],[-28,5]],[[8545,6455],[-18,19],[-74,15],[-52,64],[-1,49],[-58,82],[-50,44]],[[8545,6455],[-7,-95]],[[8538,6360],[-27,-41]],[[8511,6319],[-78,-18],[-166,62],[-70,35],[-52,-8]],[[8511,6319],[10,-64],[32,-65],[65,-53],[-53,-82],[-47,-31],[37,-148]],[[8555,5876],[-100,6],[-19,-12]],[[8436,5870],[-60,-6],[-49,37],[-20,39],[-121,71]],[[9007,7627],[122,18],[159,-15]],[[9288,7630],[25,-100],[-20,-75],[-30,-35],[4,-48]],[[9267,7372],[-64,0],[-29,38],[-55,-28],[-78,-4],[-48,58],[-40,8],[-18,69],[29,26],[43,88]],[[8912,7634],[95,-7]],[[9267,7372],[21,-79],[-5,-106],[9,-74],[24,-34]],[[9316,7079],[-16,-3],[-52,116],[-111,-3],[-34,-29]],[[9103,7160],[-57,54],[-25,64],[-40,-1],[-101,-66],[-30,-49],[-31,-90],[-57,-23]],[[9103,7160],[54,-96],[4,-65],[-61,-39],[15,-63],[4,-93],[-17,-27]],[[9102,6777],[-63,2],[-103,62],[-68,27],[-82,-16],[-6,-30],[-74,18]],[[9102,6777],[-8,-185],[58,-134]],[[9152,6458],[-2,-116],[-29,-63],[-31,-1]],[[9090,6278],[-102,-26],[-47,-23],[-156,0],[-68,50],[-74,6],[-47,55],[-58,20]],[[9090,6278],[38,-24],[-7,-37],[31,-117],[34,-73],[-23,-31],[-1,-73],[-43,-45],[47,-27],[6,-78],[-46,-52],[-57,-7],[-49,-57]],[[9020,5657],[-63,0],[-75,43],[-90,-5],[-34,67],[-19,91],[-70,36]],[[8669,5889],[-40,11],[-74,-24]],[[8918,7643],[59,-1],[15,52],[59,-3],[58,-21],[45,25],[22,89],[43,57],[52,-31],[12,59],[38,20],[62,-12],[116,35],[26,-52],[57,-38],[-13,-87],[58,-33],[22,41],[40,-10],[53,44],[49,-16],[25,39],[-4,60]],[[9812,7860],[43,25],[55,-117]],[[9910,7768],[-129,-69],[-79,-84],[-116,-16]],[[9586,7599],[-298,31]],[[9586,7599],[-26,-76],[50,-132],[23,-33],[16,-70],[62,-145]],[[9711,7143],[-54,-62],[-99,80],[-33,73],[-51,28],[-1,-111],[-26,-122],[27,-66]],[[9474,6963],[-85,27]],[[9389,6990],[-19,53],[-54,36]],[[9910,7768],[107,-203],[60,-88],[-19,-108]],[[10058,7369],[-56,7],[-37,-14],[0,-39],[-68,-9],[-69,-66],[-12,-65],[-72,-59],[-33,19]],[[9389,6990],[-23,-165],[56,-58],[10,-37]],[[9432,6730],[1,-41],[-57,-60],[-33,-83],[-42,-10],[-44,-64],[-105,-14]],[[9711,7143],[31,-143],[54,-39],[6,-54],[-92,-50]],[[9710,6857],[-87,-44],[-40,20],[-62,-72],[-60,-16]],[[9461,6745],[-17,23],[8,70],[46,121],[-24,4]],[[9432,6730],[29,15]],[[9710,6857],[26,-19],[14,-65],[27,-35],[73,-35],[53,8]],[[9903,6711],[-48,-94],[2,-28],[55,-69],[-56,-22],[48,-69],[-10,-65],[-41,-108],[4,-51],[-45,-5],[-40,-31],[-32,22],[-71,-52],[41,-50],[12,-42]],[[9722,6047],[-31,-48],[-4,-43],[-38,-37],[-64,-21],[-13,-34],[8,-80],[-80,-49],[-6,-39],[-76,-29],[-28,-50]],[[9390,5617],[-15,54],[-54,55],[-26,-53],[-123,-23],[-20,-22],[-78,5],[-54,24]],[[6856,5028],[-19,-29],[61,-55],[24,-76],[57,-38],[-3,-44],[89,-26]],[[7065,4760],[-12,-57],[-59,-50],[-47,-7]],[[6947,4646],[-170,-123],[-65,17],[-57,-5],[-3,61],[74,56],[15,55],[-91,-48],[-103,-3],[-48,32],[-17,43],[93,63],[54,25],[6,52],[28,50]],[[6663,4921],[68,48]],[[6663,4921],[-60,-64],[-76,-52],[-29,90],[-43,3],[-30,-59],[-52,-25]],[[6373,4814],[-167,63],[-60,83]],[[6146,4960],[112,143],[93,-34],[67,-41],[4,58],[25,101],[32,28]],[[6479,5215],[74,-46]],[[6479,5215],[-61,44],[-138,84],[-89,-7],[-44,13],[17,104]],[[6164,5453],[36,66],[-22,37],[18,33],[70,49],[64,24]],[[6146,4960],[-42,88],[-82,97]],[[6022,5145],[-80,147],[-5,24]],[[5937,5316],[51,52],[60,17],[97,64]],[[6145,5449],[19,4]],[[6145,5449],[-42,-3],[-42,58],[-95,62],[-234,25]],[[5732,5591],[7,30]],[[5739,5621],[127,155],[30,48],[109,56]],[[6005,5880],[33,52]],[[5937,5316],[-42,63],[-81,45]],[[5814,5424],[-66,84],[-16,83]],[[5739,5621],[-17,19],[-10,118],[22,62],[-5,99]],[[5729,5919],[13,26],[65,7]],[[5807,5952],[39,37],[33,-2],[26,-50],[39,-27],[38,7],[23,-37]],[[6373,4814],[-62,-34],[7,-56],[57,-14],[11,-83],[26,-17],[11,-66],[-61,-188],[-42,-80],[-5,-37]],[[6315,4239],[-74,-43],[-62,-92],[-63,-37],[-83,-31],[-90,-52],[-174,-2]],[[5769,3982],[0,72],[18,46],[-32,26],[-2,167]],[[5753,4293],[-7,572]],[[5746,4865],[-4,361]],[[5742,5226],[97,-29],[127,-69],[56,17]],[[5742,5226],[67,189]],[[5809,5415],[5,9]],[[5809,5415],[-137,60],[-52,-5]],[[5620,5470],[-113,5],[-29,59],[-172,-9],[-52,121],[-44,72],[-90,-2]],[[5120,5716],[10,37],[83,47],[77,110]],[[5290,5910],[49,-39],[23,-77],[86,-33],[66,15],[12,39],[66,51],[47,-15],[64,72],[26,-4]],[[6315,4239],[33,25],[52,-23],[50,-43],[18,-43],[-21,-94],[-67,-34],[-13,-37],[18,-52],[-41,-33],[-35,18],[-22,-87],[-83,-93],[-4,-53],[76,10],[43,23],[58,-46],[-4,-39],[-42,-73],[2,-57],[-49,-52],[-76,0],[-69,-45],[-24,-43],[-110,3],[10,-54],[-30,-30],[-39,-87],[12,-66],[43,-19],[-62,-62],[31,-40],[-35,-38],[41,-92],[-91,-110],[11,-27],[-57,-118],[-22,-82],[-79,-21],[-17,144],[-52,16],[-72,45],[-91,-16],[-32,-93],[-36,-30],[-63,-3],[-74,-103],[-19,-50],[31,-17],[-16,-59],[-53,-28],[-68,-12]],[[5176,2319],[0,477],[-21,33]],[[5155,2829],[-18,25],[7,132],[53,-23],[116,15],[22,97],[-19,42],[21,61]],[[5337,3178],[25,68],[-77,92],[9,66],[-62,108],[119,66],[-58,114],[74,35],[47,46],[44,69],[69,-20],[71,70],[116,75],[55,15]],[[5746,4865],[-287,0],[-104,8],[-42,-41],[-61,-25],[-36,37],[-20,-53],[-42,-28],[-48,59],[-45,-22],[-10,-38],[-102,-23]],[[4949,4739],[19,46],[-30,58],[-92,29],[51,34]],[[4897,4906],[37,12],[82,-12],[36,55],[-6,51],[53,3],[45,66],[91,12],[47,77],[33,85],[-2,47],[48,63]],[[5361,5365],[52,-60],[28,45],[94,41],[85,79]],[[4897,4906],[-58,128]],[[4839,5034],[25,57],[-3,41],[53,116],[-8,43],[20,37],[21,116],[-3,98]],[[4944,5542],[49,74],[61,53],[21,-3]],[[5075,5666],[17,-66],[-3,-116],[37,-22],[34,-86],[135,-13],[31,24],[35,-22]],[[6101,6191],[-193,-19],[-34,52],[-34,12],[-31,-44]],[[5809,6192],[-38,124],[-45,12],[-26,36],[-6,55]],[[5694,6419],[-1,75],[51,40]],[[5744,6534],[89,50],[33,-9],[27,37],[-4,100]],[[5652,6840],[-15,-59],[-115,-67],[-53,-8]],[[5469,6706],[-46,53],[-55,-10],[-37,91]],[[5331,6840],[-20,79],[14,48],[-20,35],[6,83]],[[5311,7085],[47,62]],[[5290,5910],[38,62],[88,50],[27,89],[-10,27],[-62,22],[-59,71]],[[5312,6231],[-47,32],[-18,55],[-61,66]],[[5186,6384],[66,-30],[141,-17],[72,6],[36,17],[94,9],[99,50]],[[5809,6192],[17,-48],[-40,-37],[25,-72],[-4,-83]],[[5186,6384],[20,52],[-49,5],[-46,104]],[[5111,6545],[49,9],[20,71],[38,30],[32,-20],[79,145],[2,60]],[[5469,6706],[122,-110],[-43,-27],[32,-44],[127,57],[37,-48]],[[5312,6231],[-10,-27],[-59,-42],[-87,-4],[-17,-41],[-40,15],[-121,-56],[-67,-4],[-134,-42],[-28,7]],[[4749,6037],[3,52],[-18,68],[43,155],[-9,59],[59,5]],[[4827,6376],[61,11],[59,71]],[[4947,6458],[37,2],[33,37],[43,-1],[24,53],[27,-4]],[[5213,8636],[-30,304]],[[5183,8940],[60,34],[112,-10]],[[5355,8964],[38,-43],[36,12],[176,-1],[22,-37],[117,-43],[35,-46],[-4,-36]],[[5775,8770],[-91,-3],[-82,-25],[-1,-86],[-34,-21],[-108,-5],[-50,44],[-54,-146],[-23,110],[-119,-2]],[[4539,8493],[-80,-40],[-8,-67],[-28,-6],[-45,63],[-25,-3],[-65,70],[-166,70],[23,83],[-43,43],[0,70],[-46,3],[-71,-18]],[[3985,8761],[-11,22],[36,64],[-3,56],[24,91],[49,36],[36,60],[-102,23],[-46,44],[-37,71],[-46,39],[-3,40],[-47,3],[-25,37],[62,49],[6,42],[49,0],[63,22],[50,40],[116,-23],[28,11],[66,65],[-5,106],[97,26],[-14,49],[-48,30],[71,67],[61,-58],[36,25],[41,-15]],[[4489,9783],[21,-11],[20,-75]],[[4530,9697],[-7,-597],[13,-330]],[[4536,8770],[-38,-105],[48,-56],[37,-67],[-44,-49]],[[5355,8964],[-47,152],[-52,48],[13,55],[-17,124],[-28,292]],[[5224,9635],[5,27],[85,43],[10,31],[51,25],[22,-20]],[[5397,9741],[62,-91],[42,-80],[-12,-153],[6,-35],[243,-19],[16,10]],[[5754,9373],[-6,-69],[35,-1],[60,-55],[67,-39],[108,-21],[7,-165],[-33,-22],[-34,-61],[-90,-43],[-23,-61],[-70,-66]],[[5397,9741],[-38,56],[-2,91],[-37,21],[-12,44],[20,108],[27,85]],[[5355,10146],[32,-6],[9,-57],[390,4],[73,98],[88,-27],[65,53],[19,33],[63,1]],[[6094,10245],[16,-11]],[[6110,10234],[103,-330],[-68,-61],[2,-44],[-38,-11],[-2,-61],[89,-35],[68,2],[44,-21],[93,1],[69,-48]],[[6470,9626],[-48,-196],[-46,-140]],[[6376,9290],[-51,-37],[-94,-34],[-47,44],[-27,-45],[-43,17],[-69,56],[-101,-9],[-43,47],[-85,55],[-62,-11]],[[5355,10146],[-25,-6],[-30,63],[-52,2],[-35,92]],[[5213,10297],[25,45],[-25,79],[17,38],[-1,92],[15,104]],[[5244,10655],[71,65],[56,-31],[64,67],[63,-32],[93,-21],[42,16]],[[5633,10719],[5,-43],[-26,-75],[33,-11],[65,44],[53,-31],[46,-96],[-1,-73],[48,-116],[115,36],[120,-40],[3,-69]],[[7523,9159],[-17,79],[-35,100],[-62,-2],[-26,43],[-43,9],[-83,-39],[-55,-5],[-45,37],[-28,99],[23,105],[59,46],[19,131],[-65,74],[-42,124],[6,54],[34,24],[-19,373],[-52,368],[94,-5],[17,14],[0,78],[25,36]],[[7228,10902],[63,-95],[-18,-79],[121,-131],[7,-28],[-34,-189],[-43,-57],[45,-67],[51,21],[37,-32],[95,12],[125,-12],[-6,-59],[84,-43],[48,-102],[33,-26],[45,11],[140,93],[-7,49],[127,33],[44,-28],[15,-58],[-96,13],[-24,-58],[17,-62],[-23,-19],[-25,-70],[34,-47],[-18,-89],[-63,-28],[-100,-116],[23,-28],[-38,-74],[-22,-152],[-26,-2]],[[7839,9383],[-50,-30],[-13,-36],[-88,-94],[-42,-21],[-54,-63],[-69,20]],[[7642,8313],[-27,71],[24,78],[-25,111],[18,50],[116,73],[4,76],[-42,54],[29,15],[43,66],[93,92]],[[7875,8999],[53,-54],[52,-76],[44,-23],[-15,-39],[37,-31],[45,52],[67,23],[39,42],[58,0],[3,-40],[60,-67],[29,-7],[109,106],[16,47],[34,3]],[[8506,8935],[119,-21],[13,-85],[-38,-56],[17,-53],[-36,-141],[-27,-40]],[[8554,8539],[-31,-37],[-36,-224]],[[8487,8278],[-142,5],[-92,-28],[-127,-6],[-123,-45]],[[8003,8204],[-68,-41],[-85,8],[-74,53],[-60,-34],[-82,21]],[[8003,8204],[37,-99],[63,-77],[10,-39]],[[8113,7989],[-37,-28],[-51,-2],[7,-57],[40,-3]],[[8072,7899],[-65,-113],[0,-27],[-112,-48],[-18,39],[-92,52],[-75,15]],[[8487,8278],[3,-33],[58,-142],[-3,-38]],[[8545,8065],[-63,-16],[-47,-44],[-129,-41],[-54,-39]],[[8252,7925],[-16,57],[-46,81],[-77,-74]],[[8252,7925],[-73,-16],[-107,-10]],[[8545,8065],[1,-38],[38,-64],[17,-115],[38,-57]],[[8506,8935],[-33,66],[42,54],[32,6],[70,89],[55,-61],[47,-81],[145,89],[69,65],[38,12],[37,52],[13,61],[28,5],[41,88]],[[9090,9380],[-8,74],[-40,32],[63,96],[51,19],[5,36],[44,21]],[[9205,9658],[73,-97],[64,-33],[26,-78],[2,-55],[136,-15],[42,5],[64,-109],[9,-69],[24,-32],[29,-153],[29,-39],[77,114],[68,-5],[105,46],[42,-1]],[[9995,9137],[4,-85],[-27,-82]],[[9972,8970],[-53,-23],[-13,-130],[46,-48],[1,-54],[39,-44],[-4,-45]],[[9988,8626],[-50,-9],[-282,-92],[-104,-30],[-158,7],[-68,20],[-140,-46]],[[9186,8476],[-73,125],[-65,-12],[-72,-57],[-181,43],[-52,29],[-91,-25],[-98,-40]],[[8545,8065],[54,23],[30,59],[143,55],[57,138],[113,50],[164,20],[80,66]],[[9988,8626],[45,-76],[8,-99],[93,-109]],[[10134,8342],[-51,35],[-42,-25],[-34,35],[-79,31],[-33,-30],[-36,12],[-59,-61],[46,-30],[-7,-55],[-50,-5],[-12,-41],[-90,-13],[43,-62],[2,-96],[41,-50],[39,-127]],[[9972,8970],[27,-55],[55,-31],[75,-13],[56,5],[109,42],[83,117],[92,28],[57,-61],[9,121],[19,10],[117,-3],[44,22],[26,-19],[13,-62],[36,-36],[129,5]],[[10919,9040],[-19,-39],[-74,-74],[-72,-19],[-10,-67],[-110,-25],[34,-58],[-58,-53],[61,-82]],[[10671,8623],[-33,-43],[-4,-43],[-44,-15],[-72,18],[-55,-10],[-85,12],[-124,40],[-63,-42],[-7,-57],[-31,-47],[-19,-94]],[[12000,9257],[-37,100],[-68,45],[-15,54],[12,58],[-59,45],[-30,51],[-72,-22],[-76,72],[-71,18],[-139,103],[194,225],[134,123],[91,-81],[71,18],[47,-73],[105,-28],[46,57],[32,64],[87,52],[33,-7],[67,-157],[38,-16],[16,-115],[-20,-43],[-57,-34],[-25,-86],[25,-25],[10,-61],[44,-63],[172,89]],[[12555,9620],[-56,-36],[-10,-156],[-37,-33],[-51,25],[-87,-11],[-46,20],[-74,-44],[-15,-48],[-38,11],[-48,-34],[-78,-31],[-15,-26]],[[10671,8623],[25,-8],[20,-70],[80,-9],[20,-31],[76,-64],[46,-7]],[[10938,8434],[-43,-49],[6,-158]],[[10901,8227],[-49,40],[-71,10],[-127,-28],[-93,-51],[-173,-171],[-95,-20],[-51,-39]],[[10242,7968],[-22,-4],[-77,-79],[-24,-51],[-63,14],[-6,-41],[-140,-39]],[[10242,7968],[24,-82],[-59,-45],[9,-50],[34,-55],[88,-49],[63,12],[21,-24],[-29,-84],[-9,-75],[18,-66]],[[10402,7450],[-133,-21],[-55,45],[-156,-105]],[[10901,8227],[-11,-43],[-89,-25],[77,-209],[31,-62],[43,34],[44,-5],[22,81]],[[11018,7998],[14,-49],[55,-104],[-3,-61],[-59,-1],[-40,-49],[-30,-3],[-80,-45],[3,-63],[40,-16]],[[10918,7607],[-78,-18],[-60,45],[-173,14],[-104,36],[-59,-64],[-3,-52],[56,-100]],[[10497,7468],[-95,-18]],[[10058,7369],[1,-70],[-26,-71],[20,-64],[53,-4],[21,-42],[43,-10],[29,-70]],[[10199,7038],[11,-76],[-35,-80],[46,-102],[-13,-22]],[[10208,6758],[-96,1],[-27,-39],[9,-117],[-94,7],[-97,101]],[[10497,7468],[46,-105],[-28,-51],[-1,-73],[-31,-120],[-1,-93],[-69,-53]],[[10413,6973],[-89,-9],[-46,68],[-79,6]],[[10918,7607],[68,-252],[44,-180],[82,18],[35,-29],[59,-8],[82,-36]],[[11288,7120],[13,-47],[-55,-4],[-32,-56],[-12,-62],[-109,-10],[1,-184],[-67,-100],[-44,-31]],[[10983,6626],[-3,-9]],[[10980,6617],[-16,-57],[26,-158],[-16,-65],[-65,-185],[-96,25],[-52,-40],[-49,31],[-38,63],[-54,-94],[-59,33],[-45,139],[-30,27],[59,81],[50,10],[48,63],[23,76],[-103,-41],[-123,23],[-49,67],[-49,23],[-21,35]],[[10321,6673],[28,27],[-4,95],[27,74],[-9,43],[50,61]],[[11288,7120],[30,23],[41,-24],[28,19],[41,-25],[-7,-43]],[[11421,7070],[6,-45],[100,-34],[57,-71],[-5,-26],[61,-75],[78,-40],[40,-59],[-7,-38]],[[11751,6682],[-44,-42],[-44,-136],[-119,-71],[-96,82],[-119,22],[-147,67],[-199,22]],[[11421,7070],[80,35],[36,70],[86,5],[26,44],[42,-26]],[[11691,7198],[1,-20],[97,-74],[113,-113],[27,-4],[89,-67],[38,-68],[60,-73],[41,9]],[[12157,6788],[9,-74],[-42,-115],[21,-151],[20,-27],[4,-139]],[[12169,6282],[-27,-20],[-35,58],[-1,45],[-30,66],[-107,38],[-63,10],[-66,40],[-28,36],[-61,127]],[[11691,7198],[70,2],[48,57],[-13,80],[28,45],[52,131],[54,-49],[182,84],[126,36]],[[12238,7584],[68,-27],[-19,-32],[14,-50],[68,-36],[5,-39],[80,-10],[45,-104],[45,-30],[11,-92],[51,-39]],[[12606,7125],[-230,-141],[-205,-170],[-14,-26]],[[12606,7125],[62,-11],[36,-29],[-21,-109],[27,-29],[36,24],[147,-28]],[[12893,6943],[-34,-61],[-7,-121],[-15,-43],[18,-56],[-20,-37],[-93,-95],[-10,-78],[-74,-26],[-48,-75],[-50,-12],[-20,-57],[-47,-20],[-36,-39],[-51,-19],[-67,-59],[-59,34],[-39,104],[-72,-1]],[[12238,7584],[353,133],[92,38],[186,151]],[[12869,7906],[49,-50],[31,-61],[-16,-34],[24,-49],[-129,-21],[-55,-53],[40,-122],[31,-62],[63,-2],[41,38],[61,3],[3,65],[63,5],[82,-122],[16,-40]],[[13173,7401],[-33,-12],[-11,-50],[-81,-100],[-2,-58],[-52,34],[-30,-44],[18,-54],[-35,-29],[13,-51],[-40,-21],[-27,-73]],[[12869,7906],[88,65],[70,7],[211,2],[38,50],[108,24],[67,-55],[69,19],[17,60],[-10,73],[64,5]],[[13591,8156],[172,-143],[52,-134],[34,-20],[-25,-97],[17,-63],[-145,-47],[6,-37],[-25,-97],[4,-58],[-32,-1],[-43,-53],[-35,28],[-43,-38],[7,-59]],[[13535,7337],[-99,63],[-27,53],[-73,-41],[-53,53],[-58,3],[-3,-76],[-49,9]],[[13591,8156],[-62,47],[-59,-23],[-82,9],[-122,-45],[-83,22],[-8,81],[-55,25],[-24,81],[-83,57],[-84,-17],[-58,-30],[-31,13],[-57,-41],[-66,71],[-87,68],[-35,47],[10,28],[140,105],[-1,71],[-68,53],[11,51],[-80,92],[-19,41],[-53,29],[-6,65],[30,52],[14,132],[37,41],[-31,75],[10,34],[-26,111],[-8,119]],[[12555,9620],[75,79],[41,20],[83,79],[80,36],[15,37],[85,26],[36,44],[98,68],[20,45],[122,-5],[25,21]],[[13235,10070],[26,-18],[7,-151],[-5,-65],[85,-57],[15,-32],[131,-103],[74,-6],[71,-98],[11,-66],[38,-60],[69,-26],[52,-93],[34,-13],[49,-105],[67,-88],[58,-51],[23,13],[56,-45],[59,0],[43,36],[83,-15],[44,24],[31,43],[61,-2],[29,-20],[36,-80],[-6,-25],[22,-122],[49,-76],[3,-38],[35,-87],[58,-21],[69,5],[33,-115],[51,2],[29,28],[60,-38],[48,-112],[18,-70],[29,-37],[55,-23],[17,-37],[0,-76],[-72,-119],[0,-40],[-40,-22],[-19,-42],[-59,-41],[66,-63],[60,-100],[10,-73],[-80,-50]],[[14918,7600],[-131,-71],[-37,-42],[-87,-148],[-103,-30]],[[14560,7309],[-58,5],[-52,-31],[-64,-85],[-74,-22],[-50,4],[-53,-27],[-52,10],[-20,41],[-52,22],[-49,-36],[10,-50],[-71,-87],[-130,-15],[-16,-25],[-73,2],[-147,55],[-33,32],[-14,102],[42,12],[3,50],[-72,71]],[[14560,7309],[39,-46],[46,-7],[-1,-56],[45,-77],[-41,-29],[24,-50],[43,-28],[51,28],[73,9],[34,-71],[-22,-33],[40,-71],[-1,-338],[347,-6],[95,-253],[7,-54],[-16,-71],[-32,-50],[-59,-57],[-57,-30],[-73,-95],[-79,-77],[-3,-52],[84,17],[12,-27],[87,47],[31,-37],[105,-29],[6,-27],[-91,-53],[-11,-40],[60,-56],[-73,-86],[47,-42],[87,48],[66,12],[9,-107],[43,-13]],[[15482,5402],[10,-88],[-15,-64],[-58,-23],[-22,-33],[50,-99],[-53,-15],[-4,-44],[-60,-57],[-59,-35],[-80,8],[-23,-20],[-79,-15],[-78,55],[16,53],[-139,-39],[-46,3],[-20,36],[-169,-64],[-68,-81],[-62,7],[-88,-58],[-54,-14],[-25,-43],[-71,-41],[-100,-14],[-29,-37],[-49,-17],[-134,0],[-57,30],[-91,21],[-121,-98],[8,-31],[-32,-47],[-155,-54],[-55,-7],[-98,7],[-57,-29],[-59,-11],[-51,55],[5,29],[55,36],[50,1],[-47,66],[37,65],[-46,6]],[[13259,4702],[81,129],[32,75],[115,241],[17,55],[-4,128],[-11,64],[-67,-19],[-34,9],[-65,-32],[-67,23],[53,61],[3,114],[72,63],[-3,50],[36,77],[-76,211],[32,29],[39,76],[13,89],[-15,119],[-28,67],[16,46],[-12,87],[21,25],[12,74],[-15,70],[-70,107],[-48,16],[-41,65],[-39,22],[-82,17],[19,85],[-5,125],[65,103],[75,53],[-48,101],[-57,74]],[[14918,7600],[70,-17],[41,-25],[46,67],[134,19],[182,-66],[34,-1],[55,-71],[67,-5],[99,28],[11,33],[80,46],[47,7],[52,48],[62,-12],[77,53],[38,-3],[55,87],[214,57],[29,78],[53,10],[26,28],[53,-51],[6,-86],[96,-68],[112,-33],[25,-19],[21,-77],[20,-22],[59,38],[49,-11],[63,30],[29,37],[46,-23],[37,6],[-4,-60],[13,-65],[-24,-58],[27,-34],[117,-3],[83,29],[33,-39],[38,6],[73,-23],[10,-24],[-30,-62],[32,-35],[-8,-42],[67,-26],[0,-57],[30,-56],[39,-24],[36,-52],[-20,-64],[5,-135],[61,-53],[6,-40],[-61,-25],[34,-73],[48,-33],[65,15],[36,-49],[-17,-38],[-49,-3],[-48,-119],[81,-15],[-4,-51],[-59,-51],[-50,-77],[44,-25],[129,37],[48,42],[55,-26],[-14,-89],[79,-22],[102,76],[38,-16],[24,-86],[-19,-11],[44,-88],[16,-100],[42,-86],[-61,-21],[-93,-154],[-45,39],[-53,-28],[-70,-85],[-56,-26],[-31,-43],[-62,-14],[-24,-55],[-69,-92],[-142,-36],[-109,-2],[-80,-94],[-107,-53],[-71,19],[-25,31],[-44,-44],[-51,-3],[-47,85],[-86,-15],[-46,13],[-75,-13],[-56,26],[-109,4],[-42,53],[-55,2],[27,68],[48,23],[-23,99],[21,52],[-74,43],[-53,2],[-48,58],[-43,0],[-58,-36],[-26,-91],[-31,-24],[-66,37],[-51,-25],[-24,33],[-59,-37],[-95,13],[-41,-45],[-54,-3],[-40,22],[-47,-21],[-84,-97],[-50,9],[-69,-42],[-23,18]],[[9390,5617],[-5,-56],[49,-21],[-8,-49],[20,-66],[62,-58],[11,-38],[57,-33],[44,-76]],[[9620,5220],[-27,-53],[-38,-13],[-38,-58],[-118,84]],[[9399,5180],[-56,-1],[-33,-28],[-10,-63],[-51,-2],[-11,-33],[-72,-70],[-51,-25]],[[9115,4958],[-63,114],[-12,58]],[[9040,5130],[38,20],[30,76],[-4,48],[29,76],[-61,7],[-87,-9],[-48,37],[-62,-23],[-35,-39]],[[8840,5323],[-48,50],[-172,-26]],[[8620,5347],[-78,63],[-45,-6]],[[8497,5404],[-22,34],[46,23],[33,64],[125,35],[-52,119],[33,125],[9,85]],[[9040,5130],[-57,12],[-56,-22],[-91,2],[4,201]],[[9115,4958],[-25,-34],[-15,-70],[-130,-47],[-28,-45],[-39,-11],[-26,-61],[-74,-42]],[[8778,4648],[-40,-15],[-74,39],[3,63],[-28,5]],[[8639,4740],[-38,-7],[-31,38],[14,40],[-6,101],[19,38],[41,22],[0,51],[35,31]],[[8673,5054],[32,84],[-15,111],[-38,30],[-32,68]],[[9399,5180],[-62,-154],[-6,-57],[27,-57],[73,51],[30,41],[96,-68],[78,47],[84,-8],[9,26],[66,75],[32,-22],[51,16],[85,-53],[3,-81],[-17,-44],[50,-75],[-10,-40]],[[9988,4777],[-22,-32],[-69,47],[-35,-23],[-6,-51],[33,-43],[-20,-74],[-51,-17]],[[9818,4584],[-53,20],[-64,-14],[-37,-95],[-33,5]],[[9631,4500],[-125,-60]],[[9506,4440],[-87,37],[-45,38],[-6,65],[-65,49],[29,35],[-10,44],[10,74],[-30,26],[-45,-33],[-22,49],[27,15],[-51,75],[-96,44]],[[9818,4584],[-52,-36],[-9,-49],[12,-79],[29,-49],[35,19],[44,-17],[49,46],[105,51],[89,-82],[46,-9]],[[10166,4379],[-20,-43],[35,-39],[-25,-51],[-67,-49],[-18,10],[-74,-42],[-39,-55],[-72,-5],[-57,-46],[-43,3],[-54,-51],[-41,8],[-123,-33]],[[9568,3986],[-12,140],[29,74],[-18,54],[36,47],[41,-6],[2,89],[-15,116]],[[8497,5404],[-25,-8],[-143,32]],[[8329,5428],[10,79],[-8,94],[-52,-25],[-93,41],[40,64]],[[8226,5681],[98,72],[3,92],[88,-5],[21,30]],[[8226,5681],[-171,19],[-31,-15]],[[8024,5685],[-104,184]],[[7920,5869],[-58,88]],[[7862,5957],[53,24],[-33,128]],[[8024,5685],[-24,-17],[30,-62],[-91,-57],[15,-46],[-8,-53],[61,-54]],[[8007,5396],[-72,-120],[-55,-31],[-53,38]],[[7827,5283],[-23,56],[-108,169],[-39,26]],[[7657,5534],[29,47],[50,37],[60,-43],[40,54],[24,169],[60,71]],[[8329,5428],[-7,-57],[-108,-50],[-44,-8],[-98,74],[-65,9]],[[8673,5054],[-77,9],[-75,37],[-69,-28],[-30,44],[-46,-23],[-101,-7],[-55,7],[-31,25],[-77,-17],[-86,-62],[-30,-7]],[[7996,5032],[-67,61],[-64,-12]],[[7865,5081],[-46,13],[-13,48],[21,55],[0,86]],[[8639,4740],[-14,-25],[-73,-47],[-93,37],[-46,-41],[1,-40],[-65,-71],[-71,-27]],[[8278,4526],[-23,47],[-3,69],[-40,41],[16,49],[30,22],[16,49],[-44,54],[-67,1],[-39,-22],[-56,40]],[[8068,4876],[-39,51],[-33,105]],[[7862,5957],[-74,-50],[-130,-7],[0,-91],[12,-37],[-90,2],[-50,32],[-47,5]],[[7657,5534],[-86,-7],[-110,117]],[[7827,5283],[-214,-40],[-77,-3]],[[7536,5240],[-103,-18],[-64,-46],[-71,46],[-32,36]],[[7266,5258],[38,92],[-56,11],[-96,-90],[-47,40],[-37,106]],[[7865,5081],[-43,-31],[-65,-2],[-33,-34],[-48,25],[54,-176]],[[7730,4863],[-33,22],[-157,-19],[-30,-49],[-107,-46],[-27,42]],[[7376,4813],[31,90],[105,90],[-5,103],[14,34],[-26,36],[41,74]],[[8068,4876],[-44,-44],[-6,-157],[-33,-36],[6,-61],[-32,-39],[-86,34],[-38,1],[-79,73],[-21,44],[-5,172]],[[8278,4526],[-49,-110],[32,-22],[7,-60],[-32,-50],[-83,-16],[-7,-25]],[[8146,4243],[-26,-27],[-77,6],[-43,-16],[-19,62],[-54,17],[-93,-68],[-53,25],[-91,-27],[-129,-62],[-41,-34],[-52,2],[-36,-57],[-49,-21],[-88,259],[-84,150]],[[7211,4452],[-14,76],[13,91],[53,38],[10,47],[102,72],[1,37]],[[8146,4243],[67,-20],[42,8],[72,39],[21,-17],[55,56],[120,-61],[90,-114]],[[8613,4134],[-101,-71],[-24,-31],[-118,-64],[-82,43],[-85,-6],[-143,-114],[-114,-78],[-54,-16],[-171,-5],[-98,-15],[-107,-35],[-218,-110],[-78,-8],[-216,1]],[[7004,3625],[6,80],[-36,109],[-221,264],[-50,109],[-15,132],[-39,136]],[[6649,4455],[61,-11],[89,9],[66,-62],[42,17],[72,-18],[54,-35],[33,20],[68,1],[25,49],[52,27]],[[7211,4452],[-29,81],[41,201]],[[7223,4734],[19,135],[-19,107],[-60,101],[35,19],[-7,53],[34,4],[33,39],[-19,39],[27,27]],[[6892,5228],[45,61],[11,113],[33,-32],[58,47],[29,0]],[[7223,4734],[-56,-12],[-24,62],[-78,-24]],[[6649,4455],[161,60],[137,131]],[[5155,2829],[-59,-10],[-168,117],[-144,16]],[[4784,2952],[-168,28],[-29,63],[-51,23],[56,59],[7,89],[-73,60],[-44,60],[-14,85],[-4,125],[-46,67],[-16,138]],[[4402,3749],[8,55],[52,-23],[46,28],[43,79],[45,58],[60,20],[46,-25],[39,22],[58,-5],[59,-36],[43,-2],[49,43],[57,20]],[[5007,3983],[13,18],[115,-9],[28,-11]],[[5163,3981],[-55,-54],[-107,-65],[-29,-66],[3,-45],[28,-64],[-62,-74],[-17,-70],[-51,-27],[-22,-81],[60,-40],[70,1],[101,-24],[170,-107],[85,-87]],[[5176,2319],[-32,-23],[-107,-16],[-140,7],[-26,75],[-69,22]],[[4802,2384],[-58,73],[-8,60],[30,39],[-42,51],[14,72],[37,15],[-3,153],[14,15],[-2,90]],[[5120,5716],[-45,-50]],[[4944,5542],[-351,138],[60,30],[6,34],[40,30],[2,65],[26,43],[-22,70],[18,62]],[[4723,6014],[23,23]],[[4746,6037],[3,0]],[[4839,5034],[-157,-38],[-69,23],[-33,47],[1,61],[-49,28],[-68,-31],[-71,-14],[-101,-36],[-27,-49],[-58,33],[-62,4]],[[4145,5062],[26,90],[12,106],[30,70],[-102,83],[-31,9],[-12,115],[49,-10],[36,-39],[58,22],[-18,52],[35,58],[-27,44],[67,34],[111,104]],[[4379,5800],[58,41],[52,1],[105,75],[22,65],[107,32]],[[4949,4739],[2,-84],[14,-63],[-39,-108],[-41,-56],[35,-55],[-3,-47],[69,-28],[12,-49],[131,-59],[25,-37],[74,-1],[22,-46]],[[5250,4106],[-2,-70],[-85,-55]],[[5007,3983],[-16,55],[-92,15],[-66,-40],[-75,-11],[-79,41],[-36,67],[4,50],[-101,-17],[-37,-37],[-97,-34],[-47,86],[-37,9],[-62,55],[-43,-96],[-109,27],[-55,74],[-57,11],[-27,55],[-57,1],[0,76],[21,38],[-9,86],[-44,16],[-22,60],[137,224],[52,44],[27,44],[65,180]],[[4402,3749],[-54,-15],[-2,-47],[-27,-39]],[[4319,3648],[-53,59],[-54,11],[-123,49],[-49,42],[-44,-36],[-72,-7],[-37,-36],[-49,-2],[-42,-59],[-50,2],[-49,-34],[-91,53],[-47,5],[-35,32],[-79,14],[-131,41],[-100,17]],[[3214,3799],[10,48],[35,31],[-27,76],[27,8],[50,74],[-18,66],[15,45],[-15,97],[-31,44],[28,103],[58,40]],[[3346,4431],[56,39],[56,8],[95,87],[64,109],[25,196],[39,114],[-5,53],[33,46],[-10,53],[30,69],[25,-7],[39,53]],[[3793,5251],[37,-43],[43,-9],[30,-50],[84,-53],[23,-51],[115,33],[20,-16]],[[4767,1939],[37,-123],[23,-135]],[[4827,1681],[-49,-22],[-47,23],[-38,-48],[-38,6],[-101,-86],[75,-85],[-24,-28],[-123,0],[-37,-20],[-41,-70],[-60,-2],[-22,-61],[-107,-81],[-73,-20],[-22,-49],[-62,-19],[-64,3],[-46,-59],[-34,-16],[0,-62],[38,-74],[82,-97],[36,-1],[25,-86],[-9,-34],[46,-55],[-54,-54],[-81,-56],[-80,10],[-32,-76],[-77,-92],[6,-33],[-87,-109],[-112,-82],[-57,18],[-9,49],[-64,-2],[-38,39],[-22,-53],[-38,21],[-80,94],[15,35],[-42,40],[-35,-40],[2,-44],[-90,-14],[-62,-55],[-79,16],[-31,-22],[-51,34],[-7,-46],[29,-76],[-44,-24],[2,-61],[-61,-21],[-42,-34],[-89,48],[-34,55],[-25,-15],[-67,35],[-42,64],[-24,-43],[-64,-40],[-11,-40],[-45,-26],[-156,109],[-58,20],[-14,37],[20,51],[-10,51],[-45,2],[-19,51],[4,60],[-58,20],[-29,34],[-25,67],[-52,28],[-56,124],[-55,24],[-43,-5],[-17,-43],[-52,-55],[-26,-70],[-25,-14],[-121,32],[-115,65],[-42,-8],[-19,95],[-82,67],[7,84],[-50,19],[-49,46],[-66,-12],[-75,-42],[-33,-37],[-16,-81],[-32,-25],[-165,-65],[-34,28],[-70,0],[-52,46],[-140,39],[-57,9],[-31,-19],[-95,2],[-27,23],[-79,-16],[-60,46],[11,49],[37,50],[-67,105],[8,53],[-60,77],[-63,8],[-22,54],[-35,34],[42,64],[105,22],[30,68],[-44,0],[-17,45],[-37,28],[2,76],[16,38],[44,-30],[59,5],[29,53],[-39,54],[-4,63],[50,-24],[52,12],[41,-83],[23,47],[37,16],[62,-39],[143,26],[-15,66],[40,53],[4,39],[65,51],[43,73],[36,5],[13,46],[52,64],[-39,28],[69,81],[1,59],[-23,24],[-1,53],[55,29],[-24,41],[29,32],[46,8],[-6,38],[-45,25],[31,66],[-2,89],[62,18],[16,76],[60,59],[12,115],[83,-17],[33,-44],[65,-33],[65,44],[86,-20],[127,49],[25,-13],[59,28],[59,-21],[12,62],[70,-49],[54,-15],[76,7],[9,30],[54,47],[76,21],[59,-93],[50,-36]],[[2135,2881],[57,-67],[45,-25],[86,-99],[46,-25],[36,-51],[56,-19],[3,-31],[51,-43],[54,-139],[28,-122],[67,-12],[51,30],[3,30],[79,47],[80,-77],[44,-21],[30,-69],[67,3],[29,-97],[32,-45],[-2,-121],[44,-97],[51,-49],[73,23],[76,-67],[54,-20],[102,36],[41,-55],[28,42],[45,0]],[[3591,1741],[41,-39],[75,-34],[78,37],[24,69],[43,-12],[68,66],[76,1],[33,-56],[8,-62],[65,33],[35,0],[42,-37],[21,-45],[61,44],[54,13],[74,-20],[69,49],[53,-4],[50,24],[32,49],[61,10],[21,62],[43,39],[49,11]],[[4379,5800],[-116,85]],[[4263,5885],[-7,146],[-43,30],[-67,76],[71,63],[-29,52],[0,39],[51,31],[-8,38],[39,17]],[[4270,6377],[46,4],[-2,62],[108,16],[55,-54],[78,-45],[43,0],[33,32]],[[4631,6392],[9,-72],[38,-11],[0,-68],[-42,-57],[20,-77],[63,-18],[27,-52]],[[4263,5885],[-69,2],[-33,101],[-41,-45],[-42,-13],[-63,-76],[-105,7],[-41,29],[-53,-10],[-1,-31],[-46,-42],[-82,-43],[-124,-45],[-31,-97],[23,-26],[-56,-61],[-64,-106],[0,-76]],[[3435,5353],[-112,-30]],[[3323,5323],[-69,73],[-56,7],[-107,-58],[-52,31],[-52,-21],[-2,62],[-124,15],[-9,45],[-66,15],[-80,49],[-33,-62],[-81,-7],[-29,53]],[[2563,5525],[5,124],[29,45],[-17,26],[6,97],[-17,78],[15,34],[-35,84]],[[2549,6013],[52,6],[41,79],[115,-15],[90,31],[56,-15],[50,74],[0,82]],[[2953,6255],[98,58],[23,79],[73,63],[6,58],[156,91],[64,6],[27,-17],[100,32]],[[3500,6625],[45,-57],[52,-20],[130,18],[66,-18],[130,51]],[[3923,6599],[9,-57],[74,-20],[54,-77],[94,-33],[43,-38],[28,20],[45,-17]],[[3346,4431],[6,81],[-71,48],[-48,84],[-28,1],[-59,167],[32,45],[5,76],[46,7],[47,35],[66,-2],[-9,65],[24,26],[-43,62],[22,71],[25,12],[-38,114]],[[3435,5353],[139,-66],[49,-6],[6,-52],[99,-7],[22,30],[43,-1]],[[2509,5202],[7,-37],[-29,-59],[-40,-32],[-81,-33],[-81,-94],[-13,-66],[24,-55],[59,-42],[66,-1],[39,-47],[-16,-59],[-61,-60],[37,-52],[-18,-58],[40,-30],[-26,-124],[-57,-58],[23,-98],[-11,-34],[16,-123],[-54,-49],[-5,-131],[37,-46],[-34,-90],[-53,-7],[-35,-70]],[[2243,3647],[-40,28],[-15,138],[-33,46],[-69,28],[-20,71],[48,34],[5,58],[-49,3],[-34,32],[3,86],[32,63],[-10,79],[-70,13],[-49,-28],[-71,62],[-33,122],[-61,77],[-20,77],[-55,44],[-10,62],[50,33],[-51,164],[19,89],[-96,29],[-77,-7],[-30,57],[10,44],[-52,22],[-39,49],[33,39],[-16,87],[13,46],[103,41],[2,73],[76,-4],[66,30],[43,98],[-25,106]],[[1721,5738],[45,3],[46,-27],[97,-20],[23,-72],[31,-7],[76,-71],[81,4],[41,-20],[27,-92],[46,-62],[86,-6],[73,-69],[49,29],[46,-4],[-1,-74],[22,-48]],[[2563,5525],[-15,-34],[71,-56],[-14,-74],[-24,-8],[-4,-80],[-58,-38],[-10,-33]],[[1721,5738],[31,33],[7,81],[85,17],[28,57],[56,30],[36,106],[32,46],[-8,30]],[[1988,6138],[78,-16],[55,30],[67,-16],[27,56],[82,-30],[69,-94],[75,-14],[54,-87],[54,46]],[[4947,6458],[-13,72],[29,79],[68,-29],[33,28],[-20,104],[-119,47],[56,182],[10,137]],[[4991,7078],[84,-85],[89,-25],[71,-36],[96,-92]],[[4991,7078],[-45,67]],[[4946,7145],[34,29]],[[4980,7174],[102,-33],[111,-78],[77,-21],[41,43]],[[4980,7174],[-3,70],[100,139],[-48,19],[1,40],[122,8],[128,-77]],[[4827,6376],[-27,158],[-28,51],[-93,17],[-39,-20]],[[4640,6582],[-7,75],[-27,32],[2,65],[-33,73],[16,30]],[[4591,6857],[-5,45],[33,19],[19,172],[-9,72]],[[4629,7165],[130,8],[60,-31],[110,-6],[17,9]],[[4629,7165],[-11,43]],[[4618,7208],[36,69],[72,36],[6,65],[-52,70],[-3,31],[85,117],[9,59],[53,15],[-16,72]],[[4808,7742],[90,-34],[112,-114],[54,-7],[22,-30],[202,10]],[[3923,6599],[8,63],[53,1],[-19,91],[92,2],[49,49],[-17,71]],[[4089,6876],[69,13],[92,-15],[57,-71]],[[4307,6803],[8,-42],[-27,-34],[-18,-81],[12,-41],[52,-19],[86,60],[60,-42],[44,12],[116,-34]],[[4640,6582],[18,-27],[-27,-163]],[[4307,6803],[48,-32],[53,0],[32,110],[93,-1],[58,-23]],[[4089,6876],[-5,179],[25,44],[-26,37],[98,116]],[[4181,7252],[91,3],[61,27],[38,46],[34,-1],[92,-123],[28,-21],[71,-6],[22,31]],[[4181,7252],[9,75],[-87,70],[-3,49],[-66,46],[-14,92],[-80,49],[-46,87]],[[3894,7720],[104,28],[35,-43],[44,-19],[121,-15],[57,35],[68,-22],[57,6],[40,-17],[122,48],[94,-39],[19,-33],[80,27],[15,50],[-4,64],[75,68]],[[4821,7858],[11,-10]],[[4832,7848],[10,-75],[-34,-31]],[[4089,6876],[-61,-47],[-59,-27],[-53,21],[-64,-56],[-58,-13],[-56,41],[15,60],[-18,51],[-37,39]],[[3698,6945],[28,74],[-5,47],[-33,64],[-71,13],[-73,54],[-40,-34],[-65,50],[-2,72],[-88,-37],[-72,36]],[[3277,7284],[287,194],[27,89]],[[3591,7567],[93,19],[4,51],[64,19],[10,99],[-8,31],[39,38],[49,-11],[4,-34],[48,-59]],[[3698,6945],[-30,-48],[-18,-79],[7,-60],[-45,14],[-62,-50]],[[3550,6722],[-25,51],[-31,0],[-53,61],[-21,63],[24,34],[-14,54],[-50,56],[-3,77],[-26,33],[-57,-13],[-26,40],[-1,100]],[[3267,7278],[10,6]],[[2953,6255],[-32,58],[-75,81],[-74,-55],[-46,46],[57,35],[55,121],[-53,8],[-181,69],[-72,8],[-62,-25],[-66,7],[-81,89]],[[2323,6697],[35,23],[-37,54],[-32,1],[-32,110],[12,69],[88,40],[95,23],[75,58],[-15,38],[-57,46],[6,79],[37,69],[-15,37]],[[2483,7344],[62,-9],[53,62],[57,-13],[106,43],[65,9],[-1,37]],[[2825,7473],[49,-19],[45,-51],[47,-19],[113,4],[30,-35],[138,-82],[20,7]],[[3550,6722],[-50,-97]],[[4539,8493],[6,-52],[73,-52],[19,-50],[42,-47],[20,-55],[18,-133],[28,-50],[22,-107],[54,-52],[0,-37]],[[3591,7567],[-44,7],[-78,-12],[-34,43],[-87,-1],[-63,29],[-43,-24],[-55,3],[-81,31],[-156,-19],[3,-34],[-46,-46],[-57,-22],[-25,-49]],[[2483,7344],[-28,-3],[-86,59],[10,41],[-41,33],[-59,93],[-34,80],[-51,10],[54,71],[-32,72],[25,19],[31,71],[6,69],[-28,46],[33,100],[-52,55],[-61,12],[-33,40],[-89,-19],[-38,62],[-54,31]],[[1956,8286],[88,-1],[92,42],[70,5],[68,-15],[47,26],[97,5],[42,19],[115,-49],[141,94],[52,45],[30,50],[30,107],[91,14],[38,-12],[32,66],[82,67],[-95,61],[27,53],[30,15],[79,-3],[55,80],[82,-25]],[[3249,8930],[132,-27],[96,-39],[93,-89],[128,4],[75,19],[-1,27],[72,-3],[109,-63],[32,2]],[[1956,8286],[29,23],[7,73],[-40,74],[-40,15],[0,76],[50,55],[-33,113],[38,25],[-1,39],[-49,66],[-28,69],[10,47],[45,27],[22,53],[36,-12],[41,32],[-13,60],[-94,49],[-21,81],[5,51],[-39,84],[107,47],[49,42],[123,7],[45,57],[89,42],[83,-10],[24,68],[43,18],[29,-30],[104,9],[93,58],[27,-11],[44,53],[52,10],[24,28],[47,-56],[112,40],[63,-4],[57,61],[54,-6]],[[3150,9809],[-6,-6],[6,-315],[-57,-85],[8,-50],[27,-13],[52,-64],[51,-13],[19,76],[61,-12],[94,15],[43,44],[52,-43],[73,-37],[-8,-99],[-41,-37],[-54,4],[-6,-30],[-66,-53],[-80,-22],[-52,6],[-49,-38],[32,-107]],[[6381,6473],[15,9]],[[6477,6431],[10,-29],[-19,-140],[6,-22]],[[7686,6537],[-65,8]],[[6608,8198],[57,-22]],[[6665,8176],[13,-46],[53,-53],[-51,-51],[-34,9]],[[6665,8176],[81,2],[73,31],[36,-25]],[[5198,7801],[-74,48],[2,96],[-75,2]],[[5051,7947],[3,28],[61,41],[-5,78],[65,2],[-1,106],[33,16],[28,-109],[71,-2],[45,-88],[41,-3]],[[5051,7947],[-20,-25],[-51,3],[-22,31],[-52,21],[-32,-15],[-6,-65],[-36,-49]],[[4536,8770],[72,24],[106,-2],[26,37],[52,17],[61,-94],[52,34],[80,-58],[38,16],[-20,51],[40,22],[37,-13],[24,30],[58,-9],[8,111],[13,4]],[[5213,8636],[72,-143],[19,-170],[31,-59]],[[5775,8770],[10,-34],[49,-32],[62,1],[9,-90],[16,-32],[94,-10],[16,-86],[70,6]],[[6101,8493],[9,-95],[19,-55],[-42,-118]],[[6101,8493],[79,-47],[25,68],[-11,22],[100,67],[64,-53],[33,9]],[[6391,8559],[62,-71],[63,-34],[40,-52],[55,27],[34,-3],[114,23],[59,-16],[102,78],[42,18],[-3,37],[115,30],[-22,47],[35,32],[-8,44],[29,66],[61,78],[63,14],[2,48],[-23,39],[35,31],[55,16],[66,61],[82,50],[22,43],[52,-6]],[[7839,9383],[74,-18],[44,-49],[39,-15]],[[7996,9301],[-23,-83],[-91,-89],[7,-94],[-14,-36]],[[7004,3625],[3,-77],[-9,-236],[-88,-102],[-36,-79],[3,-94],[20,-157],[30,-39],[61,-23],[110,-76],[-6,-113],[11,-36],[-7,-107],[-13,-37],[14,-109],[20,-41],[13,-84],[66,-29],[-40,-46],[5,-78],[39,-23],[-19,-40],[16,-42],[-51,-123],[-38,3],[13,-75],[97,-19],[-19,-51],[9,-77],[-35,-48],[39,-28],[15,-45],[-30,-32],[8,-60],[-28,-24]],[[7177,1378],[-18,-35],[-40,17],[-70,-53],[-65,-25],[-86,-48],[-8,-53],[24,-43],[-1,-59],[46,-37],[-97,-42],[-28,-46],[-83,-27],[-54,-4],[-50,75],[-51,23],[-36,53],[-83,-10],[-92,5],[-38,-14],[-49,23],[-25,45],[-92,-12],[-28,-55],[-86,-32],[-39,21],[-37,-65],[-98,-12],[-39,40],[-132,-45],[-70,51],[-56,0],[-72,-28],[-75,-121],[-84,-36],[-57,-4],[-27,-47],[-60,47],[12,44],[64,30],[30,108],[38,35],[13,56],[28,39],[46,106],[-57,-2],[-39,70],[-13,64],[-33,27],[-57,-7],[-48,57],[18,84],[-93,22],[-54,89],[-52,11],[-42,-30],[-30,42],[-56,6],[-31,25],[-38,-20]],[[4767,1939],[-18,130],[24,64],[41,59],[27,109],[-34,32],[-5,51]],[[5753,4293],[-122,1],[-73,-18],[-38,11],[-59,52],[-88,7],[-62,-25],[-25,-39],[-3,-124],[-33,-52]],[[3150,9809],[65,120],[59,14],[39,45],[46,-35],[27,23],[46,-12],[83,6],[105,56],[23,40],[66,18],[35,63],[9,59],[27,18],[77,10],[14,60],[158,73],[26,-47],[106,-28],[77,31],[89,-71]],[[4327,10252],[-54,-48],[28,-151],[55,-26],[20,-53],[70,-6],[87,-43],[6,-25],[-56,-65],[6,-52]],[[4530,9697],[45,-98],[90,14],[124,-63],[8,-41],[92,-12],[57,22],[45,-73],[64,31],[-11,82],[6,49],[48,34],[105,7],[21,-14]],[[6376,9290],[29,-91],[-3,-56],[45,-26],[48,12],[2,-80],[50,-67],[-35,-40],[49,-60],[-60,-99],[-40,-44],[-40,-73],[-30,-107]],[[4327,10252],[48,22],[-8,68],[48,27],[122,-17],[71,-26],[8,74],[85,23],[46,59],[-8,94],[12,83],[107,-42],[32,-86],[93,35]],[[4983,10566],[66,-97],[17,-72],[60,-66],[87,-34]],[[6110,10234],[90,83],[4,28],[-39,48],[63,11],[26,56],[177,65],[148,25],[62,59],[67,24],[36,46]],[[6744,10679],[13,-1]],[[6757,10678],[-1,-78],[-48,-11],[-85,-115],[7,-32],[-143,-30],[-4,-66],[81,-19],[25,-53],[50,19],[14,-117],[91,-55],[30,-32],[-4,-52],[-117,-67],[15,-83],[-85,-46],[-103,-27],[0,-41],[34,-47],[-37,-28],[-7,-72]],[[4983,10566],[1,48],[67,59],[30,-29],[62,-14],[101,25]],[[5633,10719],[45,38],[69,-7],[43,-34],[50,-1],[80,37],[103,-37],[-8,-31],[53,-32],[48,28],[36,-13],[42,18],[46,-40],[45,-16],[50,69],[71,-30],[82,-9],[44,-17],[59,35],[103,36],[50,-34]],[[6757,10678],[35,16],[46,-27],[57,28],[36,-3],[0,175],[55,44],[-9,40],[45,81],[-6,43],[77,31],[37,-20],[28,-103],[18,6]],[[7176,10989],[39,-43],[13,-44]],[[7176,10989],[90,-23],[53,-2],[96,60],[167,-13],[48,-38],[77,20],[74,-8],[10,-56],[70,-18],[60,12],[139,-16],[70,46],[98,10],[2,-87],[20,-80],[127,26],[27,-61],[102,-31],[70,-87],[46,-27],[9,-55],[34,-7],[34,-80],[39,-21],[20,-72],[86,20],[45,39],[-15,74],[26,15],[53,-36],[73,42],[116,-38],[59,-80],[-34,-47],[123,-115],[-4,-46],[29,-41],[-4,-38],[23,-61],[28,-22],[21,-63],[45,-10]],[[9428,9974],[-25,-31],[-63,-4],[8,-43],[-28,-50],[-42,-30],[-57,-75],[21,-69],[-37,-14]],[[9090,9380],[-78,2],[-82,21],[-64,-15],[-66,7],[-65,-62],[-89,-5],[-54,43],[-9,90],[-22,25],[-93,20],[-51,-40],[-55,13],[-65,-71],[-62,20],[-57,-4],[-62,-57],[-95,-44],[-25,-22]],[[9428,9974],[41,81],[35,39],[23,57],[39,-15],[33,26],[-6,38],[32,25],[-12,64],[61,54],[62,-24],[72,16],[1,56],[30,47],[80,5],[68,37],[98,27]],[[10085,10507],[-11,-79],[20,-49],[58,-79],[-17,-55],[20,-72],[-3,-48],[-26,-33],[41,-65],[-33,-84],[18,-76],[28,-49],[45,-35],[46,-9],[101,12],[29,-68],[-38,-14]],[[10363,9704],[-29,-83],[-28,-8],[-32,-80],[-68,-31],[-61,-60],[-6,-38],[-92,-77],[-59,-26],[-22,-80],[39,-56],[-10,-28]],[[10363,9704],[36,0],[61,70],[197,82],[37,-19],[62,44],[75,-25],[41,-77],[5,-56],[60,-21],[-25,-51],[24,-99],[-15,-107],[7,-59],[-19,-21],[4,-110],[164,-176]],[[11077,9079],[-95,6],[-63,-45]],[[11077,9079],[90,-83],[61,-73],[81,-63],[41,-16],[32,-65],[91,5]],[[11473,8784],[-31,-47],[13,-75],[-74,-45],[-2,-26],[-48,-44],[-11,-47],[-34,-2],[-52,-42],[-31,0]],[[11203,8456],[-42,-36],[-57,-6],[-63,-26],[-63,8],[-40,38]],[[12000,9257],[-15,-32],[-71,-29],[-8,-40],[-55,-2],[-61,-101],[-44,27],[-70,-87],[-109,-33],[-13,-111],[-41,-88],[-40,23]],[[10085,10507],[45,13],[-24,71],[68,29],[74,134],[1,25],[101,44],[38,-13],[22,42],[57,16],[17,52],[111,93],[52,85],[38,12],[30,63],[-6,40],[44,73],[3,35],[-39,43],[-13,49],[27,33],[-16,40],[55,30],[27,-14],[128,61],[79,52],[21,80],[40,7],[156,-90],[62,54],[40,7],[60,-17],[29,-30],[49,43],[64,-12],[82,3],[24,-38],[57,1],[36,-84],[65,-14],[138,-104],[37,-47],[80,3],[30,-30],[16,-70],[-12,-34],[58,-31],[51,-48],[99,-39],[39,-45],[65,15],[44,-33],[94,-43],[43,9],[15,-56],[-34,-26],[-14,-59],[20,-37],[-14,-84],[126,-44],[-41,-40],[-16,-139],[27,-32],[59,15],[79,-86],[-10,-33],[33,-60],[114,2],[33,-33],[69,55],[74,-2],[-28,-96],[14,-100],[28,9],[51,-34],[52,-2],[27,-76]],[[11203,8456],[-12,-77],[-19,-16],[0,-98],[-26,-26],[12,-40],[-77,-105],[-69,-18],[6,-78]],[[10208,6758],[-27,-67],[34,-22],[7,-111]],[[10222,6558],[-39,-103],[-63,-7],[-11,-52],[-35,-54],[-23,-90],[-49,-106],[-14,-53],[-92,-57],[-36,-55]],[[9860,5981],[-11,31],[-55,35],[-72,0]],[[10321,6673],[-59,-115],[-40,0]],[[10980,6617],[142,-149],[73,-65],[81,-121],[20,-140],[13,-32],[52,-40],[-29,-54],[2,-59],[-38,-112],[88,-160],[-8,-37],[42,-67],[0,-48],[-41,-52],[21,-17],[-21,-59],[2,-91],[-32,-9],[-51,-115],[-26,-103],[-58,-15],[-58,-35],[-44,-57],[-111,-44],[-92,-84],[35,-77],[-14,-59],[17,-37],[-22,-80],[-112,-113],[-17,-55],[-54,-63],[-93,-51],[-17,10]],[[10630,4327],[57,70],[-87,65],[-44,75]],[[10556,4537],[15,54],[-16,64],[6,67],[36,127],[-59,17],[7,-47],[-33,-28]],[[10512,4791],[-15,58],[2,108],[-58,75],[9,111],[-29,66],[-77,43],[-66,87],[-81,36],[-20,37],[37,155],[23,7],[-15,85],[12,62],[-43,-3],[-75,-59],[-43,-9],[-67,41],[-41,-12],[-37,77],[-17,87],[-41,79],[-10,59]],[[13259,4702],[-49,75],[-131,-127],[-15,-29],[-100,82],[-60,-110],[-46,2],[-136,-40],[-40,-74],[-65,-30],[-65,35],[-43,-29],[-60,33],[-73,-64],[-26,-52],[-1,-62],[-60,22],[-51,-13],[-56,-112],[-189,38],[4,84],[-36,35],[-82,-29],[-96,71],[-49,21],[-60,-1],[-54,20],[-41,-66],[-66,-78],[14,-82],[-21,-59],[-85,-41],[2,-23],[-51,-74],[-151,-24],[-25,19],[-55,-24]],[[11141,3996],[-58,43],[-16,107],[-34,44],[-75,69],[-50,-20],[-55,3],[-33,33],[-37,-2],[-84,51],[-26,-26],[-43,29]],[[9860,5981],[-47,-46],[-59,-82],[-21,-123],[-53,-80],[-13,-55],[15,-90],[23,-40],[55,-153],[-13,-48],[-127,-44]],[[10512,4791],[-27,47],[-42,-27],[8,-61],[-98,-70],[-34,23],[-99,-34],[-41,49],[-84,73],[-64,-41],[-43,27]],[[9506,4440],[-25,-17],[22,-62],[-39,-87],[-15,-72],[16,-73],[-18,-29],[-109,-30],[-11,-42]],[[9327,4028],[-80,-32],[-56,22],[-47,-55],[-70,-4],[-31,17],[-61,77],[57,60],[-58,50],[21,46],[-43,39],[-54,74],[-96,66],[6,41],[39,36],[-11,113],[-42,16],[-23,54]],[[10556,4537],[-68,9],[-44,29],[-18,-91],[-81,-55],[-104,-13],[-23,-33],[-52,-4]],[[9568,3986],[-115,-54],[-28,23],[-68,-5],[2,57],[-32,21]],[[11141,3996],[-64,-99],[-102,-70],[-48,-73],[-42,14],[-102,-86],[-21,-40],[-92,-70],[-1,256],[-47,-29],[-48,5],[-74,44],[-81,-17],[-72,-68],[-75,-1],[-74,-43],[-123,-18],[-51,17],[-61,-39],[38,-35],[-41,-90],[-101,-78],[-92,-51],[-42,12],[-92,-4],[-61,-51]],[[9572,3382],[-45,-11],[-89,43],[-65,-6],[-72,90],[33,42],[-94,39],[-19,-16],[-91,53],[-89,74],[-45,94],[-46,4],[-55,74],[-30,12],[-80,75],[-16,47],[-67,52],[-89,86]],[[9572,3382],[-69,-101],[-46,-11],[-4,64],[-50,-53],[-90,-45],[-38,33],[-44,-26],[-37,-60],[29,-28],[-37,-51],[36,-47],[5,-44],[-56,-85],[-96,-28],[-49,-34],[-4,-30],[-54,-101],[-58,55],[-8,-91],[-42,-89],[-28,-9],[-28,-66],[-47,-18],[-49,-64],[-39,18],[-42,-31],[-44,-57],[-11,-88],[-106,-99],[-68,4],[-79,-21],[-70,6],[-19,-77],[-44,-51],[-71,-23],[-26,-108],[-84,-13],[-37,-60],[-141,-138],[-36,-83],[-86,-13],[-33,12],[-30,-79],[-43,-43],[-50,-4],[-78,-59],[-106,-61],[-154,-22],[-34,15]],[[3591,1741],[68,95],[54,12],[28,70],[72,63],[-2,38],[28,67],[-11,48],[10,62],[78,93],[120,-16],[39,42],[21,55],[69,5],[21,94],[33,80],[56,72],[23,83],[1,67],[-21,44],[-91,-16],[-40,35],[-54,-24],[-112,43],[-58,47],[-62,70],[-71,6],[-52,56],[81,37],[66,99],[-29,54],[2,61],[56,18],[16,94],[-26,37],[-8,55],[42,67],[96,-21],[92,-37],[66,36],[-3,61],[89,-14],[41,69]],[[2135,2881],[65,77],[17,58],[86,13],[-6,45],[18,91],[-38,46],[-11,44],[34,46],[54,-1],[27,-22],[70,44],[49,-3],[64,46],[58,12],[22,68],[-34,41]],[[2610,3486],[-10,34],[64,5],[30,29],[12,73],[-30,59],[84,92],[73,44],[75,-52],[-33,-55],[89,-80],[2,-36],[87,0],[27,24],[10,51],[92,4],[21,36],[-15,54],[26,31]],[[2610,3486],[-55,-34],[-101,32],[-56,42],[-47,81],[-44,-14],[-64,54]],[[1988,6138],[29,28],[33,70],[1,98],[75,46],[0,53],[-52,64],[29,44],[74,12],[20,33],[57,22],[15,51],[54,38]]],"transform":{"scale":[8.471998036147566,8.424147357884365],"translate":[275324.3577260376,7337077.257400859]},"objects":{"zonas_1987_s":{"type":"GeometryCollection","geometries":[{"arcs":[[0,1,2,3,4,5,6,7,8,9]],"type":"Polygon","properties":{"codigo":"1","nome":"Se","municipio_nome":"São Paulo"},"id":"1"},{"arcs":[[-2,10,11,12]],"type":"Polygon","properties":{"codigo":"2","nome":"Bras","municipio_nome":"São Paulo"},"id":"2"},{"arcs":[[-4,13,14]],"type":"Polygon","properties":{"codigo":"3","nome":"Tabatinguera","municipio_nome":"São Paulo"},"id":"3"},{"arcs":[[-3,-13,15,16,17,18,-14]],"type":"Polygon","properties":{"codigo":"4","nome":"Glicerio","municipio_nome":"São Paulo"},"id":"4"},{"arcs":[[-5,-15,-19,19,20]],"type":"Polygon","properties":{"codigo":"5","nome":"Liberdade","municipio_nome":"São Paulo"},"id":"5"},{"arcs":[[-6,-21,21,22,23]],"type":"Polygon","properties":{"codigo":"6","nome":"Bexiga","municipio_nome":"São Paulo"},"id":"6"},{"arcs":[[-7,-24,24,25,26,27]],"type":"Polygon","properties":{"codigo":"7","nome":"Consolacao","municipio_nome":"São Paulo"},"id":"7"},{"arcs":[[-8,-28,28,29]],"type":"Polygon","properties":{"codigo":"8","nome":"Santa Cecilia","municipio_nome":"São Paulo"},"id":"8"},{"arcs":[[-9,-30,30,31]],"type":"Polygon","properties":{"codigo":"9","nome":"Campos Eliseos","municipio_nome":"São Paulo"},"id":"9"},{"arcs":[[-10,-32,32,33,34,35,36]],"type":"Polygon","properties":{"codigo":"10","nome":"Bom Retiro","municipio_nome":"São Paulo"},"id":"10"},{"arcs":[[-1,-37,37,38,39]],"type":"Polygon","properties":{"codigo":"11","nome":"Ponte Pequena","municipio_nome":"São Paulo"},"id":"11"},{"arcs":[[-39,40,41,42]],"type":"Polygon","properties":{"codigo":"12","nome":"Pari","municipio_nome":"São Paulo"},"id":"12"},{"arcs":[[-11,-40,-43,43,44,45]],"type":"Polygon","properties":{"codigo":"13","nome":"Bresser","municipio_nome":"São Paulo"},"id":"13"},{"arcs":[[-12,-46,46,47,48,49,-16]],"type":"Polygon","properties":{"codigo":"14","nome":"Mooca","municipio_nome":"São Paulo"},"id":"14"},{"arcs":[[-17,-50,50,51,52]],"type":"Polygon","properties":{"codigo":"15","nome":"Cambuci","municipio_nome":"São Paulo"},"id":"15"},{"arcs":[[-18,-53,53,54,55,-22,-20]],"type":"Polygon","properties":{"codigo":"16","nome":"Aclimacao","municipio_nome":"São Paulo"},"id":"16"},{"arcs":[[-52,56,57,58,-54]],"type":"Polygon","properties":{"codigo":"17","nome":"Gloria","municipio_nome":"São Paulo"},"id":"17"},{"arcs":[[-55,-59,59,60,61,62,63]],"type":"Polygon","properties":{"codigo":"18","nome":"Paraiso","municipio_nome":"São Paulo"},"id":"18"},{"arcs":[[-23,-56,-64,64,65,66,-25]],"type":"Polygon","properties":{"codigo":"19","nome":"Paulista","municipio_nome":"São Paulo"},"id":"19"},{"arcs":[[-63,67,68,-65]],"type":"Polygon","properties":{"codigo":"20","nome":"Alamedas","municipio_nome":"São Paulo"},"id":"20"},{"arcs":[[-26,-67,69,70,71]],"type":"Polygon","properties":{"codigo":"21","nome":"Pacaembu","municipio_nome":"São Paulo"},"id":"21"},{"arcs":[[-27,-72,72,73,-29]],"type":"Polygon","properties":{"codigo":"22","nome":"Veiga Filho","municipio_nome":"São Paulo"},"id":"22"},{"arcs":[[-31,-74,74,75,-33]],"type":"Polygon","properties":{"codigo":"23","nome":"Brigadeiro Galvao","municipio_nome":"São Paulo"},"id":"23"},{"arcs":[[-71,76,77,78,79,80,-75,-73]],"type":"Polygon","properties":{"codigo":"24","nome":"Sumare","municipio_nome":"São Paulo"},"id":"24"},{"arcs":[[-34,-76,-81,81,82,83]],"type":"Polygon","properties":{"codigo":"25","nome":"Barra Funda","municipio_nome":"São Paulo"},"id":"25"},{"arcs":[[-35,-84,84,85,86,87]],"type":"Polygon","properties":{"codigo":"26","nome":"Casa Verde","municipio_nome":"São Paulo"},"id":"26"},{"arcs":[[-38,88,-87,89,90,91]],"type":"Polygon","properties":{"codigo":"27","nome":"Santana","municipio_nome":"São Paulo"},"id":"27"},{"arcs":[[-41,-92,92,93,94,95,96,97]],"type":"Polygon","properties":{"codigo":"28","nome":"Vila Guilherme","municipio_nome":"São Paulo"},"id":"28"},{"arcs":[[-97,98,99,100]],"type":"Polygon","properties":{"codigo":"29","nome":"Vila Maria","municipio_nome":"São Paulo"},"id":"29"},{"arcs":[[-42,-98,-101,101,102,103,-44]],"type":"Polygon","properties":{"codigo":"30","nome":"Belenzinho","municipio_nome":"São Paulo"},"id":"30"},{"arcs":[[-45,-104,104,105,106,-47]],"type":"Polygon","properties":{"codigo":"31","nome":"Quarta-Parada","municipio_nome":"São Paulo"},"id":"31"},{"arcs":[[-48,-107,107,108,109,110,111]],"type":"Polygon","properties":{"codigo":"32","nome":"Alto da Mooca","municipio_nome":"São Paulo"},"id":"32"},{"arcs":[[-49,-112,112,113,-57,-51]],"type":"Polygon","properties":{"codigo":"33","nome":"Ipiranga","municipio_nome":"São Paulo"},"id":"33"},{"arcs":[[-58,-114,114,115,116,117,-60]],"type":"Polygon","properties":{"codigo":"34","nome":"Saude","municipio_nome":"São Paulo"},"id":"34"},{"arcs":[[-118,118,119,120,121,122,123,124]],"type":"Polygon","properties":{"codigo":"35","nome":"Indianopolis","municipio_nome":"São Paulo"},"id":"35"},{"arcs":[[-123,125,126,127,128]],"type":"Polygon","properties":{"codigo":"36","nome":"Itaim I","municipio_nome":"São Paulo"},"id":"36"},{"arcs":[[-62,129,130,131,132,133,134,-68]],"type":"Polygon","properties":{"codigo":"37","nome":"Jardins I","municipio_nome":"São Paulo"},"id":"37"},{"arcs":[[-66,-69,-135,135,136,-77,-70]],"type":"Polygon","properties":{"codigo":"38","nome":"Clinicas","municipio_nome":"São Paulo"},"id":"38"},{"arcs":[[-78,-137,137,138,139]],"type":"Polygon","properties":{"codigo":"39","nome":"Vila Madalena","municipio_nome":"São Paulo"},"id":"39"},{"arcs":[[-79,-140,140,141,142]],"type":"Polygon","properties":{"codigo":"40","nome":"Cerro Cora","municipio_nome":"São Paulo"},"id":"40"},{"arcs":[[-80,-143,143,144,145]],"type":"Polygon","properties":{"codigo":"41","nome":"Pompeia","municipio_nome":"São Paulo"},"id":"41"},{"arcs":[[-82,-146,146,147,148]],"type":"Polygon","properties":{"codigo":"42","nome":"Agua Branca","municipio_nome":"São Paulo"},"id":"42"},{"arcs":[[-148,149,150,151,152]],"type":"Polygon","properties":{"codigo":"43","nome":"Freguesia do O","municipio_nome":"São Paulo"},"id":"43"},{"arcs":[[-83,-149,-153,153,154,155,-85]],"type":"Polygon","properties":{"codigo":"44","nome":"Limao","municipio_nome":"São Paulo"},"id":"44"},{"arcs":[[-86,-156,156,157,158,159,160,-90]],"type":"Polygon","properties":{"codigo":"45","nome":"Mandaqui","municipio_nome":"São Paulo"},"id":"45"},{"arcs":[[-91,-161,161,162,163,-93]],"type":"Polygon","properties":{"codigo":"46","nome":"Agua Fria","municipio_nome":"São Paulo"},"id":"46"},{"arcs":[[-94,-164,164,165,166,167]],"type":"Polygon","properties":{"codigo":"47","nome":"Tucuruvi - Jacana","municipio_nome":"São Paulo"},"id":"47"},{"arcs":[[-95,-168,168,169,170]],"type":"Polygon","properties":{"codigo":"48","nome":"Vila Medeiros","municipio_nome":"São Paulo"},"id":"48"},{"arcs":[[-96,-171,171,-99]],"type":"Polygon","properties":{"codigo":"49","nome":"Vila Maria Alta","municipio_nome":"São Paulo"},"id":"49"},{"arcs":[[-100,-172,-170,172,173,174,175,-102]],"type":"Polygon","properties":{"codigo":"50","nome":"Novo Mundo","municipio_nome":"São Paulo"},"id":"50"},{"arcs":[[-103,-176,176,177,178]],"type":"Polygon","properties":{"codigo":"51","nome":"Parque Sao Jorge","municipio_nome":"São Paulo"},"id":"51"},{"arcs":[[-105,-179,179,180,181,182]],"type":"Polygon","properties":{"codigo":"52","nome":"Tatuape","municipio_nome":"São Paulo"},"id":"52"},{"arcs":[[-106,-183,183,184,-108]],"type":"Polygon","properties":{"codigo":"53","nome":"Vila Diva I","municipio_nome":"São Paulo"},"id":"53"},{"arcs":[[-111,185,186,187,-115,-113]],"type":"Polygon","properties":{"codigo":"54","nome":"Tamanduatei","municipio_nome":"São Paulo"},"id":"54"},{"arcs":[[-116,-188,188,189,190,191,192]],"type":"Polygon","properties":{"codigo":"55","nome":"Sao Joao Climaco","municipio_nome":"São Paulo"},"id":"55"},{"arcs":[[-117,-193,193,194,195,196,-119]],"type":"Polygon","properties":{"codigo":"56","nome":"Sao Judas","municipio_nome":"São Paulo"},"id":"56"},{"arcs":[[-195,197,198,199,200,201,202]],"type":"Polygon","properties":{"codigo":"57","nome":"Jabaquara/Americanopolis","municipio_nome":"São Paulo"},"id":"57"},{"arcs":[[-196,-203,203,204,205]],"type":"Polygon","properties":{"codigo":"58","nome":"Aeroporto","municipio_nome":"São Paulo"},"id":"58"},{"arcs":[[-121,206,-205,207,208,209]],"type":"Polygon","properties":{"codigo":"59","nome":"Campo Belo","municipio_nome":"São Paulo"},"id":"59"},{"arcs":[[-210,210,211,212,213]],"type":"Polygon","properties":{"codigo":"60","nome":"Moncoes","municipio_nome":"São Paulo"},"id":"60"},{"arcs":[[-122,-214,214,215,-126]],"type":"Polygon","properties":{"codigo":"61","nome":"Vila Olimpia","municipio_nome":"São Paulo"},"id":"61"},{"arcs":[[-127,-216,216,217,-133,218]],"type":"Polygon","properties":{"codigo":"62","nome":"Iguatemi","municipio_nome":"São Paulo"},"id":"62"},{"arcs":[[-134,-218,219,220,-138,-136]],"type":"Polygon","properties":{"codigo":"63","nome":"Pinheiros","municipio_nome":"São Paulo"},"id":"63"},{"arcs":[[-139,-221,221,222,223,224,225,-141]],"type":"Polygon","properties":{"codigo":"64","nome":"Estrada da Boiada","municipio_nome":"São Paulo"},"id":"64"},{"arcs":[[-142,-226,226,227,-144]],"type":"Polygon","properties":{"codigo":"65","nome":"Alto da Lapa","municipio_nome":"São Paulo"},"id":"65"},{"arcs":[[-145,-228,228,229,230,-147]],"type":"Polygon","properties":{"codigo":"66","nome":"Vila Anastacio","municipio_nome":"São Paulo"},"id":"66"},{"arcs":[[-225,231,232,233,-229,-227]],"type":"Polygon","properties":{"codigo":"67","nome":"Ceasa","municipio_nome":"São Paulo"},"id":"67"},{"arcs":[[-230,-234,234,235,236,237,238]],"type":"Polygon","properties":{"codigo":"68","nome":"Vila Jaguare","municipio_nome":"São Paulo"},"id":"68"},{"arcs":[[-150,-231,-239,239,240,241]],"type":"Polygon","properties":{"codigo":"69","nome":"Pirituba","municipio_nome":"São Paulo"},"id":"69"},{"arcs":[[-241,242,243,244,245]],"type":"Polygon","properties":{"codigo":"70","nome":"Jaragua","municipio_nome":"São Paulo"},"id":"70"},{"arcs":[[-151,-242,-246,246,247,248]],"type":"Polygon","properties":{"codigo":"71","nome":"Brasilandia","municipio_nome":"São Paulo"},"id":"71"},{"arcs":[[-152,-249,249,250,-158,251,-154]],"type":"Polygon","properties":{"codigo":"72","nome":"V.Nova Cachoeirinha I","municipio_nome":"São Paulo"},"id":"72"},{"arcs":[[-248,252,253,254,-250]],"type":"Polygon","properties":{"codigo":"73","nome":"Estrada da Parada","municipio_nome":"São Paulo"},"id":"73"},{"arcs":[[-159,-251,-255,255,256,257]],"type":"Polygon","properties":{"codigo":"74","nome":"Jardim Peri","municipio_nome":"São Paulo"},"id":"74"},{"arcs":[[-163,258,259,-165]],"type":"Polygon","properties":{"codigo":"75","nome":"Barro Branco","municipio_nome":"São Paulo"},"id":"75"},{"arcs":[[-166,-260,260,261,262,263]],"type":"Polygon","properties":{"codigo":"76","nome":"Tremembe","municipio_nome":"São Paulo"},"id":"76"},{"arcs":[[-174,264,265,266,267,268]],"type":"Polygon","properties":{"codigo":"77","nome":"Cangaiba","municipio_nome":"São Paulo"},"id":"77"},{"arcs":[[-175,-269,269,270,-177]],"type":"Polygon","properties":{"codigo":"78","nome":"Penha","municipio_nome":"São Paulo"},"id":"78"},{"arcs":[[-268,271,272,273,-270]],"type":"Polygon","properties":{"codigo":"79","nome":"Vila Esperanca","municipio_nome":"São Paulo"},"id":"79"},{"arcs":[[-178,274,275,276,277,-180]],"type":"Polygon","properties":{"codigo":"80","nome":"Carrao","municipio_nome":"São Paulo"},"id":"80"},{"arcs":[[-271,-274,278,279,-275]],"type":"Polygon","properties":{"codigo":"81","nome":"Vila Matilde","municipio_nome":"São Paulo"},"id":"81"},{"arcs":[[-181,-278,280,281,282,283]],"type":"Polygon","properties":{"codigo":"82","nome":"Vila Formosa","municipio_nome":"São Paulo"},"id":"82"},{"arcs":[[-110,284,285,-283,286,287,288,-186]],"type":"Polygon","properties":{"codigo":"83","nome":"Vila Prudente","municipio_nome":"São Paulo"},"id":"83"},{"arcs":[[-266,289,290,291,292,293]],"type":"Polygon","properties":{"codigo":"84","nome":"Ermelindo Matarazzo","municipio_nome":"São Paulo"},"id":"84"},{"arcs":[[-267,-294,294,295,296,-272]],"type":"Polygon","properties":{"codigo":"85","nome":"Vila Re","municipio_nome":"São Paulo"},"id":"85"},{"arcs":[[-273,-297,297,298,299,-279]],"type":"Polygon","properties":{"codigo":"86","nome":"Artur Alvim","municipio_nome":"São Paulo"},"id":"86"},{"arcs":[[-276,-280,-300,300,301]],"type":"Polygon","properties":{"codigo":"87","nome":"Lider","municipio_nome":"São Paulo"},"id":"87"},{"arcs":[[-277,-302,302,303,304,-281]],"type":"Polygon","properties":{"codigo":"88","nome":"Cidade Centenario","municipio_nome":"São Paulo"},"id":"88"},{"arcs":[[-282,-305,305,306,307,-287]],"type":"Polygon","properties":{"codigo":"89","nome":"Sapopemba","municipio_nome":"São Paulo"},"id":"89"},{"arcs":[[308,309,310]],"type":"Polygon","properties":{"codigo":"90","nome":"Sao Miguel","municipio_nome":"São Paulo"},"id":"90"},{"arcs":[[-293,311,-311,312,313,314,-295]],"type":"Polygon","properties":{"codigo":"91","nome":"Saudade","municipio_nome":"São Paulo"},"id":"91"},{"arcs":[[-296,-315,315,316,-298]],"type":"Polygon","properties":{"codigo":"92","nome":"Itaquera","municipio_nome":"São Paulo"},"id":"92"},{"arcs":[[-299,-317,317,318,319,-303,-301]],"type":"Polygon","properties":{"codigo":"93","nome":"Carmo","municipio_nome":"São Paulo"},"id":"93"},{"arcs":[[-304,-320,320,321,322,-306]],"type":"Polygon","properties":{"codigo":"94","nome":"Sao Mateus","municipio_nome":"São Paulo"},"id":"94"},{"arcs":[[-292,323,324,325,326,-309,-312]],"type":"Polygon","properties":{"codigo":"95","nome":"Parque Paulistano","municipio_nome":"São Paulo"},"id":"95"},{"arcs":[[-310,-327,327,328,329,330,-313]],"type":"Polygon","properties":{"codigo":"96","nome":"Vila Curuca","municipio_nome":"São Paulo"},"id":"96"},{"arcs":[[-326,331,332,-328]],"type":"Polygon","properties":{"codigo":"97","nome":"Itaim Paulista","municipio_nome":"São Paulo"},"id":"97"},{"arcs":[[-314,-331,333,334,-318,-316]],"type":"Polygon","properties":{"codigo":"98","nome":"Parada Quinze","municipio_nome":"São Paulo"},"id":"98"},{"arcs":[[-329,335,336,337]],"type":"Polygon","properties":{"codigo":"99","nome":"Guaianazes I","municipio_nome":"São Paulo"},"id":"99"},{"arcs":[[-319,-335,338,-337,339,340,341,342,-321]],"type":"Polygon","properties":{"codigo":"100","nome":"Passagem Funda","municipio_nome":"São Paulo"},"id":"100"},{"arcs":[[-200,343,344,345,346]],"type":"Polygon","properties":{"codigo":"101","nome":"Sete Praias","municipio_nome":"São Paulo"},"id":"101"},{"arcs":[[-201,-347,347,348,349,350]],"type":"Polygon","properties":{"codigo":"102","nome":"Pedreira","municipio_nome":"São Paulo"},"id":"102"},{"arcs":[[-202,-351,351,352,-208,-204]],"type":"Polygon","properties":{"codigo":"103","nome":"Cupece","municipio_nome":"São Paulo"},"id":"103"},{"arcs":[[-350,353,354,355,356,-352]],"type":"Polygon","properties":{"codigo":"104","nome":"Campo Grande","municipio_nome":"São Paulo"},"id":"104"},{"arcs":[[-209,-353,-357,357,358,359,360,-211]],"type":"Polygon","properties":{"codigo":"105","nome":"Granja Julieta","municipio_nome":"São Paulo"},"id":"105"},{"arcs":[[-356,361,362,-358]],"type":"Polygon","properties":{"codigo":"106","nome":"Largo Treze","municipio_nome":"São Paulo"},"id":"106"},{"arcs":[[-360,363,364,365]],"type":"Polygon","properties":{"codigo":"107","nome":"Paraisopolis","municipio_nome":"São Paulo"},"id":"107"},{"arcs":[[-349,366,367,368,369,370,371,-354]],"type":"Polygon","properties":{"codigo":"108","nome":"Interlagos","municipio_nome":"São Paulo"},"id":"108"},{"arcs":[[-355,-372,372,373,-362]],"type":"Polygon","properties":{"codigo":"109","nome":"Largo do Socorro","municipio_nome":"São Paulo"},"id":"109"},{"arcs":[[-359,-363,-374,374,375,376,377,-364]],"type":"Polygon","properties":{"codigo":"110","nome":"Campo Limpo I","municipio_nome":"São Paulo"},"id":"110"},{"arcs":[[-368,378,379,380,381]],"type":"Polygon","properties":{"codigo":"111","nome":"Parelheiros","municipio_nome":"São Paulo"},"id":"111"},{"arcs":[[-371,382,383,384,385,-375,-373]],"type":"Polygon","properties":{"codigo":"112","nome":"Guarapiranga","municipio_nome":"São Paulo"},"id":"112"},{"arcs":[[-385,386,387,388,389]],"type":"Polygon","properties":{"codigo":"113","nome":"Pirajussara","municipio_nome":"São Paulo"},"id":"113"},{"arcs":[[-213,390,391,392,393,-222,-220,-217,-215]],"type":"Polygon","properties":{"codigo":"114","nome":"Cidade Jardim","municipio_nome":"São Paulo"},"id":"114"},{"arcs":[[-224,394,395,396,397,-232]],"type":"Polygon","properties":{"codigo":"115","nome":"Jaguare","municipio_nome":"São Paulo"},"id":"115"},{"arcs":[[-365,-378,398,399,400,-392,401]],"type":"Polygon","properties":{"codigo":"116","nome":"Estrada do Embu","municipio_nome":"São Paulo"},"id":"116"},{"arcs":[[-393,-401,402,403,-396,404]],"type":"Polygon","properties":{"codigo":"117","nome":"Rio Pequeno","municipio_nome":"São Paulo"},"id":"117"},{"arcs":[[-400,405,406,407,408,-403]],"type":"Polygon","properties":{"codigo":"118","nome":"Arpoador","municipio_nome":"São Paulo"},"id":"118"},{"arcs":[[409,410,411,412]],"type":"Polygon","properties":{"codigo":"119","nome":"Perus","municipio_nome":"São Paulo"},"id":"119"},{"arcs":[[413,414,415,416,417]],"type":"Polygon","properties":{"codigo":"120","nome":"Cajamar","municipio_nome":"Cajamar"},"id":"120"},{"arcs":[[-412,418,419,420,421]],"type":"Polygon","properties":{"codigo":"121","nome":"Caieiras","municipio_nome":"Caieiras"},"id":"121"},{"arcs":[[-421,422,423,424,425,426,427]],"type":"Polygon","properties":{"codigo":"122","nome":"Franco da Rocha","municipio_nome":"Franco da Rocha"},"id":"122"},{"arcs":[[-424,428,429,430,431]],"type":"Polygon","properties":{"codigo":"123","nome":"Francisco Morato","municipio_nome":"Francisco Morato"},"id":"123"},{"arcs":[[432,433,434]],"type":"Polygon","properties":{"codigo":"124","nome":"Mairipora","municipio_nome":"Mairiporã"},"id":"124"},{"arcs":[[-263,435,436,437,438,439,440]],"type":"Polygon","properties":{"codigo":"125","nome":"Morros","municipio_nome":"Guarulhos"},"id":"125"},{"arcs":[[-167,-264,-441,441,442,443]],"type":"Polygon","properties":{"codigo":"126","nome":"Timoteo Penteado","municipio_nome":"Guarulhos"},"id":"126"},{"arcs":[[-440,444,445,446,-442]],"type":"Polygon","properties":{"codigo":"127","nome":"Macedo","municipio_nome":"Guarulhos"},"id":"127"},{"arcs":[[-443,-447,447]],"type":"Polygon","properties":{"codigo":"128","nome":"Guarulhos","municipio_nome":"Guarulhos"},"id":"128"},{"arcs":[[-169,-444,-448,-446,448,-290,-265,-173]],"type":"Polygon","properties":{"codigo":"129","nome":"Varzea do Palacio","municipio_nome":"Guarulhos"},"id":"129"},{"arcs":[[-438,449,450,451,452,453,454,455]],"type":"Polygon","properties":{"codigo":"130","nome":"Estrada de Nazare","municipio_nome":"Guarulhos"},"id":"130"},{"arcs":[[-291,-449,456,-455,457,458,-324]],"type":"Polygon","properties":{"codigo":"131","nome":"Cumbica-Pimentas","municipio_nome":"Guarulhos"},"id":"131"},{"arcs":[[-454,459,460,461,-458]],"type":"Polygon","properties":{"codigo":"132","nome":"Aruja","municipio_nome":"Arujá"},"id":"132"},{"arcs":[[462,463]],"type":"Polygon","properties":{"codigo":"133","nome":"Sta Isabel","municipio_nome":"Santa Isabel"},"id":"133"},{"arcs":[[-325,-459,-462,464,465,466,467]],"type":"Polygon","properties":{"codigo":"134","nome":"Corredor-Itaqua","municipio_nome":"Itaquaquecetuba"},"id":"134"},{"arcs":[[-332,-468,468,469]],"type":"Polygon","properties":{"codigo":"135","nome":"Itaquaquecetuba","municipio_nome":"Itaquaquecetuba"},"id":"135"},{"arcs":[[-467,470,471,472,473,-469]],"type":"Polygon","properties":{"codigo":"136","nome":"Porto de Areia","municipio_nome":"Itaquaquecetuba"},"id":"136"},{"arcs":[[-333,474,475,476,-340,-336]],"type":"Polygon","properties":{"codigo":"137","nome":"Ferraz de Vasconcelos","municipio_nome":"Ferraz de Vasconcelos"},"id":"137"},{"arcs":[[-470,-474,477,478,-475]],"type":"Polygon","properties":{"codigo":"138","nome":"Poa","municipio_nome":"Poá"},"id":"138"},{"arcs":[[-473,479,480,481,482,483,-478]],"type":"Polygon","properties":{"codigo":"139","nome":"Suzano","municipio_nome":"Suzano"},"id":"139"},{"arcs":[[-481,484,485,486]],"type":"Polygon","properties":{"codigo":"140","nome":"Jundiapeba","municipio_nome":"Mogi das Cruzes"},"id":"140"},{"arcs":[[-486,487,488,489,490]],"type":"Polygon","properties":{"codigo":"141","nome":"Bras Cubas","municipio_nome":"Mogi das Cruzes"},"id":"141"},{"arcs":[[-489,491,492,493]],"type":"Polygon","properties":{"codigo":"142","nome":"Mogi das Cruzes","municipio_nome":"Mogi das Cruzes"},"id":"142"},{"arcs":[[-490,-494,494,495]],"type":"Polygon","properties":{"codigo":"143","nome":"Cocuera","municipio_nome":"Mogi das Cruzes"},"id":"143"},{"arcs":[[-493,496,497,498,-495]],"type":"Polygon","properties":{"codigo":"144","nome":"Cesar de Souza","municipio_nome":"Mogi das Cruzes"},"id":"144"},{"arcs":[[-498,499,500,501]],"type":"Polygon","properties":{"codigo":"145","nome":"Sabauna","municipio_nome":"Mogi das Cruzes"},"id":"145"},{"arcs":[[-501,502,503,504,505,506]],"type":"Polygon","properties":{"codigo":"146","nome":"Guararema","municipio_nome":"Guararema"},"id":"146"},{"arcs":[[-502,-507,507,508,509]],"type":"Polygon","properties":{"codigo":"147","nome":"Biritiba Mirim","municipio_nome":"Biritiba Mirim"},"id":"147"},{"arcs":[[-506,510,-508]],"type":"Polygon","properties":{"codigo":"148","nome":"Salesopolis","municipio_nome":"Salesopólis"},"id":"148"},{"arcs":[[-322,-343,511,512,513,514,515,516,517,518]],"type":"Polygon","properties":{"codigo":"149","nome":"Capuava","municipio_nome":"Mauá"},"id":"149"},{"arcs":[[-516,519]],"type":"Polygon","properties":{"codigo":"150","nome":"Maua","municipio_nome":"Mauá"},"id":"150"},{"arcs":[[-515,520,521,522,523,-517,-520]],"type":"Polygon","properties":{"codigo":"151","nome":"Corrego da Serraria","municipio_nome":"Mauá"},"id":"151"},{"arcs":[[-514,524,525,526,527,528]],"type":"Polygon","properties":{"codigo":"152","nome":"Ribeirao Pires","municipio_nome":"Ribeirão Pires"},"id":"152"},{"arcs":[[-527,529,530,531]],"type":"Polygon","properties":{"codigo":"153","nome":"Rio Grande da Serra","municipio_nome":"Rio Grande da Serra"},"id":"153"},{"arcs":[[-307,-323,-519,532,533,534]],"type":"Polygon","properties":{"codigo":"154","nome":"Parque das Nacoes","municipio_nome":"Santo André"},"id":"154"},{"arcs":[[-288,-308,-535,535,536,537,538]],"type":"Polygon","properties":{"codigo":"155","nome":"Utinga","municipio_nome":"Santo André"},"id":"155"},{"arcs":[[-537,539,540,541,542]],"type":"Polygon","properties":{"codigo":"156","nome":"Palmares","municipio_nome":"Santo André"},"id":"156"},{"arcs":[[-534,543,-540,-536]],"type":"Polygon","properties":{"codigo":"157","nome":"Santo Andre","municipio_nome":"Santo André"},"id":"157"},{"arcs":[[-518,-524,544,545,546,-541,-544,-533]],"type":"Polygon","properties":{"codigo":"158","nome":"Vila Pires","municipio_nome":"Santo André"},"id":"158"},{"arcs":[[-523,547,548,549,-545]],"type":"Polygon","properties":{"codigo":"159","nome":"Vila Luzita","municipio_nome":"Santo André"},"id":"159"},{"arcs":[[-187,-289,-539,550,-189]],"type":"Polygon","properties":{"codigo":"160","nome":"Sao Caetano","municipio_nome":"São Caetano do Sul"},"id":"160"},{"arcs":[[-190,-551,-538,-543,551]],"type":"Polygon","properties":{"codigo":"161","nome":"Vila Gerti","municipio_nome":"São Caetano do Sul"},"id":"161"},{"arcs":[[-191,-552,-542,552,553,554]],"type":"Polygon","properties":{"codigo":"162","nome":"Rudge Ramos","municipio_nome":"São Bernardo do Campo"},"id":"162"},{"arcs":[[-547,555,556,557,-553]],"type":"Polygon","properties":{"codigo":"163","nome":"Anchieta","municipio_nome":"São Bernardo do Campo"},"id":"163"},{"arcs":[[-546,-550,558,-556]],"type":"Polygon","properties":{"codigo":"164","nome":"Sao Bernardo do Campo","municipio_nome":"São Bernardo do Campo"},"id":"164"},{"arcs":[[-549,559,560,561,-557,-559]],"type":"Polygon","properties":{"codigo":"165","nome":"Demarchi","municipio_nome":"São Bernardo do Campo"},"id":"165"},{"arcs":[[-561,562,563,564,565]],"type":"Polygon","properties":{"codigo":"166","nome":"Riacho Grande","municipio_nome":"São Bernardo do Campo"},"id":"166"},{"arcs":[[-554,-558,-562,566,567]],"type":"Polygon","properties":{"codigo":"167","nome":"Piraporinha","municipio_nome":"Diadema"},"id":"167"},{"arcs":[[-199,568,-555,-568,569,-344]],"type":"Polygon","properties":{"codigo":"168","nome":"Diadema","municipio_nome":"Diadema"},"id":"168"},{"arcs":[[-345,-570,-567,-566,570]],"type":"Polygon","properties":{"codigo":"169","nome":"Eldorado","municipio_nome":"Diadema"},"id":"169"},{"arcs":[[-381,571,572,573,574,575]],"type":"Polygon","properties":{"codigo":"170","nome":"Embu-Guacu","municipio_nome":"Embu-Guacu"},"id":"170"},{"arcs":[[-380,576,577,-572]],"type":"Polygon","properties":{"codigo":"171","nome":"Cipo","municipio_nome":"Embu-Guacu"},"id":"171"},{"arcs":[[-377,578,-389,579,580,581,-406,-399]],"type":"Polygon","properties":{"codigo":"172","nome":"Taboao da Serra","municipio_nome":"Taboão da Serra"},"id":"172"},{"arcs":[[-388,582,583,584,-580]],"type":"Polygon","properties":{"codigo":"173","nome":"Embu","municipio_nome":"Embu"},"id":"173"},{"arcs":[[-384,585,586,-575,587,-583,-387]],"type":"Polygon","properties":{"codigo":"174","nome":"Itapecerica","municipio_nome":"Itapecerica da Serra"},"id":"174"},{"arcs":[[-574,588,589,590,591,592,-588]],"type":"Polygon","properties":{"codigo":"175","nome":"Embu-mirim","municipio_nome":"Itapecerica da Serra"},"id":"175"},{"arcs":[[593,594,595,596]],"type":"Polygon","properties":{"codigo":"176","nome":"Juquitiba","municipio_nome":"Juquitiba"},"id":"176"},{"arcs":[[-581,-585,597,598,599,600]],"type":"Polygon","properties":{"codigo":"177","nome":"Granja Viana","municipio_nome":"Cotia"},"id":"177"},{"arcs":[[-599,601,602,603,604,605,606,607,608]],"type":"Polygon","properties":{"codigo":"178","nome":"Cotia","municipio_nome":"Cotia"},"id":"178"},{"arcs":[[-592,609,-603,610]],"type":"Polygon","properties":{"codigo":"179","nome":"Capueira","municipio_nome":"Cotia"},"id":"179"},{"arcs":[[611,612,613]],"type":"Polygon","properties":{"codigo":"180","nome":"Caucaia do Alto","municipio_nome":"Cotia"},"id":"180"},{"arcs":[[-605,614,-614,615,616]],"type":"Polygon","properties":{"codigo":"181","nome":"Vargem Grande Paulista","municipio_nome":"Vargem Grande Paulista"},"id":"181"},{"arcs":[[-404,-409,617,618]],"type":"Polygon","properties":{"codigo":"182","nome":"Bussocaba","municipio_nome":"Osasco"},"id":"182"},{"arcs":[[-397,-619,619,620,621]],"type":"Polygon","properties":{"codigo":"183","nome":"Osasco","municipio_nome":"Osasco"},"id":"183"},{"arcs":[[-233,-398,-622,622,-235]],"type":"Polygon","properties":{"codigo":"184","nome":"Mutinga","municipio_nome":"Osasco"},"id":"184"},{"arcs":[[-408,623,624,625,626,-620,-618]],"type":"Polygon","properties":{"codigo":"185","nome":"Quitauna","municipio_nome":"Osasco"},"id":"185"},{"arcs":[[-236,-623,-621,-627,627,628,629]],"type":"Polygon","properties":{"codigo":"186","nome":"Jardim Helena Maria","municipio_nome":"Osasco"},"id":"186"},{"arcs":[[-600,-609,630,631,632,633]],"type":"Polygon","properties":{"codigo":"187","nome":"Aldeia de Carapicuiba","municipio_nome":"Carapicuíba"},"id":"187"},{"arcs":[[-625,-633,634]],"type":"Polygon","properties":{"codigo":"188","nome":"Vila Dirce","municipio_nome":"Carapicuíba"},"id":"188"},{"arcs":[[-626,-635,-632,635,636,-628]],"type":"Polygon","properties":{"codigo":"189","nome":"Carapicuiba","municipio_nome":"Carapicuíba"},"id":"189"},{"arcs":[[-629,-637,637,638,639,640]],"type":"Polygon","properties":{"codigo":"190","nome":"Tambore","municipio_nome":"Barueri"},"id":"190"},{"arcs":[[-636,641,642,643,644,-638]],"type":"Polygon","properties":{"codigo":"191","nome":"Barueri","municipio_nome":"Barueri"},"id":"191"},{"arcs":[[-643,645,646,647]],"type":"Polygon","properties":{"codigo":"192","nome":"Jandira","municipio_nome":"Jandira"},"id":"192"},{"arcs":[[-607,648,649,650,651,-647,652]],"type":"Polygon","properties":{"codigo":"193","nome":"Itapevi","municipio_nome":"Itapevi"},"id":"193"},{"arcs":[[-414,653,-639,-645,654,-651,655,656,657]],"type":"Polygon","properties":{"codigo":"194","nome":"Santana do Parnaiba","municipio_nome":"Santana de Parnaíba"},"id":"194"},{"arcs":[[-657,658,659]],"type":"Polygon","properties":{"codigo":"195","nome":"Pirapora Bom Jesus","municipio_nome":"Pirapora Bom Jesus"},"id":"195"},{"arcs":[[-124,-129,660,-131,661]],"type":"Polygon","properties":{"codigo":"196","nome":"Itaim II","municipio_nome":"São Paulo"},"id":"196"},{"arcs":[[-128,-219,-132,-661]],"type":"Polygon","properties":{"codigo":"197","nome":"Jardins II","municipio_nome":"São Paulo"},"id":"197"},{"arcs":[[-182,-284,-286,662,-184]],"type":"Polygon","properties":{"codigo":"198","nome":"Vila Diva II","municipio_nome":"São Paulo"},"id":"198"},{"arcs":[[-109,-185,-663,-285]],"type":"Polygon","properties":{"codigo":"199","nome":"Vila Diva III","municipio_nome":"São Paulo"},"id":"199"},{"arcs":[[-155,-252,-157]],"type":"Polygon","properties":{"codigo":"200","nome":"V.Nova Cachoeirinha II","municipio_nome":"São Paulo"},"id":"200"},{"arcs":[[-257,663,664]],"type":"Polygon","properties":{"codigo":"201","nome":"Pedra Branca","municipio_nome":"São Paulo"},"id":"201"},{"arcs":[[-330,-338,-339,-334]],"type":"Polygon","properties":{"codigo":"202","nome":"Guaianazes II","municipio_nome":"São Paulo"},"id":"202"},{"arcs":[[-212,-361,-366,-402,-391]],"type":"Polygon","properties":{"codigo":"203","nome":"Morumbi","municipio_nome":"São Paulo"},"id":"203"},{"arcs":[[-376,-386,-390,-579]],"type":"Polygon","properties":{"codigo":"204","nome":"Campo Limpo II","municipio_nome":"São Paulo"},"id":"204"},{"arcs":[[-36,-88,-89]],"type":"Polygon","properties":{"codigo":"205","nome":"Campo de Marte/Anhembi","municipio_nome":"São Paulo"},"id":"205"},{"arcs":[[-61,-125,-662,-130]],"type":"Polygon","properties":{"codigo":"206","nome":"Pq. Ibirapuera","municipio_nome":"São Paulo"},"id":"206"},{"arcs":[[-192,-569,-198,-194]],"type":"Polygon","properties":{"codigo":"207","nome":"Pq. do Estado","municipio_nome":"São Paulo"},"id":"207"},{"arcs":[[-120,-197,-206,-207]],"type":"Polygon","properties":{"codigo":"208","nome":"Cogonhas","municipio_nome":"São Paulo"},"id":"208"},{"arcs":[[-160,-258,-665,665,-261,-259,-162]],"type":"Polygon","properties":{"codigo":"209","nome":"Horto Florestal","municipio_nome":"São Paulo"},"id":"209"},{"arcs":[[-223,-394,-405,-395]],"type":"Polygon","properties":{"codigo":"210","nome":"USP","municipio_nome":"São Paulo"},"id":"210"},{"arcs":[[-238,666,667,-243,-240]],"type":"Polygon","properties":{"codigo":"211","nome":"Pico Jaragua","municipio_nome":"São Paulo"},"id":"211"},{"arcs":[[-439,-456,-457,-445]],"type":"Polygon","properties":{"codigo":"212","nome":"Aeroporto de Cumbica","municipio_nome":"Guarulhos"},"id":"212"},{"arcs":[[-244,-668,668,-640,-654,-418,669,-410,670]],"type":"Polygon","properties":{"codigo":"213","nome":"Anhaguera","municipio_nome":"São Paulo"},"id":"213"},{"arcs":[[-245,-671,-413,671,672,-253,-247]],"type":"Polygon","properties":{"codigo":"214","nome":"Parada de Taipas","municipio_nome":"São Paulo"},"id":"214"},{"arcs":[[-254,-673,673,674,-435,675,676,-436,-262,-666,-664,-256]],"type":"Polygon","properties":{"codigo":"215","nome":"Cantareira","municipio_nome":"São Paulo"},"id":"215"},{"arcs":[[-346,-571,-565,677,678,-594,679,-577,-379,-367,-348]],"type":"Polygon","properties":{"codigo":"216","nome":"Eng. Marsilac","municipio_nome":"São Paulo"},"id":"216"},{"arcs":[[-370,680,-586,-383]],"type":"Polygon","properties":{"codigo":"217","nome":"Baronesa","municipio_nome":"São Paulo"},"id":"217"},{"arcs":[[-369,-382,-576,-587,-681]],"type":"Polygon","properties":{"codigo":"218","nome":"Jaceguava","municipio_nome":"São Paulo"},"id":"218"},{"arcs":[[-415,-658,-660,681,682]],"type":"Polygon","properties":{"codigo":"219","nome":"Morro do Mateus","municipio_nome":"Cajamar"},"id":"219"},{"arcs":[[-411,-670,-417,683,-419]],"type":"Polygon","properties":{"codigo":"220","nome":"Monjolinho","municipio_nome":"Caieiras"},"id":"220"},{"arcs":[[-422,-428,684,-674,-672]],"type":"Polygon","properties":{"codigo":"221","nome":"Santa Ines","municipio_nome":"Caieiras"},"id":"221"},{"arcs":[[-416,-683,685,686,-429,-423,-420,-684]],"type":"Polygon","properties":{"codigo":"222","nome":"Cristais","municipio_nome":"Franco da Rocha"},"id":"222"},{"arcs":[[-426,687,688,689]],"type":"Polygon","properties":{"codigo":"223","nome":"Campo de Sao Benedito","municipio_nome":"Franco da Rocha"},"id":"223"},{"arcs":[[-430,-687,690]],"type":"Polygon","properties":{"codigo":"224","nome":"Sete Voltas","municipio_nome":"Francisco Morato"},"id":"224"},{"arcs":[[-425,-432,691,-688]],"type":"Polygon","properties":{"codigo":"225","nome":"Cascatas","municipio_nome":"Francisco Morato"},"id":"225"},{"arcs":[[-427,-690,692,693,-433,-675,-685]],"type":"Polygon","properties":{"codigo":"226","nome":"Represa do Juqueri","municipio_nome":"Mairiporã"},"id":"226"},{"arcs":[[-434,-694,694,695,-451,696,-676]],"type":"Polygon","properties":{"codigo":"227","nome":"Pirucai","municipio_nome":"Mairiporã"},"id":"227"},{"arcs":[[-437,-677,-697,-450]],"type":"Polygon","properties":{"codigo":"228","nome":"Cabucu","municipio_nome":"Guarulhos"},"id":"228"},{"arcs":[[-452,-696,697,698,699]],"type":"Polygon","properties":{"codigo":"229","nome":"Morro Grande","municipio_nome":"Guarulhos"},"id":"229"},{"arcs":[[-453,-700,700,701,-460]],"type":"Polygon","properties":{"codigo":"230","nome":"Fazenda Velha","municipio_nome":"Arujá"},"id":"230"},{"arcs":[[-461,-702,702,703,704,-465]],"type":"Polygon","properties":{"codigo":"231","nome":"Estradas dos Indios","municipio_nome":"Arujá"},"id":"231"},{"arcs":[[-463,705,-703,-701,-699,706,-504]],"type":"Polygon","properties":{"codigo":"232","nome":"Reservatorio do Jaguari","municipio_nome":"Santa Isabel"},"id":"232"},{"arcs":[[-466,-705,707,-471]],"type":"Polygon","properties":{"codigo":"233","nome":"Jardim Joseli","municipio_nome":"Itaquaquecetuba"},"id":"233"},{"arcs":[[-341,-477,708,709,710]],"type":"Polygon","properties":{"codigo":"234","nome":"Guaiu","municipio_nome":"Ferraz de Vasconcelos"},"id":"234"},{"arcs":[[-476,-479,-484,711,-709]],"type":"Polygon","properties":{"codigo":"235","nome":"Jardim Sao Jose","municipio_nome":"Poá"},"id":"235"},{"arcs":[[-483,712,713,714,715,-710,-712]],"type":"Polygon","properties":{"codigo":"236","nome":"Palmeiras","municipio_nome":"Suzano"},"id":"236"},{"arcs":[[-464,-503,-500,-497,-492,-488,-485,-480,-472,-708,-704,-706]],"type":"Polygon","properties":{"codigo":"237","nome":"Itapeti","municipio_nome":"Mogi das Cruzes"},"id":"237"},{"arcs":[[-482,-487,-491,-496,-499,-510,716,717,-713]],"type":"Polygon","properties":{"codigo":"238","nome":"Taiacupeba","municipio_nome":"Mogi das Cruzes"},"id":"238"},{"arcs":[[-342,-711,718,-512]],"type":"Polygon","properties":{"codigo":"239","nome":"Vila Aparecida","municipio_nome":"Mauá"},"id":"239"},{"arcs":[[-513,-719,-716,719,-525]],"type":"Polygon","properties":{"codigo":"240","nome":"Pilar Velho","municipio_nome":"Ribeirão Pires"},"id":"240"},{"arcs":[[-521,-529,720,721]],"type":"Polygon","properties":{"codigo":"241","nome":"Jardim Cacula","municipio_nome":"Ribeirão Pires"},"id":"241"},{"arcs":[[-526,-720,-715,722,-530]],"type":"Polygon","properties":{"codigo":"242","nome":"Sete Pontes","municipio_nome":"Rio Grande da Serra"},"id":"242"},{"arcs":[[-528,-532,723,-721]],"type":"Polygon","properties":{"codigo":"243","nome":"Parque America","municipio_nome":"Rio Grande da Serra"},"id":"243"},{"arcs":[[-522,-722,-724,-531,-723,-714,-718,724,725,-563,-560,-548]],"type":"Polygon","properties":{"codigo":"244","nome":"Paranapiacaba","municipio_nome":"Santo André"},"id":"244"},{"arcs":[[-564,-726,726,-678]],"type":"Polygon","properties":{"codigo":"245","nome":"Caminho do Mar","municipio_nome":"São Bernardo do Campo"},"id":"245"},{"arcs":[[-573,-578,-680,-597,727,-589]],"type":"Polygon","properties":{"codigo":"246","nome":"Itarare","municipio_nome":"Embu-Guacu"},"id":"246"},{"arcs":[[-584,-593,-611,-602,-598]],"type":"Polygon","properties":{"codigo":"247","nome":"Ressaca","municipio_nome":"Embu"},"id":"247"},{"arcs":[[-590,-728,-596,728,729]],"type":"Polygon","properties":{"codigo":"248","nome":"Sao Lourenco","municipio_nome":"Itapecerica da Serra"},"id":"248"},{"arcs":[[-591,-730,730,-612,-615,-604,-610]],"type":"Polygon","properties":{"codigo":"249","nome":"Reserva de Caucaia","municipio_nome":"Cotia"},"id":"249"},{"arcs":[[-407,-582,-601,-634,-624]],"type":"Polygon","properties":{"codigo":"250","nome":"Jardim das Flores","municipio_nome":"Osasco"},"id":"250"},{"arcs":[[-237,-630,-641,-669,-667]],"type":"Polygon","properties":{"codigo":"251","nome":"Tres Montanhas","municipio_nome":"Osasco"},"id":"251"},{"arcs":[[-644,-648,-652,-655]],"type":"Polygon","properties":{"codigo":"252","nome":"Jardim Beval","municipio_nome":"Barueri"},"id":"252"},{"arcs":[[-608,-653,-646,-642,-631]],"type":"Polygon","properties":{"codigo":"253","nome":"Ribeirao das Pombas","municipio_nome":"Jandira"},"id":"253"},{"arcs":[[-606,-617,731,-649]],"type":"Polygon","properties":{"codigo":"254","nome":"Quatro Encruziliadas","municipio_nome":"Itapevi"},"id":"254"}]}}}