{"type":"Topology","arcs":[[[6885,6985],[125,-33]],[[7010,6952],[-32,-80],[7,-54],[31,-64]],[[7016,6754],[-7,-13]],[[7009,6741],[-79,9],[2,-52]],[[6932,6698],[-79,10]],[[6853,6708],[22,44],[-19,39],[-81,-36]],[[6775,6755],[-24,62],[1,81]],[[6752,6898],[19,34]],[[6771,6932],[79,53]],[[6850,6985],[35,0]],[[7010,6952],[65,-28],[56,-76]],[[7131,6848],[32,-53],[-52,-32],[-80,8],[-6,-30]],[[7025,6741],[-9,13]],[[7009,6741],[-33,-39]],[[6976,6702],[-44,-4]],[[7025,6741],[27,-29]],[[7052,6712],[-28,-77]],[[7024,6635],[-20,-39],[-55,-11],[-2,64]],[[6947,6649],[29,53]],[[6947,6649],[-45,-53],[-108,37]],[[6794,6633],[59,75]],[[6794,6633],[-18,-20]],[[6776,6613],[-24,-29],[-50,49],[31,20],[-5,55],[-26,38]],[[6702,6746],[73,9]],[[6702,6746],[-21,42]],[[6681,6788],[20,60]],[[6701,6848],[13,49]],[[6714,6897],[38,1]],[[6714,6897],[-56,3],[22,84]],[[6680,6984],[91,-52]],[[6680,6984],[11,28],[77,52],[25,0]],[[6793,7064],[57,-79]],[[6793,7064],[-6,12]],[[6787,7076],[7,31],[-57,115]],[[6737,7222],[11,0]],[[6748,7222],[218,-20]],[[6966,7202],[-8,-83],[-31,-35],[-42,-99]],[[6966,7202],[59,-5]],[[7025,7197],[-7,-148],[7,-54]],[[7025,6995],[-15,-43]],[[7025,7197],[90,4],[72,-48],[72,0],[51,-17]],[[7310,7136],[-54,-39],[-44,-53]],[[7212,7044],[-76,-65],[-111,16]],[[7212,7044],[61,-50],[-4,-97],[46,-40]],[[7315,6857],[-43,-10]],[[7272,6847],[-98,-22],[-43,23]],[[7272,6847],[95,-135],[21,-6]],[[7388,6706],[-12,-41],[-82,-23],[-21,-25],[8,-54]],[[7281,6563],[-68,4]],[[7213,6567],[-64,105],[-97,40]],[[7213,6567],[23,-88],[-20,-66],[-59,-43]],[[7157,6370],[-82,82],[-46,9],[-5,64]],[[7024,6525],[0,110]],[[7024,6525],[-117,-72],[-78,28]],[[6829,6481],[-36,27]],[[6793,6508],[-17,105]],[[7157,6370],[-36,-26],[-32,-56],[-8,-60]],[[7081,6228],[-45,-39],[-43,12],[-81,63]],[[6912,6264],[-21,77],[-64,112],[2,28]],[[6912,6264],[-21,-34],[-77,-21],[-94,16]],[[6720,6225],[-47,117],[-93,62]],[[6580,6404],[64,63]],[[6644,6467],[73,67]],[[6717,6534],[24,15],[52,-41]],[[6717,6534],[-178,159]],[[6539,6693],[15,8]],[[6554,6701],[127,87]],[[6644,6467],[-66,55],[-34,1],[-64,60],[-61,37]],[[6419,6620],[120,73]],[[6554,6701],[-139,62]],[[6415,6763],[60,13],[12,50],[45,35],[18,46]],[[6550,6907],[36,3],[115,-62]],[[6550,6907],[38,112]],[[6588,7019],[30,3],[62,-38]],[[6588,7019],[-14,46],[23,38]],[[6597,7103],[94,-28],[96,1]],[[6415,6763],[-127,52]],[[6288,6815],[-39,10],[-95,89]],[[6154,6914],[-2,29],[94,123]],[[6246,7066],[29,35],[58,-10],[26,40]],[[6359,7131],[35,-11],[203,-17]],[[6359,7131],[12,27],[1,115]],[[6372,7273],[103,-16]],[[6475,7257],[262,-35]],[[6475,7257],[3,93],[89,114]],[[6567,7464],[58,-47],[89,-2],[17,28],[64,7]],[[6795,7450],[51,-89]],[[6846,7361],[-25,17],[-64,-32],[-9,-124]],[[6966,7202],[23,190],[-91,6],[-52,-37]],[[6795,7450],[66,25],[75,62],[38,-44],[72,-34]],[[7046,7459],[-5,-99]],[[7041,7360],[-13,-22],[-3,-141]],[[7041,7360],[60,50],[43,16],[42,114]],[[7186,7540],[170,-1]],[[7356,7539],[-7,-42],[73,-56]],[[7422,7441],[-52,-81]],[[7370,7360],[19,-58],[-2,-102],[-21,-114]],[[7366,7086],[-56,50]],[[7370,7360],[45,-17],[128,-88],[20,-35]],[[7563,7220],[-128,-165]],[[7435,7055],[-69,31]],[[7435,7055],[35,7]],[[7470,7062],[56,-30],[37,-121]],[[7563,6911],[-248,-54]],[[7563,6911],[18,-114],[26,-60]],[[7607,6737],[-50,-35],[-48,-55]],[[7509,6647],[-121,59]],[[7509,6647],[36,-15],[-8,-104],[11,-35],[49,-28]],[[7597,6465],[47,-110]],[[7644,6355],[-17,-5]],[[7627,6350],[-112,-4],[-48,23],[-103,6]],[[7364,6375],[-83,188]],[[7364,6375],[29,-60],[58,-77],[-60,-44],[-21,-46],[-50,-32],[-56,-67],[-21,-82]],[[7243,5967],[-36,44],[-48,18],[-19,142],[-59,57]],[[7243,5967],[7,-54],[57,-53]],[[7307,5860],[-38,-44],[-188,-26]],[[7081,5790],[-68,18],[-76,46],[-42,0],[-89,43]],[[6806,5897],[-20,82],[-74,128],[8,118]],[[6806,5897],[9,-88],[-111,-37]],[[6704,5772],[-46,76],[-79,29]],[[6579,5877],[-47,44],[-96,58],[-88,116]],[[6348,6095],[44,71]],[[6392,6166],[55,26]],[[6447,6192],[102,2]],[[6549,6194],[143,49],[28,-18]],[[6392,6166],[-69,24],[-26,110],[-3,61]],[[6294,6361],[3,5]],[[6297,6366],[76,21],[86,42]],[[6459,6429],[21,-80],[-31,-106],[-2,-51]],[[6580,6404],[-25,-18]],[[6555,6386],[-80,52]],[[6475,6438],[-53,56],[-78,-73]],[[6344,6421],[-4,34],[-44,17],[-32,57]],[[6264,6529],[103,61]],[[6367,6590],[52,30]],[[6367,6590],[-52,78]],[[6315,6668],[-27,147]],[[6315,6668],[-68,-44],[-43,17],[-59,52]],[[6145,6693],[-63,72],[-57,41],[31,119]],[[6056,6925],[57,-20],[41,9]],[[6056,6925],[-48,46],[-56,12]],[[5952,6983],[14,38]],[[5966,7021],[51,71],[68,-19],[161,-7]],[[5966,7021],[-10,102],[20,53]],[[5976,7176],[67,43],[29,-7]],[[6072,7212],[107,-48],[118,-2],[62,-31]],[[6072,7212],[-77,45],[-43,87]],[[5952,7344],[103,-12],[75,12],[150,-19]],[[6280,7325],[92,-52]],[[5952,7344],[34,42],[11,72],[45,-2],[-33,80]],[[6009,7536],[90,70],[102,-7],[25,46]],[[6226,7645],[73,-22],[8,-46]],[[6307,7577],[3,-106],[-24,-29],[10,-51],[-16,-66]],[[6307,7577],[16,20]],[[6323,7597],[78,-9],[117,33]],[[6518,7621],[-14,-41],[23,-84],[40,-32]],[[6518,7621],[58,53]],[[6576,7674],[28,83],[81,32],[23,36]],[[6708,7825],[58,27]],[[6766,7852],[53,28],[117,29],[22,-34]],[[6958,7875],[6,-83],[-27,-50],[9,-74],[61,-55],[5,-71],[40,-51],[-6,-32]],[[6958,7875],[10,-9]],[[6968,7866],[58,-44],[90,-8],[50,-29],[67,-75]],[[7233,7710],[-43,-99],[-4,-71]],[[7233,7710],[61,10],[38,44],[39,92],[34,10],[32,60],[29,-9],[50,79]],[[7516,7996],[66,-1],[14,-40],[90,29]],[[7686,7984],[51,-124],[43,-36],[23,-66]],[[7803,7758],[-33,46],[-150,-70],[-21,44],[-159,-115],[-44,-78],[-40,-46]],[[7803,7758],[-11,-86],[5,-74],[18,-29],[-25,-65],[-4,-64]],[[7786,7440],[-66,-48]],[[7720,7392],[-118,110],[-86,8],[-55,-52],[-39,-17]],[[7720,7392],[-157,-172]],[[7786,7440],[29,-41],[5,-45],[43,-29]],[[7863,7325],[-14,-40],[8,-98]],[[7857,7187],[-48,-44]],[[7809,7143],[-73,-13],[-58,-28],[-72,4],[-136,-44]],[[7809,7143],[27,-62],[51,-26],[65,-64]],[[7952,6991],[-119,-24]],[[7833,6967],[-270,-56]],[[7833,6967],[37,-147],[97,-14],[-19,-42],[7,-47]],[[7955,6717],[-31,-47],[-35,46],[-66,10],[16,-52],[-12,-38],[-43,-21]],[[7784,6615],[-40,19]],[[7744,6634],[-26,42],[-111,61]],[[7744,6634],[-48,-51],[4,-97]],[[7700,6486],[-49,9],[-54,-30]],[[7627,6350],[93,-133],[-30,-33],[-57,-6],[-8,-55]],[[7625,6123],[-60,2],[13,-60],[-15,-90]],[[7563,5975],[-82,20],[-44,25],[-44,-46],[-36,-66],[-48,0],[-2,-48]],[[7563,5975],[-32,-190],[23,-31]],[[7554,5754],[-41,-77],[17,-90]],[[7530,5587],[-26,-56],[-66,-50],[-145,-83],[-35,0],[-44,-36],[-56,-21],[-24,24]],[[7134,5365],[30,46],[-8,45],[25,109],[-11,63],[-88,49]],[[7082,5677],[-1,113]],[[7082,5677],[-78,-17],[-43,-36],[-10,-97],[-31,-95]],[[6920,5432],[-71,31],[-10,58]],[[6839,5521],[-6,151],[-73,61]],[[6760,5733],[-56,39]],[[6920,5432],[2,-57],[47,-84],[-34,-65],[21,-49]],[[6956,5177],[3,-93],[-30,-24],[-11,-82]],[[6918,4978],[-58,6],[-51,-19],[-17,-45]],[[6792,4920],[-20,89],[-46,16],[-110,97]],[[6616,5122],[50,20],[-34,50],[29,61],[-85,53],[-8,49]],[[6568,5355],[108,27],[24,-30],[48,49],[17,79],[64,16],[10,25]],[[6568,5355],[-68,78],[-47,117]],[[6453,5550],[-13,52],[53,68],[5,60],[23,20]],[[6521,5750],[78,-42],[59,-3],[1,-37],[49,-8],[18,62],[34,11]],[[6579,5877],[10,-99],[-68,-28]],[[6453,5550],[-54,68]],[[6399,5618],[-17,38],[-55,36],[-77,-20],[-94,67],[-28,37],[44,44],[15,49]],[[6187,5869],[33,45],[34,0],[65,65],[-29,43],[58,73]],[[6187,5869],[-77,22]],[[6110,5891],[18,117],[48,142]],[[6176,6150],[16,66]],[[6192,6216],[42,-44],[114,-77]],[[6192,6216],[25,93]],[[6217,6309],[24,-4],[53,56]],[[6217,6309],[-37,87],[-40,57]],[[6140,6453],[124,76]],[[6344,6421],[-47,-55]],[[6140,6453],[-51,62],[-29,86]],[[6060,6601],[85,92]],[[6060,6601],[-42,49],[-47,23]],[[5971,6673],[-230,120],[-6,11]],[[5735,6804],[-30,35]],[[5705,6839],[60,65]],[[5765,6904],[52,52],[51,-1],[84,28]],[[5765,6904],[-4,27],[-77,93],[45,38],[33,-36],[58,47],[-42,33],[-5,43],[-50,28]],[[5723,7177],[23,13],[165,8],[65,-22]],[[5723,7177],[-31,39]],[[5692,7216],[82,23],[69,48],[30,46]],[[5873,7333],[79,11]],[[5705,6839],[-186,177],[-9,57],[-65,42]],[[5445,7115],[75,-3],[37,67]],[[5557,7179],[61,39],[74,-2]],[[5557,7179],[-56,-2],[-16,40],[-50,16],[-65,110]],[[5370,7343],[-13,33],[29,53],[52,25],[8,61],[-67,21]],[[5379,7536],[-54,27],[-5,35],[-43,82],[16,92]],[[5293,7772],[129,-2],[66,-52],[9,46],[-8,81],[29,32]],[[5518,7877],[36,-83],[99,-60],[20,-112],[119,-181],[81,-108]],[[5518,7877],[-10,37]],[[5508,7914],[39,-10],[41,-54],[82,60],[-17,23],[303,72]],[[5956,8005],[-3,-61],[-87,-63],[-1,-49],[32,-47],[14,-112],[18,-42],[70,-37],[10,-58]],[[5508,7914],[-18,70]],[[5490,7984],[-40,211],[-14,38]],[[5436,8233],[71,18],[-21,47],[66,10],[15,-85],[41,-22],[148,32],[3,52],[37,45],[2,60],[49,6],[51,-41],[66,44],[18,-47],[-15,-64],[59,-38],[39,-85],[50,-51],[11,-34]],[[6126,8080],[-58,5],[-71,-17],[-41,-63]],[[6126,8080],[43,-37]],[[6169,8043],[56,-24],[30,-40],[57,-5],[53,-51],[35,-61]],[[6400,7862],[-31,-107],[-29,-54],[-52,-43],[-62,-13]],[[6400,7862],[44,27],[44,-3]],[[6488,7886],[113,57],[69,-40],[38,-78]],[[6576,7674],[-21,17],[-150,9],[-82,-103]],[[6169,8043],[17,142]],[[6186,8185],[29,-18],[74,2],[25,42],[100,19]],[[6414,8230],[-3,-32],[46,-17],[-37,-80],[15,-32],[-8,-66],[61,-117]],[[6414,8230],[38,22],[61,-11],[20,-52],[-23,-56],[31,-46],[29,48],[54,22],[71,-30],[11,25]],[[6706,8152],[-9,-105],[45,-59]],[[6742,7988],[-6,-74],[30,-62]],[[6968,7866],[6,80]],[[6974,7946],[79,51],[65,10],[184,-21],[-1,20],[132,16],[83,-26]],[[6974,7946],[-59,62],[38,127]],[[6953,8135],[30,-1],[41,55],[83,1],[30,42],[78,-19],[47,-69],[-6,-49],[82,5],[6,48],[41,47],[83,19],[51,46],[85,-28],[46,24],[34,-18],[56,17]],[[7740,8255],[-9,-102]],[[7731,8153],[-43,-94],[-2,-75]],[[7863,7325],[48,57],[34,-19],[35,21],[0,73],[60,32],[-7,34],[106,76],[79,80],[23,48]],[[8241,7727],[219,-273],[53,-12],[2,-50]],[[8515,7392],[-246,-18],[6,-111]],[[8275,7263],[-35,11],[-73,-19],[-143,10]],[[8024,7265],[-25,-6],[-25,-56],[-117,-16]],[[8024,7265],[32,-247]],[[8056,7018],[-104,-27]],[[8275,7263],[101,-69],[-63,-43],[-43,-10],[58,-83]],[[8328,7058],[-60,-26]],[[8268,7032],[-111,1],[-101,-15]],[[7952,6991],[23,-43],[52,-27],[75,-18],[75,-40],[64,-72],[87,-67]],[[8328,6724],[45,-62]],[[8373,6662],[-39,-73]],[[8334,6589],[-77,-25],[26,107],[-49,30],[-45,-84],[-77,40],[-49,8],[34,60],[-65,30],[-77,-38]],[[8268,7032],[40,-69],[115,-98],[78,-38]],[[8501,6827],[-101,-45],[-33,-55],[-39,-3]],[[8334,6589],[-21,-42],[-25,-113],[-66,-108]],[[8222,6326],[-72,25],[-24,-15]],[[8126,6336],[-56,60],[-114,33],[17,46],[-144,117]],[[7829,6592],[-45,23]],[[7644,6355],[78,2],[43,121]],[[7765,6478],[22,-1],[42,115]],[[8126,6336],[21,-87],[-60,-121],[143,-55],[38,-27],[-36,-63],[27,-37]],[[8259,5946],[-143,-7],[-160,108]],[[7956,6047],[-27,6],[-71,-78],[-60,20],[-173,128]],[[8241,7727],[65,5],[54,61],[64,25],[19,-14],[1,-81],[80,31],[155,-54],[52,22]],[[8731,7722],[78,33],[61,-55],[67,-11],[54,14],[26,-37],[-35,-43],[26,-52]],[[9008,7571],[-6,-8]],[[9002,7563],[-57,-83],[-79,-84],[-68,-41]],[[8798,7355],[-135,-6],[-63,13],[-61,-11],[-24,41]],[[8798,7355],[51,-318],[-3,-59]],[[8846,6978],[-45,-33],[-63,-14],[5,-29]],[[8743,6902],[-49,69],[-110,17],[-132,93],[-88,-6],[-36,-17]],[[8743,6902],[54,-86],[-9,-46]],[[8788,6770],[-50,-36]],[[8738,6734],[-51,-14],[-52,19],[-19,35],[-115,53]],[[8738,6734],[65,-31],[-2,-38],[40,-37],[-1,-55],[-25,-30],[-62,-2],[-45,-108],[-57,-52],[-29,5]],[[8622,6386],[-17,20],[-74,16],[-51,64],[0,50],[-58,81],[-49,45]],[[8622,6386],[-8,-95]],[[8614,6291],[-27,-40]],[[8587,6251],[-78,-17],[-165,64],[-69,35],[-53,-7]],[[8587,6251],[10,-64],[31,-66],[64,-54],[-53,-81],[-47,-30],[34,-149]],[[8626,5807],[-99,7],[-19,-11]],[[8508,5803],[-60,-6],[-49,38],[-20,39],[-120,72]],[[9097,7554],[122,17],[158,-17]],[[9377,7554],[25,-100],[-21,-75],[-31,-35],[4,-47]],[[9354,7297],[-64,0],[-28,38],[-56,-27],[-78,-3],[-48,58],[-39,9],[-18,69],[30,26],[44,87]],[[9002,7563],[95,-9]],[[9354,7297],[20,-80],[-6,-105],[9,-75],[23,-34]],[[9400,7003],[-16,-3],[-51,116],[-111,-1],[-34,-29]],[[9188,7086],[-57,55],[-23,64],[-40,-1],[-103,-65],[-30,-48],[-32,-90],[-57,-23]],[[9188,7086],[53,-97],[4,-65],[-62,-38],[14,-63],[4,-93],[-17,-27]],[[9184,6703],[-63,3],[-104,62],[-67,28],[-82,-15],[-6,-29],[-74,18]],[[9184,6703],[-11,-185],[57,-135]],[[9230,6383],[-3,-116],[-30,-62],[-31,-1]],[[9166,6204],[-102,-25],[-47,-23],[-157,2],[-67,51],[-74,6],[-46,56],[-59,20]],[[9166,6204],[38,-24],[-8,-37],[30,-118],[33,-73],[-22,-31],[-2,-73],[-44,-44],[47,-28],[5,-79],[-47,-51],[-56,-6],[-50,-57]],[[9090,5583],[-64,1],[-73,44],[-91,-4],[-33,67],[-18,91],[-70,36]],[[8741,5818],[-39,13],[-76,-24]],[[9008,7571],[59,-2],[15,52],[59,-3],[58,-21],[45,24],[23,89],[43,57],[53,-32],[12,59],[38,20],[62,-13],[116,33],[25,-52],[58,-38],[-14,-88],[57,-33],[22,41],[41,-11],[53,44],[48,-17],[26,40],[-3,59]],[[9904,7779],[43,25],[53,-117]],[[10000,7687],[-130,-68],[-79,-84],[-116,-15]],[[9675,7520],[-298,34]],[[9675,7520],[-27,-75],[49,-133],[23,-34],[15,-70],[61,-145]],[[9796,7063],[-55,-61],[-98,81],[-32,72],[-51,29],[-2,-111],[-28,-122],[27,-66]],[[9557,6885],[-85,29]],[[9472,6914],[-19,52],[-53,37]],[[10000,7687],[106,-205],[59,-88],[-20,-108]],[[10145,7286],[-56,8],[-38,-15],[0,-39],[-68,-7],[-70,-66],[-12,-65],[-73,-58],[-32,19]],[[9472,6914],[-25,-165],[56,-59],[9,-37]],[[9512,6653],[1,-42],[-58,-59],[-33,-83],[-42,-9],[-45,-64],[-105,-13]],[[9796,7063],[30,-143],[53,-40],[5,-54],[-92,-49]],[[9792,6777],[-87,-43],[-40,20],[-64,-72],[-59,-15]],[[9542,6667],[-17,23],[9,71],[47,120],[-24,4]],[[9512,6653],[30,14]],[[9792,6777],[26,-19],[13,-65],[26,-36],[73,-35],[53,7]],[[9983,6629],[-49,-93],[2,-29],[54,-69],[-55,-21],[47,-71],[-11,-64],[-42,-108],[4,-51],[-45,-4],[-41,-31],[-31,22],[-72,-51],[40,-50],[12,-43]],[[9796,5966],[-31,-48],[-5,-43],[-38,-36],[-65,-20],[-13,-34],[7,-80],[-80,-49],[-7,-38],[-75,-29],[-30,-50]],[[9459,5539],[-14,55],[-53,55],[-27,-53],[-123,-21],[-20,-22],[-79,6],[-53,24]],[[6918,4978],[-19,-30],[60,-55],[23,-76],[57,-39],[-4,-44],[89,-27]],[[7124,4707],[-13,-57],[-59,-50],[-47,-6]],[[7005,4594],[-172,-121],[-65,18],[-57,-5],[-3,61],[76,56],[16,55],[-92,-47],[-103,-2],[-49,33],[-16,43],[94,62],[54,24],[7,52],[28,49]],[[6723,4872],[69,48]],[[6723,4872],[-61,-63],[-76,-50],[-28,89],[-43,4],[-30,-58],[-53,-25]],[[6432,4769],[-166,65],[-59,84]],[[6207,4918],[114,142],[92,-36],[66,-42],[5,59],[26,100],[33,28]],[[6543,5169],[73,-47]],[[6543,5169],[-60,45],[-138,85],[-89,-6],[-44,14],[18,104]],[[6230,5411],[37,65],[-22,37],[19,34],[70,48],[65,23]],[[6207,4918],[-41,89],[-82,98]],[[6084,5105],[-77,147],[-5,25]],[[6002,5277],[52,51],[59,16],[98,63]],[[6211,5407],[19,4]],[[6211,5407],[-42,-3],[-41,59],[-94,63],[-234,28]],[[5800,5554],[7,30]],[[5807,5584],[129,153],[30,48],[111,55]],[[6077,5840],[33,51]],[[6002,5277],[-42,63],[-80,46]],[[5880,5386],[-65,85],[-15,83]],[[5807,5584],[-17,19],[-8,118],[22,62],[-3,99]],[[5801,5882],[13,26],[65,6]],[[5879,5914],[40,37],[33,-3],[25,-50],[39,-28],[37,7],[24,-37]],[[6432,4769],[-62,-33],[5,-56],[58,-15],[10,-83],[26,-18],[10,-66],[-64,-187],[-42,-80],[-6,-37]],[[6367,4194],[-75,-42],[-63,-91],[-63,-36],[-83,-30],[-91,-51],[-174,0]],[[5818,3944],[0,72],[19,45],[-31,27],[-1,167]],[[5805,4255],[0,572]],[[5805,4827],[1,362]],[[5806,5189],[96,-30],[127,-71],[55,17]],[[5806,5189],[68,188]],[[5874,5377],[6,9]],[[5874,5377],[-135,61],[-53,-4]],[[5686,5434],[-113,6],[-28,60],[-172,-7],[-51,122],[-43,72],[-90,0]],[[5189,5687],[11,37],[83,45],[79,110]],[[5362,5879],[48,-40],[22,-77],[86,-34],[66,14],[12,39],[67,50],[47,-15],[65,71],[26,-5]],[[6367,4194],[34,25],[51,-23],[50,-44],[17,-43],[-22,-94],[-67,-33],[-14,-37],[18,-53],[-41,-32],[-35,18],[-24,-87],[-84,-91],[-5,-53],[76,9],[44,22],[58,-46],[-5,-40],[-43,-71],[2,-58],[-50,-51],[-76,0],[-69,-43],[-25,-43],[-110,4],[9,-54],[-30,-30],[-41,-87],[12,-65],[42,-21],[-63,-61],[31,-40],[-36,-38],[41,-92],[-93,-109],[11,-27],[-59,-117],[-23,-82],[-79,-20],[-15,144],[-52,17],[-72,46],[-91,-16],[-33,-91],[-37,-31],[-63,-2],[-76,-101],[-20,-51],[32,-17],[-17,-59],[-54,-27],[-68,-12]],[[5203,2287],[6,478],[-21,33]],[[5188,2798],[-18,25],[9,133],[53,-24],[116,13],[24,97],[-19,42],[22,61]],[[5375,3145],[26,68],[-76,93],[10,65],[-61,109],[120,65],[-57,115],[75,34],[47,46],[45,68],[69,-22],[72,70],[117,74],[56,14]],[[5805,4827],[-287,4],[-104,9],[-43,-40],[-61,-25],[-35,38],[-21,-53],[-42,-27],[-48,59],[-45,-21],[-10,-38],[-103,-21]],[[5006,4712],[20,45],[-29,58],[-92,31],[51,33]],[[4956,4879],[38,12],[81,-13],[36,54],[-4,51],[53,2],[46,66],[90,11],[48,76],[35,85],[-2,47],[49,62]],[[5426,5332],[51,-61],[29,46],[94,40],[86,77]],[[4956,4879],[-57,129]],[[4899,5008],[26,56],[-2,41],[54,116],[-7,43],[20,37],[22,115],[-1,98]],[[5011,5514],[50,75],[62,51],[21,-3]],[[5144,5637],[16,-66],[-5,-116],[37,-23],[33,-86],[135,-15],[31,24],[35,-23]],[[6176,6150],[-193,-17],[-34,52],[-33,13],[-32,-44]],[[5884,6154],[-37,124],[-44,13],[-26,36],[-5,56]],[[5772,6383],[0,75],[51,39]],[[5823,6497],[90,49],[33,-9],[27,36],[-2,100]],[[5735,6804],[-15,-59],[-117,-65],[-52,-8]],[[5551,6672],[-46,55],[-55,-10],[-36,91]],[[5414,6808],[-19,80],[15,47],[-20,36],[7,82]],[[5397,7053],[48,62]],[[5362,5879],[38,61],[89,49],[28,89],[-10,27],[-61,22],[-58,73]],[[5388,6200],[-47,32],[-17,55],[-60,67]],[[5264,6354],[65,-30],[141,-19],[72,4],[36,18],[95,7],[99,49]],[[5884,6154],[17,-48],[-41,-36],[24,-73],[-5,-83]],[[5264,6354],[20,52],[-49,6],[-45,104]],[[5190,6516],[50,9],[20,70],[39,29],[31,-20],[81,144],[3,60]],[[5551,6672],[120,-111],[-44,-27],[33,-44],[127,56],[36,-49]],[[5388,6200],[-10,-28],[-61,-40],[-86,-3],[-18,-41],[-39,14],[-123,-53],[-66,-4],[-135,-40],[-28,7]],[[4822,6012],[4,52],[-17,68],[44,155],[-7,59],[58,4]],[[4904,6350],[61,11],[61,70]],[[5026,6431],[37,2],[33,36],[43,-2],[24,53],[27,-4]],[[5318,8607],[-26,304]],[[5292,8911],[60,33],[112,-11]],[[5464,8933],[38,-44],[36,11],[175,-2],[21,-37],[117,-45],[34,-46],[-5,-37]],[[5880,8733],[-90,-1],[-83,-24],[-1,-86],[-35,-21],[-107,-4],[-50,45],[-56,-146],[-21,111],[-119,0]],[[4643,8472],[-80,-39],[-9,-67],[-28,-6],[-44,64],[-25,-3],[-64,71],[-165,72],[24,83],[-43,44],[2,70],[-47,3],[-70,-17]],[[4094,8747],[-11,22],[36,64],[-2,56],[25,90],[49,36],[38,59],[-102,25],[-45,44],[-37,72],[-45,39],[-2,40],[-47,4],[-24,37],[62,49],[7,41],[48,0],[63,21],[50,39],[117,-24],[28,11],[67,64],[-5,106],[97,25],[-13,49],[-47,31],[71,66],[61,-59],[35,24],[42,-15]],[[4610,9763],[21,-11],[18,-76]],[[4649,9676],[-14,-597],[9,-330]],[[4644,8749],[-40,-105],[47,-56],[37,-67],[-45,-49]],[[5464,8933],[-46,153],[-50,48],[13,55],[-15,124],[-25,292]],[[5341,9605],[5,27],[86,43],[10,31],[52,24],[21,-20]],[[5515,9710],[61,-93],[40,-80],[-13,-152],[6,-36],[241,-22],[17,10]],[[5867,9337],[-6,-69],[34,-1],[59,-56],[67,-40],[107,-22],[5,-165],[-33,-22],[-34,-61],[-91,-41],[-23,-61],[-72,-66]],[[5515,9710],[-37,56],[-1,91],[-37,22],[-11,44],[21,108],[28,84]],[[5478,10115],[32,-6],[8,-57],[390,-1],[73,97],[87,-28],[66,52],[20,33],[62,1]],[[6216,10206],[16,-11]],[[6232,10195],[100,-332],[-69,-61],[1,-43],[-38,-11],[-3,-61],[89,-36],[68,1],[43,-21],[93,0],[69,-49]],[[6585,9582],[-50,-196],[-48,-140]],[[6487,9246],[-51,-36],[-95,-32],[-46,44],[-27,-45],[-43,17],[-68,57],[-101,-7],[-43,48],[-84,56],[-62,-11]],[[5478,10115],[-25,-5],[-29,63],[-52,3],[-34,92]],[[5338,10268],[25,45],[-23,79],[17,38],[0,92],[16,104]],[[5373,10626],[72,64],[55,-32],[65,66],[62,-33],[93,-22],[43,16]],[[5763,10685],[3,-43],[-26,-75],[32,-11],[66,43],[52,-32],[45,-96],[-2,-74],[47,-115],[115,34],[120,-42],[1,-68]],[[7631,9103],[-17,79],[-33,100],[-63,-1],[-25,43],[-43,10],[-83,-38],[-55,-5],[-45,38],[-27,99],[25,105],[59,46],[20,130],[-64,75],[-40,124],[6,55],[34,23],[-15,374],[-47,368],[93,-6],[18,14],[1,78],[25,36]],[[7355,10850],[62,-96],[-19,-79],[119,-132],[7,-28],[-36,-189],[-43,-56],[44,-68],[51,20],[36,-32],[95,11],[124,-14],[-6,-59],[83,-43],[48,-103],[32,-26],[45,11],[141,91],[-6,49],[126,31],[44,-28],[14,-58],[-95,14],[-25,-58],[17,-62],[-24,-19],[-25,-70],[33,-47],[-19,-89],[-63,-28],[-101,-114],[23,-28],[-39,-74],[-24,-152],[-25,-1]],[[7949,9324],[-51,-30],[-13,-36],[-90,-93],[-41,-21],[-55,-62],[-68,21]],[[7740,8255],[-26,71],[24,78],[-23,111],[18,50],[117,73],[4,75],[-41,54],[29,16],[44,64],[94,92]],[[7980,8939],[53,-55],[51,-76],[44,-24],[-16,-38],[36,-32],[46,52],[67,22],[39,42],[58,-1],[3,-40],[60,-68],[28,-7],[110,105],[17,46],[33,3]],[[8609,8868],[119,-22],[12,-86],[-38,-55],[16,-53],[-38,-141],[-26,-40]],[[8654,8471],[-32,-36],[-39,-224]],[[8583,8211],[-141,7],[-92,-27],[-127,-5],[-124,-44]],[[8099,8142],[-67,-40],[-86,9],[-73,54],[-61,-34],[-81,22]],[[8099,8142],[36,-100],[63,-77],[9,-39]],[[8207,7926],[-37,-28],[-51,-1],[6,-58],[40,-2]],[[8165,7837],[-66,-113],[-1,-27],[-112,-47],[-17,39],[-91,54],[-75,15]],[[8583,8211],[4,-33],[56,-143],[-4,-38]],[[8639,7997],[-62,-15],[-48,-43],[-130,-40],[-54,-39]],[[8345,7860],[-16,57],[-44,82],[-78,-73]],[[8345,7860],[-73,-15],[-107,-8]],[[8639,7997],[1,-38],[38,-64],[16,-116],[37,-57]],[[8609,8868],[-31,67],[42,54],[32,5],[71,88],[54,-61],[46,-82],[145,88],[71,64],[37,11],[38,52],[14,61],[28,5],[41,87]],[[9197,9307],[-7,75],[-40,32],[64,95],[52,19],[5,35],[43,21]],[[9314,9584],[72,-97],[64,-34],[25,-78],[2,-55],[135,-16],[42,4],[63,-110],[9,-69],[23,-33],[28,-153],[28,-39],[78,113],[68,-5],[105,44],[42,-1]],[[10098,9055],[3,-85],[-28,-81]],[[10073,8889],[-52,-23],[-15,-130],[46,-48],[0,-54],[39,-45],[-5,-44]],[[10086,8545],[-49,-9],[-283,-90],[-104,-29],[-158,9],[-67,21],[-141,-45]],[[9284,8402],[-72,126],[-65,-11],[-72,-57],[-180,45],[-52,29],[-92,-23],[-97,-40]],[[8639,7997],[54,23],[32,58],[143,54],[58,138],[114,49],[163,17],[81,66]],[[10086,8545],[45,-78],[7,-99],[92,-110]],[[10230,8258],[-52,36],[-41,-25],[-34,35],[-78,33],[-34,-30],[-35,12],[-60,-60],[45,-31],[-7,-55],[-50,-4],[-12,-41],[-90,-13],[42,-62],[1,-96],[40,-50],[39,-128]],[[10073,8889],[28,-56],[54,-31],[75,-14],[56,4],[109,41],[83,117],[93,26],[56,-61],[11,121],[18,10],[117,-4],[44,21],[26,-19],[12,-62],[36,-36],[129,4]],[[11020,8950],[-20,-40],[-74,-72],[-72,-19],[-11,-66],[-110,-25],[33,-58],[-57,-52],[59,-83]],[[10768,8535],[-33,-43],[-4,-43],[-44,-14],[-72,18],[-55,-10],[-84,14],[-124,41],[-64,-42],[-7,-57],[-32,-47],[-19,-94]],[[12102,9157],[-37,101],[-67,45],[-15,54],[12,58],[-58,46],[-29,51],[-72,-21],[-76,73],[-71,18],[-137,105],[195,223],[135,122],[90,-82],[71,17],[46,-73],[104,-29],[47,57],[33,64],[87,51],[33,-7],[66,-158],[37,-17],[16,-115],[-21,-42],[-58,-34],[-25,-86],[25,-25],[9,-61],[44,-64],[172,88]],[[12658,9516],[-56,-36],[-11,-156],[-38,-33],[-50,27],[-87,-11],[-46,20],[-74,-43],[-15,-48],[-38,12],[-49,-34],[-78,-31],[-14,-26]],[[10768,8535],[25,-9],[20,-69],[80,-11],[19,-30],[76,-65],[45,-8]],[[11033,8343],[-43,-49],[5,-157]],[[10995,8137],[-49,40],[-71,11],[-127,-28],[-93,-50],[-175,-169],[-95,-19],[-51,-39]],[[10334,7883],[-22,-4],[-78,-78],[-24,-51],[-63,16],[-6,-42],[-141,-37]],[[10334,7883],[24,-82],[-60,-44],[8,-51],[33,-54],[89,-51],[62,12],[21,-25],[-30,-83],[-10,-75],[18,-66]],[[10489,7364],[-133,-20],[-55,45],[-156,-103]],[[10995,8137],[-11,-43],[-89,-25],[74,-210],[30,-62],[44,34],[44,-6],[22,81]],[[11109,7906],[14,-49],[54,-105],[-4,-60],[-58,0],[-41,-50],[-30,-3],[-80,-44],[2,-62],[40,-17]],[[11006,7516],[-78,-17],[-60,45],[-172,15],[-104,38],[-59,-64],[-4,-52],[55,-100]],[[10584,7381],[-95,-17]],[[10145,7286],[0,-70],[-27,-71],[20,-64],[52,-5],[21,-42],[43,-10],[28,-71]],[[10282,6953],[11,-76],[-36,-80],[45,-102],[-13,-22]],[[10289,6673],[-96,2],[-28,-39],[8,-117],[-93,8],[-97,102]],[[10584,7381],[45,-106],[-28,-50],[-2,-74],[-32,-119],[-2,-93],[-69,-53]],[[10496,6886],[-89,-8],[-46,69],[-79,6]],[[11006,7516],[66,-253],[42,-180],[82,17],[35,-30],[59,-8],[81,-37]],[[11371,7025],[13,-47],[-55,-3],[-33,-56],[-12,-62],[-109,-9],[0,-184],[-69,-100],[-44,-30]],[[11062,6534],[-3,-9]],[[11059,6525],[-16,-57],[25,-158],[-17,-66],[-67,-184],[-96,26],[-52,-39],[-49,31],[-37,63],[-55,-93],[-59,33],[-43,140],[-30,27],[60,81],[50,9],[48,63],[23,75],[-102,-39],[-124,24],[-48,67],[-49,24],[-20,34]],[[10401,6586],[28,28],[-3,94],[27,75],[-8,42],[51,61]],[[11371,7025],[31,23],[40,-24],[29,18],[40,-24],[-7,-44]],[[11504,6974],[6,-45],[100,-35],[56,-71],[-5,-27],[60,-75],[77,-41],[40,-59],[-7,-38]],[[11831,6583],[-44,-42],[-46,-135],[-119,-70],[-95,83],[-119,23],[-147,68],[-199,24]],[[11504,6974],[81,34],[36,70],[86,5],[27,44],[41,-28]],[[11775,7099],[1,-19],[96,-75],[113,-114],[27,-5],[88,-67],[37,-68],[60,-74],[41,8]],[[12238,6685],[8,-73],[-43,-115],[19,-152],[21,-27],[3,-138]],[[12246,6180],[-27,-21],[-35,58],[0,46],[-31,66],[-106,39],[-63,10],[-65,41],[-28,37],[-60,127]],[[11775,7099],[70,2],[49,57],[-13,80],[28,45],[54,131],[54,-50],[182,82],[127,36]],[[12326,7482],[67,-28],[-19,-32],[14,-50],[67,-37],[5,-39],[80,-10],[43,-105],[45,-31],[11,-91],[50,-40]],[[12689,7019],[-231,-139],[-206,-168],[-14,-27]],[[12689,7019],[62,-12],[36,-28],[-22,-110],[26,-29],[37,24],[147,-30]],[[12975,6834],[-35,-60],[-7,-121],[-16,-43],[18,-56],[-20,-37],[-94,-94],[-11,-78],[-74,-26],[-49,-74],[-50,-12],[-20,-57],[-47,-19],[-37,-39],[-51,-19],[-67,-59],[-59,35],[-39,104],[-71,1]],[[12326,7482],[353,130],[92,37],[187,150]],[[12958,7799],[49,-51],[30,-61],[-16,-34],[24,-50],[-130,-19],[-54,-53],[39,-122],[30,-63],[63,-2],[41,37],[61,3],[4,65],[63,4],[81,-122],[15,-41]],[[13258,7290],[-33,-11],[-11,-50],[-82,-100],[-3,-57],[-51,34],[-31,-43],[18,-55],[-35,-29],[13,-51],[-40,-21],[-28,-73]],[[12958,7799],[89,64],[70,6],[211,0],[38,51],[108,22],[66,-55],[70,18],[18,61],[-11,73],[64,4]],[[13681,8043],[171,-144],[52,-134],[33,-21],[-26,-97],[17,-63],[-145,-46],[6,-37],[-26,-97],[3,-58],[-31,-1],[-44,-53],[-34,29],[-44,-38],[6,-59]],[[13619,7224],[-98,64],[-26,53],[-73,-40],[-53,53],[-58,3],[-4,-75],[-49,8]],[[13681,8043],[-61,47],[-59,-22],[-82,10],[-122,-44],[-83,22],[-8,81],[-54,26],[-23,81],[-83,58],[-84,-16],[-58,-31],[-31,14],[-57,-40],[-66,71],[-86,69],[-34,47],[10,28],[140,104],[0,71],[-68,54],[12,51],[-80,92],[-18,41],[-52,30],[-6,65],[31,52],[14,132],[37,41],[-30,74],[10,35],[-24,111],[-8,119]],[[12658,9516],[76,79],[41,20],[84,77],[79,36],[16,37],[85,25],[36,44],[98,67],[21,45],[121,-5],[26,20]],[[13341,9961],[25,-18],[7,-151],[-7,-66],[85,-57],[15,-32],[130,-104],[74,-6],[70,-99],[10,-67],[38,-60],[68,-26],[52,-94],[34,-13],[48,-105],[66,-89],[58,-51],[23,13],[55,-46],[59,0],[44,35],[82,-16],[44,25],[31,42],[61,-2],[29,-21],[36,-80],[-6,-24],[21,-123],[48,-76],[3,-38],[34,-88],[58,-22],[69,5],[32,-115],[51,1],[29,29],[60,-39],[47,-113],[18,-70],[28,-37],[55,-23],[17,-37],[-1,-77],[-72,-118],[0,-39],[-41,-22],[-19,-42],[-59,-41],[65,-63],[60,-101],[9,-74],[-81,-49]],[[15003,7477],[-131,-70],[-37,-41],[-87,-148],[-104,-30]],[[14644,7188],[-58,6],[-52,-30],[-65,-86],[-73,-21],[-51,5],[-53,-28],[-51,12],[-20,41],[-53,22],[-48,-35],[9,-51],[-72,-86],[-130,-14],[-16,-25],[-73,2],[-147,57],[-32,31],[-13,103],[42,12],[3,50],[-72,71]],[[14644,7188],[39,-46],[45,-7],[-1,-56],[44,-77],[-40,-29],[23,-51],[43,-27],[51,27],[74,8],[33,-70],[-23,-34],[40,-71],[-3,-338],[346,-8],[94,-254],[7,-54],[-16,-72],[-33,-49],[-60,-57],[-57,-29],[-74,-95],[-79,-77],[-3,-52],[85,17],[11,-28],[87,47],[31,-37],[105,-30],[6,-27],[-92,-52],[-11,-40],[59,-56],[-73,-86],[47,-43],[87,48],[66,12],[9,-107],[43,-14]],[[15554,5274],[9,-88],[-16,-64],[-58,-23],[-22,-32],[50,-100],[-53,-15],[-4,-44],[-61,-56],[-60,-35],[-80,9],[-23,-21],[-79,-14],[-78,56],[17,52],[-140,-38],[-46,4],[-20,36],[-170,-63],[-68,-80],[-62,7],[-88,-57],[-54,-14],[-26,-42],[-71,-42],[-100,-13],[-30,-36],[-49,-17],[-134,1],[-56,31],[-91,21],[-122,-97],[7,-31],[-32,-47],[-156,-53],[-55,-6],[-98,8],[-58,-29],[-58,-11],[-51,56],[5,29],[55,35],[50,1],[-46,66],[38,65],[-46,6]],[[13324,4589],[82,129],[32,75],[118,240],[16,54],[-2,129],[-11,65],[-67,-20],[-34,10],[-65,-31],[-68,23],[55,61],[3,114],[73,62],[-3,50],[37,77],[-75,211],[33,30],[39,75],[13,89],[-14,119],[-27,68],[17,46],[-12,86],[21,25],[12,74],[-14,70],[-69,108],[-48,17],[-40,65],[-39,22],[-81,18],[19,85],[-4,125],[66,103],[75,52],[-47,101],[-57,74]],[[15003,7477],[71,-17],[41,-26],[46,68],[134,18],[182,-68],[33,-1],[55,-72],[67,-5],[100,28],[10,32],[81,46],[47,7],[52,47],[61,-12],[78,53],[38,-4],[56,87],[214,56],[29,78],[53,10],[27,27],[52,-51],[6,-86],[95,-69],[112,-34],[24,-19],[21,-76],[20,-22],[60,37],[48,-11],[63,29],[29,37],[46,-24],[37,6],[-4,-59],[13,-65],[-24,-59],[27,-34],[116,-4],[84,29],[33,-39],[37,6],[73,-24],[10,-23],[-30,-62],[31,-36],[-8,-42],[67,-26],[0,-57],[29,-56],[39,-24],[36,-53],[-20,-64],[4,-135],[60,-53],[7,-41],[-62,-24],[34,-73],[47,-33],[66,15],[36,-50],[-17,-38],[-50,-3],[-49,-118],[81,-16],[-3,-51],[-60,-51],[-50,-76],[43,-26],[130,36],[48,43],[55,-27],[-14,-88],[78,-23],[103,75],[37,-16],[25,-87],[-20,-10],[43,-88],[16,-100],[42,-87],[-61,-20],[-94,-154],[-44,40],[-54,-29],[-71,-84],[-55,-26],[-32,-43],[-62,-14],[-25,-55],[-69,-92],[-142,-35],[-109,-1],[-80,-94],[-108,-52],[-71,20],[-25,31],[-44,-44],[-51,-3],[-47,85],[-86,-14],[-46,13],[-76,-13],[-55,27],[-109,4],[-42,53],[-55,3],[27,68],[49,23],[-23,99],[22,52],[-74,43],[-54,2],[-47,59],[-43,0],[-59,-36],[-26,-90],[-31,-25],[-65,39],[-52,-25],[-24,32],[-59,-36],[-95,13],[-42,-44],[-54,-3],[-40,22],[-46,-20],[-85,-97],[-51,9],[-69,-41],[-22,18]],[[9459,5539],[-5,-55],[49,-22],[-9,-49],[20,-66],[61,-59],[11,-38],[56,-33],[44,-77]],[[9686,5140],[-27,-53],[-39,-13],[-39,-57],[-116,85]],[[9465,5102],[-57,0],[-33,-28],[-11,-63],[-50,-1],[-13,-33],[-72,-70],[-52,-25]],[[9177,4882],[-61,115],[-12,58]],[[9104,5055],[39,21],[31,75],[-4,48],[30,76],[-61,8],[-88,-9],[-47,38],[-62,-22],[-36,-39]],[[8906,5251],[-47,50],[-172,-24]],[[8687,5277],[-78,64],[-45,-6]],[[8564,5335],[-21,35],[46,23],[34,63],[125,34],[-51,120],[34,124],[10,84]],[[9104,5055],[-57,13],[-55,-21],[-92,3],[6,201]],[[9177,4882],[-25,-33],[-15,-70],[-131,-46],[-28,-44],[-39,-11],[-27,-60],[-75,-42]],[[8837,4576],[-40,-14],[-73,40],[3,62],[-28,6]],[[8699,4670],[-38,-7],[-30,39],[14,40],[-5,100],[19,38],[42,22],[0,51],[35,31]],[[8736,4984],[33,84],[-14,110],[-38,31],[-30,68]],[[9465,5102],[-64,-154],[-7,-56],[26,-58],[74,51],[31,41],[95,-70],[78,47],[84,-10],[10,27],[67,74],[31,-22],[51,15],[85,-53],[2,-81],[-17,-44],[49,-76],[-10,-40]],[[10050,4693],[-23,-31],[-68,47],[-35,-23],[-7,-51],[33,-43],[-21,-74],[-52,-16]],[[9877,4502],[-52,20],[-64,-13],[-39,-95],[-32,6]],[[9690,4420],[-126,-60]],[[9564,4360],[-86,39],[-46,38],[-5,65],[-64,50],[29,35],[-10,44],[11,73],[-29,26],[-46,-32],[-22,49],[28,15],[-51,76],[-96,44]],[[9877,4502],[-52,-36],[-9,-49],[11,-79],[29,-49],[35,18],[44,-17],[49,46],[106,49],[88,-82],[46,-9]],[[10224,4294],[-20,-44],[35,-39],[-26,-51],[-67,-48],[-18,10],[-75,-41],[-40,-55],[-72,-4],[-58,-46],[-43,4],[-54,-51],[-40,9],[-124,-32]],[[9622,3906],[-11,140],[30,74],[-18,54],[36,46],[42,-6],[3,89],[-14,117]],[[8564,5335],[-26,-8],[-141,34]],[[8397,5361],[10,79],[-7,94],[-52,-24],[-93,42],[41,64]],[[8296,5616],[99,70],[4,93],[87,-6],[22,30]],[[8296,5616],[-171,21],[-31,-16]],[[8094,5621],[-102,186]],[[7992,5807],[-57,89]],[[7935,5896],[53,23],[-32,128]],[[8094,5621],[-24,-16],[29,-62],[-92,-56],[15,-47],[-9,-53],[61,-54]],[[8074,5333],[-73,-119],[-56,-31],[-53,39]],[[7892,5222],[-23,56],[-105,170],[-39,27]],[[7725,5475],[29,46],[51,37],[59,-44],[41,54],[26,169],[61,70]],[[8397,5361],[-8,-56],[-109,-50],[-44,-7],[-97,75],[-65,10]],[[8736,4984],[-77,10],[-74,37],[-70,-27],[-29,44],[-46,-23],[-102,-6],[-54,8],[-32,26],[-76,-17],[-87,-61],[-30,-6]],[[8059,4969],[-66,61],[-65,-11]],[[7928,5019],[-45,14],[-13,48],[21,54],[1,87]],[[8699,4670],[-14,-25],[-74,-46],[-92,38],[-47,-41],[0,-40],[-65,-70],[-72,-27]],[[8335,4459],[-22,48],[-2,69],[-40,41],[17,49],[30,21],[16,49],[-43,55],[-67,2],[-39,-22],[-56,41]],[[8129,4812],[-38,51],[-32,106]],[[7935,5896],[-75,-49],[-130,-6],[-1,-91],[12,-37],[-90,3],[-50,33],[-47,5]],[[7725,5475],[-86,-6],[-109,118]],[[7892,5222],[-214,-38],[-77,-2]],[[7601,5182],[-104,-17],[-64,-45],[-71,47],[-32,36]],[[7330,5203],[40,91],[-57,12],[-97,-89],[-46,41],[-36,107]],[[7928,5019],[-43,-31],[-66,-1],[-33,-33],[-48,25],[53,-177]],[[7791,4802],[-33,23],[-157,-18],[-31,-48],[-107,-45],[-27,42]],[[7436,4756],[32,90],[106,89],[-4,103],[14,34],[-25,36],[42,74]],[[8129,4812],[-44,-44],[-8,-157],[-33,-35],[5,-62],[-33,-38],[-86,35],[-37,1],[-79,74],[-20,45],[-3,171]],[[8335,4459],[-49,-109],[31,-23],[6,-60],[-32,-49],[-83,-15],[-7,-25]],[[8201,4178],[-27,-27],[-77,7],[-43,-16],[-19,62],[-53,18],[-94,-67],[-53,26],[-92,-26],[-129,-61],[-42,-34],[-52,3],[-37,-57],[-49,-20],[-85,260],[-82,151]],[[7267,4397],[-13,76],[13,91],[54,38],[11,46],[103,71],[1,37]],[[8201,4178],[66,-21],[43,8],[72,38],[21,-17],[56,55],[119,-63],[89,-115]],[[8667,4063],[-102,-69],[-25,-31],[-118,-63],[-82,44],[-85,-5],[-144,-113],[-116,-77],[-53,-14],[-172,-4],[-98,-14],[-108,-33],[-219,-108],[-79,-7],[-216,4]],[[7050,3573],[7,79],[-35,110],[-219,266],[-48,110],[-14,132],[-37,136]],[[6704,4406],[61,-11],[89,8],[65,-63],[42,17],[72,-19],[54,-36],[34,20],[67,0],[26,48],[53,27]],[[7267,4397],[-28,82],[43,200]],[[7282,4679],[20,135],[-18,107],[-59,102],[36,19],[-7,53],[35,4],[33,38],[-19,39],[27,27]],[[6956,5177],[46,60],[12,114],[33,-33],[59,46],[28,1]],[[7282,4679],[-56,-11],[-24,62],[-78,-23]],[[6704,4406],[162,59],[139,129]],[[5188,2798],[-59,-9],[-167,119],[-144,18]],[[4818,2926],[-167,30],[-29,64],[-50,23],[56,58],[8,89],[-72,61],[-44,61],[-13,85],[-2,125],[-45,68],[-14,138]],[[4446,3728],[9,55],[51,-24],[47,28],[43,78],[46,58],[61,19],[46,-25],[39,21],[58,-6],[59,-37],[43,-2],[49,42],[58,19]],[[5055,3954],[13,19],[115,-11],[28,-12]],[[5211,3950],[-56,-52],[-108,-64],[-29,-66],[2,-45],[27,-65],[-63,-73],[-19,-70],[-50,-26],[-24,-81],[60,-41],[71,1],[100,-26],[169,-109],[84,-88]],[[5203,2287],[-32,-22],[-107,-15],[-141,9],[-25,76],[-69,23]],[[4829,2358],[-57,74],[-7,60],[30,38],[-41,52],[15,72],[37,14],[-1,153],[14,15],[-1,90]],[[5189,5687],[-45,-50]],[[5011,5514],[-350,143],[61,30],[6,34],[41,29],[2,65],[28,43],[-22,70],[19,61]],[[4796,5989],[23,24]],[[4819,6013],[3,-1]],[[4899,5008],[-157,-36],[-68,24],[-33,48],[2,60],[-49,29],[-68,-30],[-72,-14],[-101,-34],[-27,-49],[-59,34],[-61,5]],[[4206,5045],[26,89],[14,106],[31,70],[-101,84],[-31,10],[-10,115],[49,-11],[35,-39],[58,21],[-17,52],[35,58],[-25,44],[67,33],[112,103]],[[4449,5780],[59,41],[52,0],[106,74],[23,64],[107,30]],[[5006,4712],[1,-85],[13,-62],[-40,-108],[-42,-56],[35,-55],[-4,-48],[68,-28],[12,-49],[130,-61],[25,-38],[74,-2],[21,-45]],[[5299,4075],[-2,-70],[-86,-55]],[[5055,3954],[-16,56],[-92,16],[-67,-39],[-75,-11],[-78,42],[-35,69],[4,49],[-101,-16],[-38,-36],[-97,-33],[-46,87],[-37,9],[-61,56],[-44,-95],[-109,28],[-54,75],[-58,12],[-26,55],[-56,2],[0,76],[22,37],[-7,87],[-45,16],[-21,61],[140,222],[53,43],[28,44],[67,179]],[[4446,3728],[-54,-14],[-3,-47],[-28,-38]],[[4361,3629],[-52,59],[-54,12],[-122,51],[-48,42],[-45,-35],[-72,-6],[-38,-36],[-49,-1],[-43,-59],[-50,3],[-50,-33],[-90,53],[-47,6],[-34,33],[-80,15],[-130,43],[-100,18]],[[3257,3794],[11,48],[36,30],[-27,77],[27,8],[51,73],[-17,66],[15,45],[-12,97],[-32,44],[30,103],[59,39]],[[3398,4424],[56,39],[56,7],[96,86],[67,108],[27,195],[41,114],[-5,53],[34,46],[-9,53],[30,68],[25,-7],[40,53]],[[3856,5239],[37,-43],[42,-10],[30,-51],[83,-54],[23,-51],[115,32],[20,-17]],[[4788,1913],[36,-123],[21,-136]],[[4845,1654],[-49,-22],[-47,24],[-39,-47],[-38,6],[-102,-84],[74,-86],[-25,-28],[-123,1],[-37,-19],[-42,-69],[-60,-2],[-23,-60],[-109,-80],[-73,-19],[-23,-49],[-62,-18],[-64,4],[-47,-58],[-35,-16],[-1,-63],[38,-74],[81,-98],[36,-1],[24,-87],[-9,-33],[45,-56],[-55,-53],[-82,-56],[-81,12],[-32,-76],[-79,-90],[6,-33],[-89,-109],[-113,-81],[-57,20],[-9,49],[-64,-1],[-38,39],[-22,-53],[-38,22],[-79,95],[15,35],[-42,41],[-35,-40],[1,-44],[-90,-12],[-63,-55],[-79,17],[-31,-22],[-51,35],[-8,-45],[28,-77],[-45,-24],[2,-60],[-62,-20],[-43,-34],[-88,50],[-34,54],[-25,-14],[-67,36],[-40,65],[-25,-43],[-65,-39],[-12,-40],[-45,-26],[-155,112],[-58,21],[-14,37],[22,51],[-10,50],[-45,3],[-19,52],[6,59],[-58,21],[-29,35],[-24,67],[-52,29],[-54,125],[-55,25],[-43,-5],[-18,-42],[-53,-55],[-27,-69],[-26,-14],[-120,34],[-115,67],[-42,-7],[-18,95],[-81,68],[8,84],[-49,19],[-48,47],[-67,-11],[-76,-41],[-34,-36],[-17,-81],[-32,-24],[-167,-63],[-33,29],[-71,0],[-51,47],[-139,42],[-58,9],[-32,-18],[-94,4],[-27,23],[-80,-15],[-59,47],[11,49],[38,49],[-65,107],[9,52],[-59,78],[-63,9],[-21,54],[-35,35],[43,64],[105,20],[32,68],[-45,0],[-15,46],[-37,27],[2,77],[17,37],[45,-30],[58,4],[31,53],[-39,54],[-3,63],[49,-25],[53,12],[40,-84],[24,46],[37,16],[61,-40],[144,24],[-14,66],[41,53],[5,39],[66,50],[44,72],[36,5],[14,45],[53,63],[-39,28],[70,81],[3,58],[-23,25],[0,53],[55,29],[-24,40],[30,32],[47,8],[-6,37],[-45,26],[32,66],[0,89],[62,17],[17,76],[61,58],[14,115],[83,-19],[32,-44],[65,-34],[65,43],[86,-21],[128,47],[25,-13],[60,27],[58,-23],[13,63],[70,-50],[54,-16],[76,6],[9,30],[55,45],[76,20],[58,-93],[50,-37]],[[2164,2891],[56,-68],[45,-25],[85,-100],[45,-26],[35,-52],[56,-19],[3,-32],[50,-43],[52,-140],[27,-123],[67,-12],[51,28],[4,31],[79,46],[80,-78],[44,-22],[28,-69],[68,2],[27,-98],[32,-45],[-4,-121],[43,-98],[50,-49],[74,21],[75,-68],[54,-21],[103,35],[41,-55],[28,41],[45,-1]],[[3607,1730],[40,-39],[75,-35],[79,36],[25,69],[43,-13],[69,65],[76,0],[33,-57],[6,-61],[66,32],[35,-1],[42,-38],[21,-45],[61,43],[54,13],[75,-21],[69,48],[53,-5],[51,24],[32,48],[61,9],[22,63],[44,38],[49,10]],[[4449,5780],[-114,87]],[[4335,5867],[-6,146],[-43,30],[-65,77],[71,62],[-28,52],[0,39],[51,31],[-7,38],[39,16]],[[4347,6358],[47,4],[-2,62],[109,15],[54,-55],[77,-46],[44,-1],[32,32]],[[4708,6369],[8,-72],[38,-12],[0,-67],[-43,-57],[19,-77],[63,-20],[26,-51]],[[4335,5867],[-70,3],[-31,101],[-42,-44],[-42,-13],[-64,-76],[-105,9],[-40,29],[-54,-8],[-1,-32],[-47,-41],[-83,-42],[-124,-44],[-32,-96],[23,-26],[-58,-60],[-65,-105],[-1,-76]],[[3499,5346],[-112,-29]],[[3387,5317],[-68,74],[-56,8],[-108,-57],[-52,32],[-52,-21],[-1,63],[-124,17],[-9,44],[-65,17],[-80,50],[-34,-62],[-80,-6],[-29,54]],[[2629,5530],[7,123],[30,45],[-17,27],[8,96],[-17,78],[16,34],[-34,85]],[[2622,6018],[52,5],[42,79],[115,-17],[90,30],[56,-16],[51,73],[1,83]],[[3029,6255],[100,56],[24,78],[73,62],[6,59],[158,89],[64,4],[27,-17],[100,31]],[[3581,6617],[45,-58],[51,-21],[130,17],[66,-19],[131,49]],[[4004,6585],[8,-57],[73,-21],[54,-77],[93,-35],[42,-38],[29,19],[44,-18]],[[3398,4424],[7,81],[-71,49],[-46,85],[-29,2],[-56,167],[32,45],[7,76],[46,7],[47,34],[66,-3],[-8,65],[25,26],[-43,62],[24,71],[24,11],[-36,115]],[[3499,5346],[138,-69],[49,-6],[5,-52],[99,-9],[23,30],[43,-1]],[[2570,5207],[8,-37],[-30,-58],[-41,-32],[-82,-32],[-82,-92],[-14,-67],[23,-55],[59,-42],[66,-3],[38,-47],[-16,-59],[-62,-59],[36,-53],[-19,-58],[40,-30],[-29,-124],[-57,-57],[22,-98],[-12,-34],[15,-123],[-55,-49],[-7,-130],[36,-47],[-35,-89],[-53,-7],[-37,-70]],[[2282,3655],[-39,29],[-13,138],[-33,47],[-68,29],[-19,71],[49,33],[5,59],[-49,4],[-33,31],[4,87],[32,62],[-8,79],[-70,15],[-50,-28],[-69,63],[-31,123],[-60,78],[-19,77],[-55,45],[-9,61],[51,33],[-49,164],[21,89],[-97,30],[-77,-4],[-29,56],[11,44],[-52,23],[-38,50],[34,39],[-15,86],[13,46],[104,40],[3,72],[75,-5],[68,30],[44,97],[-24,107]],[[1790,5755],[45,2],[46,-28],[96,-22],[22,-72],[31,-7],[75,-72],[81,2],[41,-19],[26,-93],[46,-63],[85,-8],[72,-69],[49,28],[46,-5],[-2,-73],[21,-49]],[[2629,5530],[-16,-35],[71,-57],[-15,-73],[-24,-8],[-5,-80],[-59,-37],[-11,-33]],[[1790,5755],[32,32],[7,81],[86,15],[29,58],[56,28],[38,106],[33,45],[-8,31]],[[2063,6151],[78,-17],[55,29],[67,-17],[27,55],[83,-31],[67,-95],[74,-15],[53,-88],[55,46]],[[5026,6431],[-13,72],[30,78],[68,-29],[34,28],[-20,104],[-118,48],[59,182],[11,136]],[[5077,7050],[83,-86],[89,-25],[71,-37],[94,-94]],[[5077,7050],[-44,68]],[[5033,7118],[34,29]],[[5067,7147],[102,-35],[110,-79],[76,-22],[42,42]],[[5067,7147],[-2,70],[101,138],[-47,20],[1,40],[123,5],[127,-77]],[[4904,6350],[-25,159],[-27,52],[-93,18],[-39,-20]],[[4720,6559],[-6,75],[-26,33],[2,64],[-32,74],[17,30]],[[4675,6835],[-5,45],[33,19],[21,171],[-7,73]],[[4717,7143],[129,6],[60,-32],[110,-8],[17,9]],[[4717,7143],[-11,43]],[[4706,7186],[37,68],[72,35],[7,65],[-51,71],[-3,31],[87,115],[9,59],[54,15],[-16,72]],[[4902,7717],[90,-35],[110,-116],[54,-7],[22,-30],[201,7]],[[4004,6585],[8,63],[53,1],[-17,91],[91,0],[50,49],[-15,71]],[[4174,6860],[68,12],[92,-16],[56,-72]],[[4390,6784],[7,-42],[-27,-33],[-19,-82],[12,-40],[52,-20],[86,59],[59,-43],[44,11],[116,-35]],[[4720,6559],[18,-27],[-30,-163]],[[4390,6784],[48,-32],[53,-1],[33,110],[93,-3],[58,-23]],[[4174,6860],[-4,180],[26,42],[-26,38],[100,115]],[[4270,7235],[91,2],[62,26],[37,46],[35,-2],[90,-124],[28,-21],[71,-7],[22,31]],[[4270,7235],[10,75],[-86,71],[-3,49],[-65,47],[-13,92],[-79,50],[-45,88]],[[3989,7707],[104,27],[34,-44],[44,-20],[121,-16],[57,35],[68,-24],[57,6],[40,-18],[123,46],[93,-40],[18,-33],[81,26],[15,50],[-3,64],[76,67]],[[4917,7833],[11,-10]],[[4928,7823],[9,-76],[-35,-30]],[[4174,6860],[-62,-46],[-60,-26],[-52,22],[-65,-56],[-59,-12],[-55,42],[16,60],[-17,50],[-37,41]],[[3783,6935],[29,73],[-4,47],[-32,65],[-71,13],[-72,56],[-41,-34],[-65,50],[0,73],[-89,-36],[-71,37]],[[3367,7279],[290,191],[27,88]],[[3684,7558],[94,18],[5,50],[63,19],[11,99],[-7,31],[40,38],[48,-12],[4,-35],[47,-59]],[[3783,6935],[-30,-48],[-19,-79],[6,-60],[-45,14],[-62,-49]],[[3633,6713],[-25,52],[-31,0],[-52,62],[-20,63],[24,33],[-13,55],[-50,57],[-2,77],[-25,33],[-57,-12],[-26,40],[1,100]],[[3357,7273],[10,6]],[[3029,6255],[-31,58],[-74,82],[-74,-54],[-45,47],[57,33],[56,121],[-53,9],[-180,71],[-72,9],[-61,-24],[-67,8],[-79,90]],[[2406,6705],[35,22],[-36,56],[-32,0],[-30,111],[12,69],[89,39],[95,21],[76,57],[-15,38],[-56,47],[7,79],[38,68],[-14,38]],[[2575,7350],[62,-10],[53,61],[57,-13],[106,41],[66,9],[-1,37]],[[2918,7475],[49,-21],[44,-51],[46,-20],[114,3],[29,-36],[137,-83],[20,6]],[[3633,6713],[-52,-96]],[[4643,8472],[6,-52],[72,-53],[18,-50],[42,-48],[19,-55],[17,-134],[26,-50],[21,-107],[54,-53],[-1,-37]],[[3684,7558],[-44,8],[-78,-12],[-33,44],[-87,0],[-63,30],[-43,-23],[-55,3],[-80,33],[-156,-17],[2,-34],[-47,-46],[-57,-21],[-25,-48]],[[2575,7350],[-29,-2],[-84,59],[10,42],[-41,33],[-58,94],[-32,80],[-51,11],[55,71],[-31,72],[25,18],[32,71],[7,69],[-27,46],[34,100],[-51,56],[-61,13],[-32,40],[-89,-17],[-38,62],[-52,31]],[[2062,8299],[87,-2],[93,42],[69,3],[68,-16],[47,25],[97,4],[43,18],[114,-50],[142,92],[53,44],[30,50],[31,107],[92,12],[37,-12],[33,65],[83,67],[-95,61],[28,53],[30,15],[79,-4],[56,79],[82,-27]],[[3361,8925],[131,-28],[96,-41],[92,-89],[128,2],[74,18],[0,26],[72,-3],[108,-64],[32,1]],[[2062,8299],[29,24],[7,72],[-38,75],[-40,15],[1,76],[50,55],[-30,113],[37,24],[0,40],[-47,66],[-28,70],[11,47],[45,26],[22,52],[37,-12],[41,31],[-12,60],[-93,51],[-20,81],[6,51],[-38,85],[108,45],[48,41],[124,5],[45,57],[90,41],[82,-11],[25,68],[44,17],[27,-30],[105,7],[93,57],[27,-12],[45,53],[52,10],[25,27],[45,-57],[113,39],[62,-5],[58,60],[54,-6]],[[3274,9807],[-6,-7],[1,-315],[-57,-84],[7,-50],[27,-14],[50,-64],[52,-14],[20,76],[60,-13],[94,14],[44,43],[51,-43],[72,-39],[-9,-99],[-41,-36],[-54,5],[-7,-30],[-66,-52],[-80,-21],[-52,7],[-50,-38],[31,-108]],[[6459,6429],[16,9]],[[6555,6386],[10,-29],[-21,-141],[5,-22]],[[7765,6478],[-65,8]],[[6706,8152],[57,-23]],[[6763,8129],[12,-46],[52,-54],[-51,-51],[-34,10]],[[6763,8129],[81,1],[73,31],[36,-26]],[[5293,7772],[-73,49],[3,95],[-75,3]],[[5148,7919],[3,28],[62,41],[-5,77],[65,1],[0,107],[34,15],[26,-109],[71,-3],[44,-88],[42,-4]],[[5148,7919],[-21,-25],[-50,4],[-22,31],[-51,22],[-33,-15],[-7,-64],[-36,-49]],[[4644,8749],[72,23],[105,-4],[27,37],[52,17],[60,-95],[52,33],[79,-58],[39,15],[-20,51],[40,22],[37,-14],[25,30],[57,-10],[10,111],[13,4]],[[5318,8607],[70,-145],[17,-170],[31,-59]],[[5880,8733],[11,-33],[48,-33],[62,0],[8,-90],[15,-33],[94,-11],[15,-86],[70,6]],[[6203,8453],[8,-95],[19,-55],[-44,-118]],[[6203,8453],[79,-48],[25,67],[-10,23],[100,66],[63,-55],[34,9]],[[6494,8515],[60,-71],[63,-35],[39,-52],[55,26],[35,-4],[113,22],[60,-17],[102,77],[43,18],[-3,37],[115,28],[-21,48],[35,32],[-8,43],[30,66],[62,77],[62,14],[4,48],[-24,39],[36,31],[55,15],[67,60],[82,49],[23,43],[52,-6]],[[7949,9324],[72,-19],[44,-50],[40,-15]],[[8105,9240],[-25,-83],[-91,-88],[5,-94],[-14,-36]],[[7050,3573],[2,-77],[-12,-237],[-89,-101],[-37,-78],[2,-95],[19,-157],[29,-39],[61,-24],[109,-77],[-7,-113],[10,-37],[-8,-106],[-13,-37],[12,-109],[20,-42],[13,-84],[65,-30],[-40,-45],[3,-78],[39,-23],[-19,-41],[15,-42],[-52,-122],[-38,3],[12,-75],[97,-20],[-20,-51],[9,-77],[-37,-47],[40,-29],[14,-45],[-30,-31],[7,-61],[-28,-24]],[[7198,1322],[-19,-35],[-40,18],[-70,-53],[-66,-23],[-86,-48],[-10,-53],[24,-43],[-2,-59],[47,-37],[-98,-41],[-29,-46],[-83,-26],[-55,-4],[-49,77],[-51,23],[-36,53],[-83,-9],[-92,6],[-39,-13],[-48,23],[-24,46],[-94,-11],[-28,-55],[-86,-31],[-40,22],[-38,-65],[-98,-11],[-38,41],[-133,-43],[-70,52],[-56,1],[-72,-27],[-77,-122],[-85,-34],[-57,-3],[-28,-47],[-59,48],[12,44],[65,29],[31,107],[39,35],[13,56],[29,38],[47,106],[-56,-1],[-39,71],[-12,64],[-33,27],[-58,-6],[-47,57],[19,84],[-92,23],[-53,90],[-52,11],[-43,-29],[-29,43],[-57,6],[-30,26],[-39,-20]],[[4788,1913],[-16,130],[25,64],[42,58],[28,109],[-34,32],[-4,52]],[[5805,4255],[-122,3],[-73,-17],[-38,11],[-58,53],[-89,8],[-62,-24],[-26,-39],[-4,-124],[-34,-51]],[[3274,9807],[67,119],[58,13],[40,44],[46,-35],[27,22],[45,-12],[83,5],[106,55],[23,39],[66,17],[36,63],[10,58],[27,18],[77,9],[14,60],[159,71],[25,-48],[105,-29],[78,30],[87,-71]],[[4453,10235],[-53,-48],[25,-151],[55,-28],[19,-53],[70,-7],[87,-44],[5,-25],[-56,-64],[5,-52]],[[4649,9676],[44,-99],[90,13],[123,-64],[7,-41],[92,-14],[57,22],[44,-74],[64,31],[-10,82],[8,48],[48,34],[104,6],[21,-15]],[[6487,9246],[27,-90],[-3,-56],[45,-27],[48,11],[1,-80],[49,-68],[-35,-39],[48,-61],[-61,-98],[-40,-43],[-41,-73],[-31,-107]],[[4453,10235],[49,20],[-7,69],[48,26],[121,-19],[71,-26],[9,74],[85,21],[47,59],[-7,93],[13,84],[106,-43],[31,-87],[93,34]],[[5112,10540],[65,-98],[16,-72],[59,-67],[86,-35]],[[6232,10195],[91,81],[4,28],[-38,49],[63,9],[27,57],[177,62],[148,24],[62,58],[67,23],[37,46]],[[6870,10632],[13,-1]],[[6883,10631],[-2,-79],[-48,-10],[-86,-114],[7,-32],[-143,-28],[-6,-66],[81,-20],[25,-54],[49,19],[14,-117],[89,-56],[30,-33],[-5,-51],[-117,-66],[14,-83],[-85,-46],[-104,-25],[0,-42],[34,-47],[-37,-28],[-8,-71]],[[5112,10540],[2,48],[67,58],[29,-29],[62,-15],[101,24]],[[5763,10685],[44,37],[69,-7],[43,-35],[49,-1],[81,36],[102,-38],[-8,-31],[52,-33],[49,27],[35,-13],[43,17],[44,-40],[46,-16],[50,68],[70,-31],[82,-10],[44,-17],[59,34],[103,35],[50,-35]],[[6883,10631],[35,15],[45,-27],[57,27],[36,-3],[2,175],[55,43],[-8,41],[46,80],[-5,43],[77,31],[36,-21],[27,-103],[18,5]],[[7304,10937],[39,-43],[12,-44]],[[7304,10937],[90,-24],[53,-2],[96,59],[166,-15],[48,-39],[77,20],[74,-9],[9,-56],[69,-19],[61,11],[138,-17],[70,45],[98,9],[1,-87],[19,-81],[128,25],[25,-60],[101,-33],[70,-88],[45,-27],[9,-55],[34,-8],[32,-80],[39,-22],[20,-71],[85,18],[46,39],[-15,74],[27,15],[53,-37],[73,42],[115,-40],[58,-81],[-34,-46],[122,-116],[-6,-47],[29,-41],[-4,-38],[23,-60],[27,-23],[20,-63],[46,-10]],[[9541,9899],[-26,-32],[-63,-3],[8,-43],[-29,-49],[-42,-30],[-57,-75],[19,-69],[-37,-14]],[[9197,9307],[-78,3],[-82,21],[-64,-13],[-66,8],[-65,-62],[-89,-4],[-53,43],[-9,91],[-21,24],[-93,22],[-51,-40],[-55,14],[-65,-71],[-62,21],[-57,-3],[-63,-57],[-95,-42],[-24,-22]],[[9541,9899],[41,80],[35,39],[24,57],[39,-16],[33,26],[-5,38],[31,24],[-11,65],[61,53],[62,-24],[72,15],[2,56],[30,46],[80,5],[68,36],[98,27]],[[10201,10426],[-12,-80],[20,-49],[57,-80],[-18,-54],[19,-72],[-3,-49],[-26,-33],[41,-65],[-35,-84],[18,-76],[28,-49],[44,-35],[46,-10],[101,11],[28,-68],[-39,-14]],[[10470,9619],[-29,-82],[-27,-8],[-34,-80],[-67,-30],[-62,-60],[-7,-38],[-92,-76],[-59,-26],[-22,-80],[38,-56],[-11,-28]],[[10470,9619],[37,0],[61,70],[198,80],[36,-20],[63,43],[75,-25],[39,-78],[5,-55],[60,-22],[-26,-51],[23,-100],[-16,-106],[7,-59],[-19,-21],[3,-110],[162,-178]],[[11178,8987],[-95,7],[-63,-44]],[[11178,8987],[90,-83],[59,-74],[81,-63],[41,-17],[31,-66],[91,5]],[[11571,8689],[-31,-48],[12,-74],[-74,-44],[-2,-27],[-49,-43],[-11,-48],[-34,-1],[-52,-42],[-31,1]],[[11299,8363],[-43,-35],[-57,-6],[-63,-26],[-62,8],[-41,39]],[[12102,9157],[-16,-32],[-71,-28],[-8,-40],[-56,-2],[-61,-100],[-44,28],[-71,-87],[-109,-32],[-14,-111],[-41,-88],[-40,24]],[[10201,10426],[45,12],[-23,71],[68,28],[75,134],[1,25],[101,43],[38,-14],[22,42],[58,16],[17,52],[111,92],[53,84],[38,12],[31,63],[-6,40],[45,73],[3,34],[-39,44],[-12,49],[27,33],[-15,40],[54,29],[27,-14],[128,60],[80,51],[21,80],[40,7],[155,-92],[62,54],[40,7],[59,-17],[29,-31],[50,42],[63,-12],[82,2],[24,-38],[56,1],[36,-85],[64,-15],[137,-105],[37,-47],[79,2],[30,-30],[16,-70],[-13,-34],[58,-32],[50,-48],[99,-40],[38,-45],[66,14],[43,-33],[94,-44],[43,9],[14,-56],[-34,-26],[-15,-59],[20,-37],[-15,-84],[126,-45],[-41,-40],[-18,-138],[27,-33],[59,14],[78,-86],[-10,-33],[32,-60],[114,1],[33,-33],[69,54],[74,-2],[-28,-97],[12,-100],[29,9],[50,-34],[52,-2],[27,-77]],[[11299,8363],[-13,-77],[-19,-15],[-2,-99],[-26,-26],[12,-40],[-78,-104],[-69,-18],[5,-78]],[[10289,6673],[-28,-66],[34,-23],[5,-111]],[[10300,6473],[-39,-103],[-63,-7],[-12,-51],[-35,-54],[-24,-89],[-51,-107],[-14,-52],[-92,-57],[-36,-54]],[[9934,5899],[-11,31],[-56,36],[-71,0]],[[10401,6586],[-60,-113],[-41,0]],[[11059,6525],[141,-151],[72,-65],[80,-122],[19,-141],[13,-32],[51,-40],[-29,-54],[1,-59],[-38,-111],[86,-161],[-9,-38],[43,-67],[-2,-47],[-41,-53],[22,-16],[-23,-59],[2,-92],[-32,-8],[-52,-115],[-27,-103],[-58,-14],[-58,-34],[-46,-57],[-111,-44],[-92,-82],[33,-78],[-14,-59],[17,-36],[-23,-81],[-113,-112],[-18,-55],[-54,-62],[-94,-50],[-17,10]],[[10688,4237],[58,69],[-87,66],[-43,75]],[[10616,4447],[15,54],[-15,65],[7,67],[37,127],[-59,17],[6,-47],[-32,-28]],[[10575,4702],[-15,58],[3,108],[-57,76],[10,111],[-29,66],[-77,44],[-64,87],[-82,38],[-19,37],[39,154],[22,7],[-14,86],[13,61],[-43,-2],[-75,-59],[-43,-8],[-67,41],[-41,-11],[-37,77],[-16,87],[-40,79],[-9,60]],[[13324,4589],[-49,76],[-132,-126],[-16,-29],[-99,83],[-61,-109],[-46,1],[-136,-39],[-41,-73],[-66,-29],[-64,35],[-43,-29],[-60,34],[-74,-63],[-26,-52],[-1,-62],[-60,22],[-52,-13],[-57,-111],[-189,39],[5,84],[-36,36],[-82,-28],[-95,72],[-49,21],[-60,0],[-54,20],[-42,-66],[-67,-77],[13,-82],[-21,-59],[-85,-40],[1,-24],[-52,-74],[-151,-22],[-25,20],[-56,-25]],[[11196,3900],[-56,44],[-16,107],[-33,45],[-75,70],[-50,-20],[-55,4],[-33,32],[-37,-1],[-83,52],[-27,-26],[-43,30]],[[9934,5899],[-48,-45],[-60,-83],[-22,-122],[-54,-79],[-14,-55],[15,-90],[23,-41],[53,-154],[-13,-47],[-128,-43]],[[10575,4702],[-27,48],[-42,-27],[7,-61],[-99,-70],[-33,23],[-100,-32],[-40,49],[-84,74],[-64,-41],[-43,28]],[[9564,4360],[-25,-16],[21,-62],[-40,-87],[-16,-72],[16,-73],[-18,-29],[-110,-28],[-12,-43]],[[9380,3950],[-79,-30],[-56,22],[-48,-55],[-71,-3],[-30,17],[-60,77],[57,61],[-57,50],[21,46],[-43,39],[-53,75],[-95,67],[6,41],[39,35],[-9,114],[-42,16],[-23,54]],[[10616,4447],[-68,10],[-44,30],[-19,-91],[-81,-54],[-104,-12],[-24,-33],[-52,-3]],[[9622,3906],[-116,-53],[-28,23],[-68,-4],[2,57],[-32,21]],[[11196,3900],[-64,-97],[-102,-69],[-50,-73],[-42,14],[-103,-85],[-21,-39],[-92,-70],[1,256],[-48,-29],[-48,6],[-73,45],[-82,-17],[-73,-67],[-75,0],[-74,-42],[-123,-18],[-51,18],[-62,-38],[38,-36],[-42,-89],[-102,-77],[-93,-51],[-41,13],[-92,-3],[-62,-51]],[[9620,3301],[-46,-10],[-88,44],[-66,-5],[-71,90],[34,42],[-94,40],[-19,-16],[-91,54],[-89,76],[-43,94],[-47,4],[-53,74],[-31,12],[-79,77],[-15,47],[-67,53],[-88,86]],[[9620,3301],[-70,-100],[-47,-11],[-3,65],[-51,-53],[-90,-44],[-38,34],[-44,-26],[-38,-60],[28,-28],[-37,-51],[36,-47],[4,-44],[-56,-85],[-98,-26],[-48,-35],[-5,-29],[-55,-100],[-57,55],[-10,-91],[-42,-89],[-29,-8],[-29,-66],[-47,-17],[-50,-65],[-38,20],[-43,-31],[-44,-57],[-13,-88],[-107,-98],[-68,5],[-80,-20],[-69,6],[-20,-76],[-45,-51],[-72,-22],[-26,-107],[-85,-13],[-38,-59],[-142,-137],[-38,-83],[-86,-11],[-33,12],[-30,-79],[-44,-42],[-51,-3],[-79,-59],[-106,-60],[-155,-20],[-34,15]],[[3607,1730],[70,95],[54,11],[29,70],[72,61],[-1,38],[29,68],[-10,47],[11,62],[79,92],[120,-17],[39,41],[22,55],[70,4],[22,93],[34,81],[57,71],[25,82],[1,67],[-20,45],[-92,-15],[-40,36],[-54,-24],[-112,45],[-57,47],[-61,71],[-72,7],[-50,57],[81,35],[68,98],[-29,55],[3,61],[56,17],[18,94],[-26,37],[-7,55],[43,67],[96,-22],[91,-38],[67,34],[-2,62],[89,-15],[41,69]],[[2164,2891],[66,76],[18,58],[86,12],[-5,45],[19,91],[-38,46],[-10,44],[35,45],[54,-1],[27,-22],[70,42],[50,-3],[64,45],[59,12],[22,67],[-33,41]],[[2648,3489],[-10,34],[65,5],[30,29],[13,72],[-29,59],[86,92],[72,42],[75,-52],[-33,-56],[88,-81],[1,-35],[87,-2],[28,24],[10,51],[92,3],[21,35],[-13,54],[26,31]],[[2648,3489],[-55,-33],[-101,34],[-56,42],[-46,82],[-44,-13],[-64,54]],[[2063,6151],[30,27],[33,70],[3,98],[76,45],[0,53],[-51,65],[29,43],[75,11],[20,33],[58,21],[15,50],[55,38]]],"transform":{"scale":[0.00008300488206253396,0.00007603169135377289],"translate":[-47.20803099999999,-24.065788]},"objects":{"zonas_1987_s":{"type":"GeometryCollection","geometries":[{"arcs":[[0,1,2,3,4,5,6,7,8,9]],"type":"Polygon","properties":{"codigo":"1","nome":"Se","municipio_nome":"São Paulo"},"id":"1"},{"arcs":[[-2,10,11,12]],"type":"Polygon","properties":{"codigo":"2","nome":"Bras","municipio_nome":"São Paulo"},"id":"2"},{"arcs":[[-4,13,14]],"type":"Polygon","properties":{"codigo":"3","nome":"Tabatinguera","municipio_nome":"São Paulo"},"id":"3"},{"arcs":[[-3,-13,15,16,17,18,-14]],"type":"Polygon","properties":{"codigo":"4","nome":"Glicerio","municipio_nome":"São Paulo"},"id":"4"},{"arcs":[[-5,-15,-19,19,20]],"type":"Polygon","properties":{"codigo":"5","nome":"Liberdade","municipio_nome":"São Paulo"},"id":"5"},{"arcs":[[-6,-21,21,22,23]],"type":"Polygon","properties":{"codigo":"6","nome":"Bexiga","municipio_nome":"São Paulo"},"id":"6"},{"arcs":[[-7,-24,24,25,26,27]],"type":"Polygon","properties":{"codigo":"7","nome":"Consolacao","municipio_nome":"São Paulo"},"id":"7"},{"arcs":[[-8,-28,28,29]],"type":"Polygon","properties":{"codigo":"8","nome":"Santa Cecilia","municipio_nome":"São Paulo"},"id":"8"},{"arcs":[[-9,-30,30,31]],"type":"Polygon","properties":{"codigo":"9","nome":"Campos Eliseos","municipio_nome":"São Paulo"},"id":"9"},{"arcs":[[-10,-32,32,33,34,35,36]],"type":"Polygon","properties":{"codigo":"10","nome":"Bom Retiro","municipio_nome":"São Paulo"},"id":"10"},{"arcs":[[-1,-37,37,38,39]],"type":"Polygon","properties":{"codigo":"11","nome":"Ponte Pequena","municipio_nome":"São Paulo"},"id":"11"},{"arcs":[[-39,40,41,42]],"type":"Polygon","properties":{"codigo":"12","nome":"Pari","municipio_nome":"São Paulo"},"id":"12"},{"arcs":[[-11,-40,-43,43,44,45]],"type":"Polygon","properties":{"codigo":"13","nome":"Bresser","municipio_nome":"São Paulo"},"id":"13"},{"arcs":[[-12,-46,46,47,48,49,-16]],"type":"Polygon","properties":{"codigo":"14","nome":"Mooca","municipio_nome":"São Paulo"},"id":"14"},{"arcs":[[-17,-50,50,51,52]],"type":"Polygon","properties":{"codigo":"15","nome":"Cambuci","municipio_nome":"São Paulo"},"id":"15"},{"arcs":[[-18,-53,53,54,55,-22,-20]],"type":"Polygon","properties":{"codigo":"16","nome":"Aclimacao","municipio_nome":"São Paulo"},"id":"16"},{"arcs":[[-52,56,57,58,-54]],"type":"Polygon","properties":{"codigo":"17","nome":"Gloria","municipio_nome":"São Paulo"},"id":"17"},{"arcs":[[-55,-59,59,60,61,62,63]],"type":"Polygon","properties":{"codigo":"18","nome":"Paraiso","municipio_nome":"São Paulo"},"id":"18"},{"arcs":[[-23,-56,-64,64,65,66,-25]],"type":"Polygon","properties":{"codigo":"19","nome":"Paulista","municipio_nome":"São Paulo"},"id":"19"},{"arcs":[[-63,67,68,-65]],"type":"Polygon","properties":{"codigo":"20","nome":"Alamedas","municipio_nome":"São Paulo"},"id":"20"},{"arcs":[[-26,-67,69,70,71]],"type":"Polygon","properties":{"codigo":"21","nome":"Pacaembu","municipio_nome":"São Paulo"},"id":"21"},{"arcs":[[-27,-72,72,73,-29]],"type":"Polygon","properties":{"codigo":"22","nome":"Veiga Filho","municipio_nome":"São Paulo"},"id":"22"},{"arcs":[[-31,-74,74,75,-33]],"type":"Polygon","properties":{"codigo":"23","nome":"Brigadeiro Galvao","municipio_nome":"São Paulo"},"id":"23"},{"arcs":[[-71,76,77,78,79,80,-75,-73]],"type":"Polygon","properties":{"codigo":"24","nome":"Sumare","municipio_nome":"São Paulo"},"id":"24"},{"arcs":[[-34,-76,-81,81,82,83]],"type":"Polygon","properties":{"codigo":"25","nome":"Barra Funda","municipio_nome":"São Paulo"},"id":"25"},{"arcs":[[-35,-84,84,85,86,87]],"type":"Polygon","properties":{"codigo":"26","nome":"Casa Verde","municipio_nome":"São Paulo"},"id":"26"},{"arcs":[[-38,88,-87,89,90,91]],"type":"Polygon","properties":{"codigo":"27","nome":"Santana","municipio_nome":"São Paulo"},"id":"27"},{"arcs":[[-41,-92,92,93,94,95,96,97]],"type":"Polygon","properties":{"codigo":"28","nome":"Vila Guilherme","municipio_nome":"São Paulo"},"id":"28"},{"arcs":[[-97,98,99,100]],"type":"Polygon","properties":{"codigo":"29","nome":"Vila Maria","municipio_nome":"São Paulo"},"id":"29"},{"arcs":[[-42,-98,-101,101,102,103,-44]],"type":"Polygon","properties":{"codigo":"30","nome":"Belenzinho","municipio_nome":"São Paulo"},"id":"30"},{"arcs":[[-45,-104,104,105,106,-47]],"type":"Polygon","properties":{"codigo":"31","nome":"Quarta-Parada","municipio_nome":"São Paulo"},"id":"31"},{"arcs":[[-48,-107,107,108,109,110,111]],"type":"Polygon","properties":{"codigo":"32","nome":"Alto da Mooca","municipio_nome":"São Paulo"},"id":"32"},{"arcs":[[-49,-112,112,113,-57,-51]],"type":"Polygon","properties":{"codigo":"33","nome":"Ipiranga","municipio_nome":"São Paulo"},"id":"33"},{"arcs":[[-58,-114,114,115,116,117,-60]],"type":"Polygon","properties":{"codigo":"34","nome":"Saude","municipio_nome":"São Paulo"},"id":"34"},{"arcs":[[-118,118,119,120,121,122,123,124]],"type":"Polygon","properties":{"codigo":"35","nome":"Indianopolis","municipio_nome":"São Paulo"},"id":"35"},{"arcs":[[-123,125,126,127,128]],"type":"Polygon","properties":{"codigo":"36","nome":"Itaim I","municipio_nome":"São Paulo"},"id":"36"},{"arcs":[[-62,129,130,131,132,133,134,-68]],"type":"Polygon","properties":{"codigo":"37","nome":"Jardins I","municipio_nome":"São Paulo"},"id":"37"},{"arcs":[[-66,-69,-135,135,136,-77,-70]],"type":"Polygon","properties":{"codigo":"38","nome":"Clinicas","municipio_nome":"São Paulo"},"id":"38"},{"arcs":[[-78,-137,137,138,139]],"type":"Polygon","properties":{"codigo":"39","nome":"Vila Madalena","municipio_nome":"São Paulo"},"id":"39"},{"arcs":[[-79,-140,140,141,142]],"type":"Polygon","properties":{"codigo":"40","nome":"Cerro Cora","municipio_nome":"São Paulo"},"id":"40"},{"arcs":[[-80,-143,143,144,145]],"type":"Polygon","properties":{"codigo":"41","nome":"Pompeia","municipio_nome":"São Paulo"},"id":"41"},{"arcs":[[-82,-146,146,147,148]],"type":"Polygon","properties":{"codigo":"42","nome":"Agua Branca","municipio_nome":"São Paulo"},"id":"42"},{"arcs":[[-148,149,150,151,152]],"type":"Polygon","properties":{"codigo":"43","nome":"Freguesia do O","municipio_nome":"São Paulo"},"id":"43"},{"arcs":[[-83,-149,-153,153,154,155,-85]],"type":"Polygon","properties":{"codigo":"44","nome":"Limao","municipio_nome":"São Paulo"},"id":"44"},{"arcs":[[-86,-156,156,157,158,159,160,-90]],"type":"Polygon","properties":{"codigo":"45","nome":"Mandaqui","municipio_nome":"São Paulo"},"id":"45"},{"arcs":[[-91,-161,161,162,163,-93]],"type":"Polygon","properties":{"codigo":"46","nome":"Agua Fria","municipio_nome":"São Paulo"},"id":"46"},{"arcs":[[-94,-164,164,165,166,167]],"type":"Polygon","properties":{"codigo":"47","nome":"Tucuruvi - Jacana","municipio_nome":"São Paulo"},"id":"47"},{"arcs":[[-95,-168,168,169,170]],"type":"Polygon","properties":{"codigo":"48","nome":"Vila Medeiros","municipio_nome":"São Paulo"},"id":"48"},{"arcs":[[-96,-171,171,-99]],"type":"Polygon","properties":{"codigo":"49","nome":"Vila Maria Alta","municipio_nome":"São Paulo"},"id":"49"},{"arcs":[[-100,-172,-170,172,173,174,175,-102]],"type":"Polygon","properties":{"codigo":"50","nome":"Novo Mundo","municipio_nome":"São Paulo"},"id":"50"},{"arcs":[[-103,-176,176,177,178]],"type":"Polygon","properties":{"codigo":"51","nome":"Parque Sao Jorge","municipio_nome":"São Paulo"},"id":"51"},{"arcs":[[-105,-179,179,180,181,182]],"type":"Polygon","properties":{"codigo":"52","nome":"Tatuape","municipio_nome":"São Paulo"},"id":"52"},{"arcs":[[-106,-183,183,184,-108]],"type":"Polygon","properties":{"codigo":"53","nome":"Vila Diva I","municipio_nome":"São Paulo"},"id":"53"},{"arcs":[[-111,185,186,187,-115,-113]],"type":"Polygon","properties":{"codigo":"54","nome":"Tamanduatei","municipio_nome":"São Paulo"},"id":"54"},{"arcs":[[-116,-188,188,189,190,191,192]],"type":"Polygon","properties":{"codigo":"55","nome":"Sao Joao Climaco","municipio_nome":"São Paulo"},"id":"55"},{"arcs":[[-117,-193,193,194,195,196,-119]],"type":"Polygon","properties":{"codigo":"56","nome":"Sao Judas","municipio_nome":"São Paulo"},"id":"56"},{"arcs":[[-195,197,198,199,200,201,202]],"type":"Polygon","properties":{"codigo":"57","nome":"Jabaquara/Americanopolis","municipio_nome":"São Paulo"},"id":"57"},{"arcs":[[-196,-203,203,204,205]],"type":"Polygon","properties":{"codigo":"58","nome":"Aeroporto","municipio_nome":"São Paulo"},"id":"58"},{"arcs":[[-121,206,-205,207,208,209]],"type":"Polygon","properties":{"codigo":"59","nome":"Campo Belo","municipio_nome":"São Paulo"},"id":"59"},{"arcs":[[-210,210,211,212,213]],"type":"Polygon","properties":{"codigo":"60","nome":"Moncoes","municipio_nome":"São Paulo"},"id":"60"},{"arcs":[[-122,-214,214,215,-126]],"type":"Polygon","properties":{"codigo":"61","nome":"Vila Olimpia","municipio_nome":"São Paulo"},"id":"61"},{"arcs":[[-127,-216,216,217,-133,218]],"type":"Polygon","properties":{"codigo":"62","nome":"Iguatemi","municipio_nome":"São Paulo"},"id":"62"},{"arcs":[[-134,-218,219,220,-138,-136]],"type":"Polygon","properties":{"codigo":"63","nome":"Pinheiros","municipio_nome":"São Paulo"},"id":"63"},{"arcs":[[-139,-221,221,222,223,224,225,-141]],"type":"Polygon","properties":{"codigo":"64","nome":"Estrada da Boiada","municipio_nome":"São Paulo"},"id":"64"},{"arcs":[[-142,-226,226,227,-144]],"type":"Polygon","properties":{"codigo":"65","nome":"Alto da Lapa","municipio_nome":"São Paulo"},"id":"65"},{"arcs":[[-145,-228,228,229,230,-147]],"type":"Polygon","properties":{"codigo":"66","nome":"Vila Anastacio","municipio_nome":"São Paulo"},"id":"66"},{"arcs":[[-225,231,232,233,-229,-227]],"type":"Polygon","properties":{"codigo":"67","nome":"Ceasa","municipio_nome":"São Paulo"},"id":"67"},{"arcs":[[-230,-234,234,235,236,237,238]],"type":"Polygon","properties":{"codigo":"68","nome":"Vila Jaguare","municipio_nome":"São Paulo"},"id":"68"},{"arcs":[[-150,-231,-239,239,240,241]],"type":"Polygon","properties":{"codigo":"69","nome":"Pirituba","municipio_nome":"São Paulo"},"id":"69"},{"arcs":[[-241,242,243,244,245]],"type":"Polygon","properties":{"codigo":"70","nome":"Jaragua","municipio_nome":"São Paulo"},"id":"70"},{"arcs":[[-151,-242,-246,246,247,248]],"type":"Polygon","properties":{"codigo":"71","nome":"Brasilandia","municipio_nome":"São Paulo"},"id":"71"},{"arcs":[[-152,-249,249,250,-158,251,-154]],"type":"Polygon","properties":{"codigo":"72","nome":"V.Nova Cachoeirinha I","municipio_nome":"São Paulo"},"id":"72"},{"arcs":[[-248,252,253,254,-250]],"type":"Polygon","properties":{"codigo":"73","nome":"Estrada da Parada","municipio_nome":"São Paulo"},"id":"73"},{"arcs":[[-159,-251,-255,255,256,257]],"type":"Polygon","properties":{"codigo":"74","nome":"Jardim Peri","municipio_nome":"São Paulo"},"id":"74"},{"arcs":[[-163,258,259,-165]],"type":"Polygon","properties":{"codigo":"75","nome":"Barro Branco","municipio_nome":"São Paulo"},"id":"75"},{"arcs":[[-166,-260,260,261,262,263]],"type":"Polygon","properties":{"codigo":"76","nome":"Tremembe","municipio_nome":"São Paulo"},"id":"76"},{"arcs":[[-174,264,265,266,267,268]],"type":"Polygon","properties":{"codigo":"77","nome":"Cangaiba","municipio_nome":"São Paulo"},"id":"77"},{"arcs":[[-175,-269,269,270,-177]],"type":"Polygon","properties":{"codigo":"78","nome":"Penha","municipio_nome":"São Paulo"},"id":"78"},{"arcs":[[-268,271,272,273,-270]],"type":"Polygon","properties":{"codigo":"79","nome":"Vila Esperanca","municipio_nome":"São Paulo"},"id":"79"},{"arcs":[[-178,274,275,276,277,-180]],"type":"Polygon","properties":{"codigo":"80","nome":"Carrao","municipio_nome":"São Paulo"},"id":"80"},{"arcs":[[-271,-274,278,279,-275]],"type":"Polygon","properties":{"codigo":"81","nome":"Vila Matilde","municipio_nome":"São Paulo"},"id":"81"},{"arcs":[[-181,-278,280,281,282,283]],"type":"Polygon","properties":{"codigo":"82","nome":"Vila Formosa","municipio_nome":"São Paulo"},"id":"82"},{"arcs":[[-110,284,285,-283,286,287,288,-186]],"type":"Polygon","properties":{"codigo":"83","nome":"Vila Prudente","municipio_nome":"São Paulo"},"id":"83"},{"arcs":[[-266,289,290,291,292,293]],"type":"Polygon","properties":{"codigo":"84","nome":"Ermelindo Matarazzo","municipio_nome":"São Paulo"},"id":"84"},{"arcs":[[-267,-294,294,295,296,-272]],"type":"Polygon","properties":{"codigo":"85","nome":"Vila Re","municipio_nome":"São Paulo"},"id":"85"},{"arcs":[[-273,-297,297,298,299,-279]],"type":"Polygon","properties":{"codigo":"86","nome":"Artur Alvim","municipio_nome":"São Paulo"},"id":"86"},{"arcs":[[-276,-280,-300,300,301]],"type":"Polygon","properties":{"codigo":"87","nome":"Lider","municipio_nome":"São Paulo"},"id":"87"},{"arcs":[[-277,-302,302,303,304,-281]],"type":"Polygon","properties":{"codigo":"88","nome":"Cidade Centenario","municipio_nome":"São Paulo"},"id":"88"},{"arcs":[[-282,-305,305,306,307,-287]],"type":"Polygon","properties":{"codigo":"89","nome":"Sapopemba","municipio_nome":"São Paulo"},"id":"89"},{"arcs":[[308,309,310]],"type":"Polygon","properties":{"codigo":"90","nome":"Sao Miguel","municipio_nome":"São Paulo"},"id":"90"},{"arcs":[[-293,311,-311,312,313,314,-295]],"type":"Polygon","properties":{"codigo":"91","nome":"Saudade","municipio_nome":"São Paulo"},"id":"91"},{"arcs":[[-296,-315,315,316,-298]],"type":"Polygon","properties":{"codigo":"92","nome":"Itaquera","municipio_nome":"São Paulo"},"id":"92"},{"arcs":[[-299,-317,317,318,319,-303,-301]],"type":"Polygon","properties":{"codigo":"93","nome":"Carmo","municipio_nome":"São Paulo"},"id":"93"},{"arcs":[[-304,-320,320,321,322,-306]],"type":"Polygon","properties":{"codigo":"94","nome":"Sao Mateus","municipio_nome":"São Paulo"},"id":"94"},{"arcs":[[-292,323,324,325,326,-309,-312]],"type":"Polygon","properties":{"codigo":"95","nome":"Parque Paulistano","municipio_nome":"São Paulo"},"id":"95"},{"arcs":[[-310,-327,327,328,329,330,-313]],"type":"Polygon","properties":{"codigo":"96","nome":"Vila Curuca","municipio_nome":"São Paulo"},"id":"96"},{"arcs":[[-326,331,332,-328]],"type":"Polygon","properties":{"codigo":"97","nome":"Itaim Paulista","municipio_nome":"São Paulo"},"id":"97"},{"arcs":[[-314,-331,333,334,-318,-316]],"type":"Polygon","properties":{"codigo":"98","nome":"Parada Quinze","municipio_nome":"São Paulo"},"id":"98"},{"arcs":[[-329,335,336,337]],"type":"Polygon","properties":{"codigo":"99","nome":"Guaianazes I","municipio_nome":"São Paulo"},"id":"99"},{"arcs":[[-319,-335,338,-337,339,340,341,342,-321]],"type":"Polygon","properties":{"codigo":"100","nome":"Passagem Funda","municipio_nome":"São Paulo"},"id":"100"},{"arcs":[[-200,343,344,345,346]],"type":"Polygon","properties":{"codigo":"101","nome":"Sete Praias","municipio_nome":"São Paulo"},"id":"101"},{"arcs":[[-201,-347,347,348,349,350]],"type":"Polygon","properties":{"codigo":"102","nome":"Pedreira","municipio_nome":"São Paulo"},"id":"102"},{"arcs":[[-202,-351,351,352,-208,-204]],"type":"Polygon","properties":{"codigo":"103","nome":"Cupece","municipio_nome":"São Paulo"},"id":"103"},{"arcs":[[-350,353,354,355,356,-352]],"type":"Polygon","properties":{"codigo":"104","nome":"Campo Grande","municipio_nome":"São Paulo"},"id":"104"},{"arcs":[[-209,-353,-357,357,358,359,360,-211]],"type":"Polygon","properties":{"codigo":"105","nome":"Granja Julieta","municipio_nome":"São Paulo"},"id":"105"},{"arcs":[[-356,361,362,-358]],"type":"Polygon","properties":{"codigo":"106","nome":"Largo Treze","municipio_nome":"São Paulo"},"id":"106"},{"arcs":[[-360,363,364,365]],"type":"Polygon","properties":{"codigo":"107","nome":"Paraisopolis","municipio_nome":"São Paulo"},"id":"107"},{"arcs":[[-349,366,367,368,369,370,371,-354]],"type":"Polygon","properties":{"codigo":"108","nome":"Interlagos","municipio_nome":"São Paulo"},"id":"108"},{"arcs":[[-355,-372,372,373,-362]],"type":"Polygon","properties":{"codigo":"109","nome":"Largo do Socorro","municipio_nome":"São Paulo"},"id":"109"},{"arcs":[[-359,-363,-374,374,375,376,377,-364]],"type":"Polygon","properties":{"codigo":"110","nome":"Campo Limpo I","municipio_nome":"São Paulo"},"id":"110"},{"arcs":[[-368,378,379,380,381]],"type":"Polygon","properties":{"codigo":"111","nome":"Parelheiros","municipio_nome":"São Paulo"},"id":"111"},{"arcs":[[-371,382,383,384,385,-375,-373]],"type":"Polygon","properties":{"codigo":"112","nome":"Guarapiranga","municipio_nome":"São Paulo"},"id":"112"},{"arcs":[[-385,386,387,388,389]],"type":"Polygon","properties":{"codigo":"113","nome":"Pirajussara","municipio_nome":"São Paulo"},"id":"113"},{"arcs":[[-213,390,391,392,393,-222,-220,-217,-215]],"type":"Polygon","properties":{"codigo":"114","nome":"Cidade Jardim","municipio_nome":"São Paulo"},"id":"114"},{"arcs":[[-224,394,395,396,397,-232]],"type":"Polygon","properties":{"codigo":"115","nome":"Jaguare","municipio_nome":"São Paulo"},"id":"115"},{"arcs":[[-365,-378,398,399,400,-392,401]],"type":"Polygon","properties":{"codigo":"116","nome":"Estrada do Embu","municipio_nome":"São Paulo"},"id":"116"},{"arcs":[[-393,-401,402,403,-396,404]],"type":"Polygon","properties":{"codigo":"117","nome":"Rio Pequeno","municipio_nome":"São Paulo"},"id":"117"},{"arcs":[[-400,405,406,407,408,-403]],"type":"Polygon","properties":{"codigo":"118","nome":"Arpoador","municipio_nome":"São Paulo"},"id":"118"},{"arcs":[[409,410,411,412]],"type":"Polygon","properties":{"codigo":"119","nome":"Perus","municipio_nome":"São Paulo"},"id":"119"},{"arcs":[[413,414,415,416,417]],"type":"Polygon","properties":{"codigo":"120","nome":"Cajamar","municipio_nome":"Cajamar"},"id":"120"},{"arcs":[[-412,418,419,420,421]],"type":"Polygon","properties":{"codigo":"121","nome":"Caieiras","municipio_nome":"Caieiras"},"id":"121"},{"arcs":[[-421,422,423,424,425,426,427]],"type":"Polygon","properties":{"codigo":"122","nome":"Franco da Rocha","municipio_nome":"Franco da Rocha"},"id":"122"},{"arcs":[[-424,428,429,430,431]],"type":"Polygon","properties":{"codigo":"123","nome":"Francisco Morato","municipio_nome":"Francisco Morato"},"id":"123"},{"arcs":[[432,433,434]],"type":"Polygon","properties":{"codigo":"124","nome":"Mairipora","municipio_nome":"Mairiporã"},"id":"124"},{"arcs":[[-263,435,436,437,438,439,440]],"type":"Polygon","properties":{"codigo":"125","nome":"Morros","municipio_nome":"Guarulhos"},"id":"125"},{"arcs":[[-167,-264,-441,441,442,443]],"type":"Polygon","properties":{"codigo":"126","nome":"Timoteo Penteado","municipio_nome":"Guarulhos"},"id":"126"},{"arcs":[[-440,444,445,446,-442]],"type":"Polygon","properties":{"codigo":"127","nome":"Macedo","municipio_nome":"Guarulhos"},"id":"127"},{"arcs":[[-443,-447,447]],"type":"Polygon","properties":{"codigo":"128","nome":"Guarulhos","municipio_nome":"Guarulhos"},"id":"128"},{"arcs":[[-169,-444,-448,-446,448,-290,-265,-173]],"type":"Polygon","properties":{"codigo":"129","nome":"Varzea do Palacio","municipio_nome":"Guarulhos"},"id":"129"},{"arcs":[[-438,449,450,451,452,453,454,455]],"type":"Polygon","properties":{"codigo":"130","nome":"Estrada de Nazare","municipio_nome":"Guarulhos"},"id":"130"},{"arcs":[[-291,-449,456,-455,457,458,-324]],"type":"Polygon","properties":{"codigo":"131","nome":"Cumbica-Pimentas","municipio_nome":"Guarulhos"},"id":"131"},{"arcs":[[-454,459,460,461,-458]],"type":"Polygon","properties":{"codigo":"132","nome":"Aruja","municipio_nome":"Arujá"},"id":"132"},{"arcs":[[462,463]],"type":"Polygon","properties":{"codigo":"133","nome":"Sta Isabel","municipio_nome":"Santa Isabel"},"id":"133"},{"arcs":[[-325,-459,-462,464,465,466,467]],"type":"Polygon","properties":{"codigo":"134","nome":"Corredor-Itaqua","municipio_nome":"Itaquaquecetuba"},"id":"134"},{"arcs":[[-332,-468,468,469]],"type":"Polygon","properties":{"codigo":"135","nome":"Itaquaquecetuba","municipio_nome":"Itaquaquecetuba"},"id":"135"},{"arcs":[[-467,470,471,472,473,-469]],"type":"Polygon","properties":{"codigo":"136","nome":"Porto de Areia","municipio_nome":"Itaquaquecetuba"},"id":"136"},{"arcs":[[-333,474,475,476,-340,-336]],"type":"Polygon","properties":{"codigo":"137","nome":"Ferraz de Vasconcelos","municipio_nome":"Ferraz de Vasconcelos"},"id":"137"},{"arcs":[[-470,-474,477,478,-475]],"type":"Polygon","properties":{"codigo":"138","nome":"Poa","municipio_nome":"Poá"},"id":"138"},{"arcs":[[-473,479,480,481,482,483,-478]],"type":"Polygon","properties":{"codigo":"139","nome":"Suzano","municipio_nome":"Suzano"},"id":"139"},{"arcs":[[-481,484,485,486]],"type":"Polygon","properties":{"codigo":"140","nome":"Jundiapeba","municipio_nome":"Mogi das Cruzes"},"id":"140"},{"arcs":[[-486,487,488,489,490]],"type":"Polygon","properties":{"codigo":"141","nome":"Bras Cubas","municipio_nome":"Mogi das Cruzes"},"id":"141"},{"arcs":[[-489,491,492,493]],"type":"Polygon","properties":{"codigo":"142","nome":"Mogi das Cruzes","municipio_nome":"Mogi das Cruzes"},"id":"142"},{"arcs":[[-490,-494,494,495]],"type":"Polygon","properties":{"codigo":"143","nome":"Cocuera","municipio_nome":"Mogi das Cruzes"},"id":"143"},{"arcs":[[-493,496,497,498,-495]],"type":"Polygon","properties":{"codigo":"144","nome":"Cesar de Souza","municipio_nome":"Mogi das Cruzes"},"id":"144"},{"arcs":[[-498,499,500,501]],"type":"Polygon","properties":{"codigo":"145","nome":"Sabauna","municipio_nome":"Mogi das Cruzes"},"id":"145"},{"arcs":[[-501,502,503,504,505,506]],"type":"Polygon","properties":{"codigo":"146","nome":"Guararema","municipio_nome":"Guararema"},"id":"146"},{"arcs":[[-502,-507,507,508,509]],"type":"Polygon","properties":{"codigo":"147","nome":"Biritiba Mirim","municipio_nome":"Biritiba Mirim"},"id":"147"},{"arcs":[[-506,510,-508]],"type":"Polygon","properties":{"codigo":"148","nome":"Salesopolis","municipio_nome":"Salesopólis"},"id":"148"},{"arcs":[[-322,-343,511,512,513,514,515,516,517,518]],"type":"Polygon","properties":{"codigo":"149","nome":"Capuava","municipio_nome":"Mauá"},"id":"149"},{"arcs":[[-516,519]],"type":"Polygon","properties":{"codigo":"150","nome":"Maua","municipio_nome":"Mauá"},"id":"150"},{"arcs":[[-515,520,521,522,523,-517,-520]],"type":"Polygon","properties":{"codigo":"151","nome":"Corrego da Serraria","municipio_nome":"Mauá"},"id":"151"},{"arcs":[[-514,524,525,526,527,528]],"type":"Polygon","properties":{"codigo":"152","nome":"Ribeirao Pires","municipio_nome":"Ribeirão Pires"},"id":"152"},{"arcs":[[-527,529,530,531]],"type":"Polygon","properties":{"codigo":"153","nome":"Rio Grande da Serra","municipio_nome":"Rio Grande da Serra"},"id":"153"},{"arcs":[[-307,-323,-519,532,533,534]],"type":"Polygon","properties":{"codigo":"154","nome":"Parque das Nacoes","municipio_nome":"Santo André"},"id":"154"},{"arcs":[[-288,-308,-535,535,536,537,538]],"type":"Polygon","properties":{"codigo":"155","nome":"Utinga","municipio_nome":"Santo André"},"id":"155"},{"arcs":[[-537,539,540,541,542]],"type":"Polygon","properties":{"codigo":"156","nome":"Palmares","municipio_nome":"Santo André"},"id":"156"},{"arcs":[[-534,543,-540,-536]],"type":"Polygon","properties":{"codigo":"157","nome":"Santo Andre","municipio_nome":"Santo André"},"id":"157"},{"arcs":[[-518,-524,544,545,546,-541,-544,-533]],"type":"Polygon","properties":{"codigo":"158","nome":"Vila Pires","municipio_nome":"Santo André"},"id":"158"},{"arcs":[[-523,547,548,549,-545]],"type":"Polygon","properties":{"codigo":"159","nome":"Vila Luzita","municipio_nome":"Santo André"},"id":"159"},{"arcs":[[-187,-289,-539,550,-189]],"type":"Polygon","properties":{"codigo":"160","nome":"Sao Caetano","municipio_nome":"São Caetano do Sul"},"id":"160"},{"arcs":[[-190,-551,-538,-543,551]],"type":"Polygon","properties":{"codigo":"161","nome":"Vila Gerti","municipio_nome":"São Caetano do Sul"},"id":"161"},{"arcs":[[-191,-552,-542,552,553,554]],"type":"Polygon","properties":{"codigo":"162","nome":"Rudge Ramos","municipio_nome":"São Bernardo do Campo"},"id":"162"},{"arcs":[[-547,555,556,557,-553]],"type":"Polygon","properties":{"codigo":"163","nome":"Anchieta","municipio_nome":"São Bernardo do Campo"},"id":"163"},{"arcs":[[-546,-550,558,-556]],"type":"Polygon","properties":{"codigo":"164","nome":"Sao Bernardo do Campo","municipio_nome":"São Bernardo do Campo"},"id":"164"},{"arcs":[[-549,559,560,561,-557,-559]],"type":"Polygon","properties":{"codigo":"165","nome":"Demarchi","municipio_nome":"São Bernardo do Campo"},"id":"165"},{"arcs":[[-561,562,563,564,565]],"type":"Polygon","properties":{"codigo":"166","nome":"Riacho Grande","municipio_nome":"São Bernardo do Campo"},"id":"166"},{"arcs":[[-554,-558,-562,566,567]],"type":"Polygon","properties":{"codigo":"167","nome":"Piraporinha","municipio_nome":"Diadema"},"id":"167"},{"arcs":[[-199,568,-555,-568,569,-344]],"type":"Polygon","properties":{"codigo":"168","nome":"Diadema","municipio_nome":"Diadema"},"id":"168"},{"arcs":[[-345,-570,-567,-566,570]],"type":"Polygon","properties":{"codigo":"169","nome":"Eldorado","municipio_nome":"Diadema"},"id":"169"},{"arcs":[[-381,571,572,573,574,575]],"type":"Polygon","properties":{"codigo":"170","nome":"Embu-Guacu","municipio_nome":"Embu-Guacu"},"id":"170"},{"arcs":[[-380,576,577,-572]],"type":"Polygon","properties":{"codigo":"171","nome":"Cipo","municipio_nome":"Embu-Guacu"},"id":"171"},{"arcs":[[-377,578,-389,579,580,581,-406,-399]],"type":"Polygon","properties":{"codigo":"172","nome":"Taboao da Serra","municipio_nome":"Taboão da Serra"},"id":"172"},{"arcs":[[-388,582,583,584,-580]],"type":"Polygon","properties":{"codigo":"173","nome":"Embu","municipio_nome":"Embu"},"id":"173"},{"arcs":[[-384,585,586,-575,587,-583,-387]],"type":"Polygon","properties":{"codigo":"174","nome":"Itapecerica","municipio_nome":"Itapecerica da Serra"},"id":"174"},{"arcs":[[-574,588,589,590,591,592,-588]],"type":"Polygon","properties":{"codigo":"175","nome":"Embu-mirim","municipio_nome":"Itapecerica da Serra"},"id":"175"},{"arcs":[[593,594,595,596]],"type":"Polygon","properties":{"codigo":"176","nome":"Juquitiba","municipio_nome":"Juquitiba"},"id":"176"},{"arcs":[[-581,-585,597,598,599,600]],"type":"Polygon","properties":{"codigo":"177","nome":"Granja Viana","municipio_nome":"Cotia"},"id":"177"},{"arcs":[[-599,601,602,603,604,605,606,607,608]],"type":"Polygon","properties":{"codigo":"178","nome":"Cotia","municipio_nome":"Cotia"},"id":"178"},{"arcs":[[-592,609,-603,610]],"type":"Polygon","properties":{"codigo":"179","nome":"Capueira","municipio_nome":"Cotia"},"id":"179"},{"arcs":[[611,612,613]],"type":"Polygon","properties":{"codigo":"180","nome":"Caucaia do Alto","municipio_nome":"Cotia"},"id":"180"},{"arcs":[[-605,614,-614,615,616]],"type":"Polygon","properties":{"codigo":"181","nome":"Vargem Grande Paulista","municipio_nome":"Vargem Grande Paulista"},"id":"181"},{"arcs":[[-404,-409,617,618]],"type":"Polygon","properties":{"codigo":"182","nome":"Bussocaba","municipio_nome":"Osasco"},"id":"182"},{"arcs":[[-397,-619,619,620,621]],"type":"Polygon","properties":{"codigo":"183","nome":"Osasco","municipio_nome":"Osasco"},"id":"183"},{"arcs":[[-233,-398,-622,622,-235]],"type":"Polygon","properties":{"codigo":"184","nome":"Mutinga","municipio_nome":"Osasco"},"id":"184"},{"arcs":[[-408,623,624,625,626,-620,-618]],"type":"Polygon","properties":{"codigo":"185","nome":"Quitauna","municipio_nome":"Osasco"},"id":"185"},{"arcs":[[-236,-623,-621,-627,627,628,629]],"type":"Polygon","properties":{"codigo":"186","nome":"Jardim Helena Maria","municipio_nome":"Osasco"},"id":"186"},{"arcs":[[-600,-609,630,631,632,633]],"type":"Polygon","properties":{"codigo":"187","nome":"Aldeia de Carapicuiba","municipio_nome":"Carapicuíba"},"id":"187"},{"arcs":[[-625,-633,634]],"type":"Polygon","properties":{"codigo":"188","nome":"Vila Dirce","municipio_nome":"Carapicuíba"},"id":"188"},{"arcs":[[-626,-635,-632,635,636,-628]],"type":"Polygon","properties":{"codigo":"189","nome":"Carapicuiba","municipio_nome":"Carapicuíba"},"id":"189"},{"arcs":[[-629,-637,637,638,639,640]],"type":"Polygon","properties":{"codigo":"190","nome":"Tambore","municipio_nome":"Barueri"},"id":"190"},{"arcs":[[-636,641,642,643,644,-638]],"type":"Polygon","properties":{"codigo":"191","nome":"Barueri","municipio_nome":"Barueri"},"id":"191"},{"arcs":[[-643,645,646,647]],"type":"Polygon","properties":{"codigo":"192","nome":"Jandira","municipio_nome":"Jandira"},"id":"192"},{"arcs":[[-607,648,649,650,651,-647,652]],"type":"Polygon","properties":{"codigo":"193","nome":"Itapevi","municipio_nome":"Itapevi"},"id":"193"},{"arcs":[[-414,653,-639,-645,654,-651,655,656,657]],"type":"Polygon","properties":{"codigo":"194","nome":"Santana do Parnaiba","municipio_nome":"Santana de Parnaíba"},"id":"194"},{"arcs":[[-657,658,659]],"type":"Polygon","properties":{"codigo":"195","nome":"Pirapora Bom Jesus","municipio_nome":"Pirapora Bom Jesus"},"id":"195"},{"arcs":[[-124,-129,660,-131,661]],"type":"Polygon","properties":{"codigo":"196","nome":"Itaim II","municipio_nome":"São Paulo"},"id":"196"},{"arcs":[[-128,-219,-132,-661]],"type":"Polygon","properties":{"codigo":"197","nome":"Jardins II","municipio_nome":"São Paulo"},"id":"197"},{"arcs":[[-182,-284,-286,662,-184]],"type":"Polygon","properties":{"codigo":"198","nome":"Vila Diva II","municipio_nome":"São Paulo"},"id":"198"},{"arcs":[[-109,-185,-663,-285]],"type":"Polygon","properties":{"codigo":"199","nome":"Vila Diva III","municipio_nome":"São Paulo"},"id":"199"},{"arcs":[[-155,-252,-157]],"type":"Polygon","properties":{"codigo":"200","nome":"V.Nova Cachoeirinha II","municipio_nome":"São Paulo"},"id":"200"},{"arcs":[[-257,663,664]],"type":"Polygon","properties":{"codigo":"201","nome":"Pedra Branca","municipio_nome":"São Paulo"},"id":"201"},{"arcs":[[-330,-338,-339,-334]],"type":"Polygon","properties":{"codigo":"202","nome":"Guaianazes II","municipio_nome":"São Paulo"},"id":"202"},{"arcs":[[-212,-361,-366,-402,-391]],"type":"Polygon","properties":{"codigo":"203","nome":"Morumbi","municipio_nome":"São Paulo"},"id":"203"},{"arcs":[[-376,-386,-390,-579]],"type":"Polygon","properties":{"codigo":"204","nome":"Campo Limpo II","municipio_nome":"São Paulo"},"id":"204"},{"arcs":[[-36,-88,-89]],"type":"Polygon","properties":{"codigo":"205","nome":"Campo de Marte/Anhembi","municipio_nome":"São Paulo"},"id":"205"},{"arcs":[[-61,-125,-662,-130]],"type":"Polygon","properties":{"codigo":"206","nome":"Pq. Ibirapuera","municipio_nome":"São Paulo"},"id":"206"},{"arcs":[[-192,-569,-198,-194]],"type":"Polygon","properties":{"codigo":"207","nome":"Pq. do Estado","municipio_nome":"São Paulo"},"id":"207"},{"arcs":[[-120,-197,-206,-207]],"type":"Polygon","properties":{"codigo":"208","nome":"Cogonhas","municipio_nome":"São Paulo"},"id":"208"},{"arcs":[[-160,-258,-665,665,-261,-259,-162]],"type":"Polygon","properties":{"codigo":"209","nome":"Horto Florestal","municipio_nome":"São Paulo"},"id":"209"},{"arcs":[[-223,-394,-405,-395]],"type":"Polygon","properties":{"codigo":"210","nome":"USP","municipio_nome":"São Paulo"},"id":"210"},{"arcs":[[-238,666,667,-243,-240]],"type":"Polygon","properties":{"codigo":"211","nome":"Pico Jaragua","municipio_nome":"São Paulo"},"id":"211"},{"arcs":[[-439,-456,-457,-445]],"type":"Polygon","properties":{"codigo":"212","nome":"Aeroporto de Cumbica","municipio_nome":"Guarulhos"},"id":"212"},{"arcs":[[-244,-668,668,-640,-654,-418,669,-410,670]],"type":"Polygon","properties":{"codigo":"213","nome":"Anhaguera","municipio_nome":"São Paulo"},"id":"213"},{"arcs":[[-245,-671,-413,671,672,-253,-247]],"type":"Polygon","properties":{"codigo":"214","nome":"Parada de Taipas","municipio_nome":"São Paulo"},"id":"214"},{"arcs":[[-254,-673,673,674,-435,675,676,-436,-262,-666,-664,-256]],"type":"Polygon","properties":{"codigo":"215","nome":"Cantareira","municipio_nome":"São Paulo"},"id":"215"},{"arcs":[[-346,-571,-565,677,678,-594,679,-577,-379,-367,-348]],"type":"Polygon","properties":{"codigo":"216","nome":"Eng. Marsilac","municipio_nome":"São Paulo"},"id":"216"},{"arcs":[[-370,680,-586,-383]],"type":"Polygon","properties":{"codigo":"217","nome":"Baronesa","municipio_nome":"São Paulo"},"id":"217"},{"arcs":[[-369,-382,-576,-587,-681]],"type":"Polygon","properties":{"codigo":"218","nome":"Jaceguava","municipio_nome":"São Paulo"},"id":"218"},{"arcs":[[-415,-658,-660,681,682]],"type":"Polygon","properties":{"codigo":"219","nome":"Morro do Mateus","municipio_nome":"Cajamar"},"id":"219"},{"arcs":[[-411,-670,-417,683,-419]],"type":"Polygon","properties":{"codigo":"220","nome":"Monjolinho","municipio_nome":"Caieiras"},"id":"220"},{"arcs":[[-422,-428,684,-674,-672]],"type":"Polygon","properties":{"codigo":"221","nome":"Santa Ines","municipio_nome":"Caieiras"},"id":"221"},{"arcs":[[-416,-683,685,686,-429,-423,-420,-684]],"type":"Polygon","properties":{"codigo":"222","nome":"Cristais","municipio_nome":"Franco da Rocha"},"id":"222"},{"arcs":[[-426,687,688,689]],"type":"Polygon","properties":{"codigo":"223","nome":"Campo de Sao Benedito","municipio_nome":"Franco da Rocha"},"id":"223"},{"arcs":[[-430,-687,690]],"type":"Polygon","properties":{"codigo":"224","nome":"Sete Voltas","municipio_nome":"Francisco Morato"},"id":"224"},{"arcs":[[-425,-432,691,-688]],"type":"Polygon","properties":{"codigo":"225","nome":"Cascatas","municipio_nome":"Francisco Morato"},"id":"225"},{"arcs":[[-427,-690,692,693,-433,-675,-685]],"type":"Polygon","properties":{"codigo":"226","nome":"Represa do Juqueri","municipio_nome":"Mairiporã"},"id":"226"},{"arcs":[[-434,-694,694,695,-451,696,-676]],"type":"Polygon","properties":{"codigo":"227","nome":"Pirucai","municipio_nome":"Mairiporã"},"id":"227"},{"arcs":[[-437,-677,-697,-450]],"type":"Polygon","properties":{"codigo":"228","nome":"Cabucu","municipio_nome":"Guarulhos"},"id":"228"},{"arcs":[[-452,-696,697,698,699]],"type":"Polygon","properties":{"codigo":"229","nome":"Morro Grande","municipio_nome":"Guarulhos"},"id":"229"},{"arcs":[[-453,-700,700,701,-460]],"type":"Polygon","properties":{"codigo":"230","nome":"Fazenda Velha","municipio_nome":"Arujá"},"id":"230"},{"arcs":[[-461,-702,702,703,704,-465]],"type":"Polygon","properties":{"codigo":"231","nome":"Estradas dos Indios","municipio_nome":"Arujá"},"id":"231"},{"arcs":[[-463,705,-703,-701,-699,706,-504]],"type":"Polygon","properties":{"codigo":"232","nome":"Reservatorio do Jaguari","municipio_nome":"Santa Isabel"},"id":"232"},{"arcs":[[-466,-705,707,-471]],"type":"Polygon","properties":{"codigo":"233","nome":"Jardim Joseli","municipio_nome":"Itaquaquecetuba"},"id":"233"},{"arcs":[[-341,-477,708,709,710]],"type":"Polygon","properties":{"codigo":"234","nome":"Guaiu","municipio_nome":"Ferraz de Vasconcelos"},"id":"234"},{"arcs":[[-476,-479,-484,711,-709]],"type":"Polygon","properties":{"codigo":"235","nome":"Jardim Sao Jose","municipio_nome":"Poá"},"id":"235"},{"arcs":[[-483,712,713,714,715,-710,-712]],"type":"Polygon","properties":{"codigo":"236","nome":"Palmeiras","municipio_nome":"Suzano"},"id":"236"},{"arcs":[[-464,-503,-500,-497,-492,-488,-485,-480,-472,-708,-704,-706]],"type":"Polygon","properties":{"codigo":"237","nome":"Itapeti","municipio_nome":"Mogi das Cruzes"},"id":"237"},{"arcs":[[-482,-487,-491,-496,-499,-510,716,717,-713]],"type":"Polygon","properties":{"codigo":"238","nome":"Taiacupeba","municipio_nome":"Mogi das Cruzes"},"id":"238"},{"arcs":[[-342,-711,718,-512]],"type":"Polygon","properties":{"codigo":"239","nome":"Vila Aparecida","municipio_nome":"Mauá"},"id":"239"},{"arcs":[[-513,-719,-716,719,-525]],"type":"Polygon","properties":{"codigo":"240","nome":"Pilar Velho","municipio_nome":"Ribeirão Pires"},"id":"240"},{"arcs":[[-521,-529,720,721]],"type":"Polygon","properties":{"codigo":"241","nome":"Jardim Cacula","municipio_nome":"Ribeirão Pires"},"id":"241"},{"arcs":[[-526,-720,-715,722,-530]],"type":"Polygon","properties":{"codigo":"242","nome":"Sete Pontes","municipio_nome":"Rio Grande da Serra"},"id":"242"},{"arcs":[[-528,-532,723,-721]],"type":"Polygon","properties":{"codigo":"243","nome":"Parque America","municipio_nome":"Rio Grande da Serra"},"id":"243"},{"arcs":[[-522,-722,-724,-531,-723,-714,-718,724,725,-563,-560,-548]],"type":"Polygon","properties":{"codigo":"244","nome":"Paranapiacaba","municipio_nome":"Santo André"},"id":"244"},{"arcs":[[-564,-726,726,-678]],"type":"Polygon","properties":{"codigo":"245","nome":"Caminho do Mar","municipio_nome":"São Bernardo do Campo"},"id":"245"},{"arcs":[[-573,-578,-680,-597,727,-589]],"type":"Polygon","properties":{"codigo":"246","nome":"Itarare","municipio_nome":"Embu-Guacu"},"id":"246"},{"arcs":[[-584,-593,-611,-602,-598]],"type":"Polygon","properties":{"codigo":"247","nome":"Ressaca","municipio_nome":"Embu"},"id":"247"},{"arcs":[[-590,-728,-596,728,729]],"type":"Polygon","properties":{"codigo":"248","nome":"Sao Lourenco","municipio_nome":"Itapecerica da Serra"},"id":"248"},{"arcs":[[-591,-730,730,-612,-615,-604,-610]],"type":"Polygon","properties":{"codigo":"249","nome":"Reserva de Caucaia","municipio_nome":"Cotia"},"id":"249"},{"arcs":[[-407,-582,-601,-634,-624]],"type":"Polygon","properties":{"codigo":"250","nome":"Jardim das Flores","municipio_nome":"Osasco"},"id":"250"},{"arcs":[[-237,-630,-641,-669,-667]],"type":"Polygon","properties":{"codigo":"251","nome":"Tres Montanhas","municipio_nome":"Osasco"},"id":"251"},{"arcs":[[-644,-648,-652,-655]],"type":"Polygon","properties":{"codigo":"252","nome":"Jardim Beval","municipio_nome":"Barueri"},"id":"252"},{"arcs":[[-608,-653,-646,-642,-631]],"type":"Polygon","properties":{"codigo":"253","nome":"Ribeirao das Pombas","municipio_nome":"Jandira"},"id":"253"},{"arcs":[[-606,-617,731,-649]],"type":"Polygon","properties":{"codigo":"254","nome":"Quatro Encruziliadas","municipio_nome":"Itapevi"},"id":"254"}]}}}